id,name,lat,long,street
1,Bronowice Małe 05,50.081063888,19.880613055,Na Błonie
2,Giełda Balicka 01,50.08155,19.87559,Balicka
3,Lindego 01,50.08085,19.86976,Balicka
4,UR Balicka 01,50.08095,19.86513,Balicka
5,Młynówka SKA 01,50.08141,19.85836,Balicka
6,Godlewskiego 01,50.08239,19.85357,Balicka
7,Zakliki 01,50.08307,19.84994,Balicka
8,Wierzyńskiego 01,50.084979444,19.8444725,Balicka
9,Cmentarz Mydlniki 01,50.087228888,19.841355,Balicka
10,Mydlniki Granica Miasta 01,50.089922777,19.837743333,Balicka
11,Rząska Podkamycze,50.091440277,19.829488888,Rząska ul. Balicka
12,Szczyglice Autostrada,50.092971111,19.815672777,Szczyglice ul. Długa
13,Szczyglice Dom Kultury,50.0940175,19.808369166,Szczyglice ul. Długa
14,Szczyglice Skrzyżowanie,50.092851388,19.803840277,Szczyglice ul. Kmity
15,Szczyglice Błonie,50.085296666,19.808440277,Szczyglice ul. Krakowska
16,Balice Autostrada,50.0849125,19.804189722,Balice ul. Krakowska
17,Balice Szkoła,50.0848775,19.793932222,Balice ul. Krakowska
18,Balice Remiza,50.086789722,19.790970277,Balice ul. Radziwiłłów
19,Balice Leśna,50.089945555,19.786671944,Balice ul. Radziwiłłów
20,Balice Grzybów,50.0909075,19.781928055,Balice ul. Radziwiłłów
21,Burów Balica,50.093833888,19.774023333,Burów
22,Burów Centrum,50.095253611,19.769341388,Burów
23,Kleszczów Pod Lipką,50.102899166,19.752964444,Kleszczów
24,Kleszczów Centrum,50.104901666,19.748825833,Kleszczów
25,Kochanów Sowiarka,50.112653055,19.732371388,Kochanów ul. Lubomirskich
26,Rudawa Stadion,50.114473888,19.711412777,Rudawa ul. Wyspiańskiego
27,Rudawa PKP,50.119762777,19.713541388,Rudawa ul. Wyspiańskiego
28,Rudawa Rynek,50.122580833,19.7116625,Rudawa
29,Mydlniki Granica Miasta,50.090233888,19.837001944,Rząska ul. Balicka
30,Cmentarz Mydlniki 02,50.087306388,19.841109166,Balicka
31,Wierzyńskiego 02,50.084207222,19.845354166,Balicka
32,Zakliki 02,50.08315,19.84918,Balicka
33,Godlewskiego 02,50.08232,19.85341,Balicka
34,Młynówka SKA 02,50.08119,19.85907,Balicka
35,UR Balicka 02,50.08084,19.86548,Balicka
36,Lindego 02,50.08078,19.87205,Balicka
37,Giełda Balicka 02,50.08154,19.87585,Balicka
38,Bronowice Małe 02,50.08109,19.88047,Na Błonie
39,Szczyglice Most,50.0878625,19.818302222,Szczyglice ul. Krakowska
40,Balice Instytut Zootechniki,50.083860277,19.788948333,Balice ul. Krakowska
41,Balice Krakowska,50.083409166,19.782738333,Balice ul. Krakowska
42,Balice Winna Góra,50.082550277,19.775953888,Aleksandrowice
43,Aleksandrowice Osiedle,50.081698888,19.769260277,Aleksandrowice
44,Aleksandrowice Centrum,50.081254722,19.763993333,Aleksandrowice
45,Morawica Szkoła,50.080354166,19.756046666,Morawica
46,Brzoskwinia Koziary,50.090642222,19.734903055,Brzoskwinia ul. Krakowska
47,Brzoskwinia Góra,50.094015,19.728848333,Brzoskwinia ul. Krakowska
48,Brzoskwinia Remiza,50.095685277,19.718598888,Brzoskwinia ul. Tenczyńskich
49,Brzoskwinia Kamyk,50.093273333,19.710059722,Brzoskwinia ul. Tenczyńskich
50,Brzoskwinia Pętla,50.0898,19.70291,Brzoskwinia ul. Widokowa
51,Nielepice Stadnina,50.103066388,19.715180833,Nielepice ul. Długa
52,Nielepice Pętla,50.106718888,19.709648055,Nielepice ul. Długa
53,Skawina SCK,49.976502222,19.82158,Skawina ul. Niepodległości
54,Skawina Cmentarz,49.975823055,19.831095833,Skawina ul. Popiełuszki
55,Skawina Rynek,49.975199166,19.827908611,Skawina ul. Pokoju
57,Skawina Sąd,49.975875277,19.817770277,Skawina ul. Mickiewicza
58,Skawina Koncentraty,49.973800555,19.813979722,Skawina ul. Hallerów
59,Rzozów Baseny,49.961884444,19.805565833,Rzozów
61,Rzozów Skotnica,49.952575555,19.796280277,Rzozów
62,Rzozów Zagonnie,49.949365,19.801146944,Rzozów
63,Rzozów PKP,49.945458888,19.804016388,Radziszów ul. Kolejowa
64,Radziszów Cmentarz,49.9413125,19.806361944,Radziszów ul. Przemysłowa
65,Radziszów Za Mogiłką,49.938539166,19.801203611,Radziszów ul. Przemysłowa
66,Jurczyce Podole,49.938753333,19.790585833,Jurczyce
67,Jurczyce Szkoła,49.938804166,19.785931944,Jurczyce
68,Jurczyce Dom Ludowy,49.9384575,19.780920833,Jurczyce
70,Gołuchowice Sklep,49.940742777,19.772058055,Gołuchowice
71,Polanka Hallera Dwór,49.936925833,19.766585,Polanka Hallera
72,Polanka Hallera Centrum,49.933021666,19.768049166,Polanka Hallera
74,Grabie Kuźnia,49.927930277,19.740595833, 
75,Grabie Pętla,49.926464444,19.735698055, 
77,Struga 06,50.074653055,20.046118055,al. Solidarności
78,Aleja Róż 01,50.07573,20.03859,al. Róż
79,Żeromskiego 01,50.07911,20.03864,Żeromskiego
80,Teatr Ludowy 05,50.08103,20.03406,Obrońców Krzyża
81,Arka 02,50.0840425,20.029923611,Obrońców Krzyża
82,Rondo Hipokratesa 04,50.090379722,20.022874722,Obrońców Krzyża
83,Os. Na Lotnisku 02,50.086166944,20.012860277,al. Andersa
84,Wiślicka 01,50.0878,20.00051,al. Bora-Komorowskiego
85,Bora-Komorowskiego 01,50.08584,19.97846,al. Bora-Komorowskiego
86,Miechowity 03,50.083418611,19.970431111,Młyńska
87,Rondo Młyńskie 02,50.079750555,19.972276944,Pilotów
88,Rondo Mogilskie 08,50.067047777,19.957930277,Lubomirskiego
89,Uniwersytet Ekonomiczny 04,50.068318333,19.951702222,Wita Stwosza
90,Politechnika 01,50.071341,19.945059,Pawia
91,Nowy Kleparz 04,50.073788611,19.934987222,al. Słowackiego
92,Plac Inwalidów 04,50.068810277,19.925904166,al. Mickiewicza
93,Czarnowiejska 01,50.066540833,19.922329722,Czarnowiejska
94,Miasteczko Studenckie AGH 02,50.069898333,19.905584722,Nawojki
95,Przybyszewskiego 02,50.071054444,19.897735277,Armii Krajowej
96,Zarzecze 02,50.077309444,19.889296944,Armii Krajowej
97,Bronowice SKA 06,50.08082,19.89066,Armii Krajowej
98,Rondo Ofiar Katynia 04,50.088123055,19.892346666,Jasnogórska
99,Stawowa 02,50.095080833,19.892620833,Jasnogórska
100,Jasnogórska 03,50.0979,19.89174,Chełmońskiego
101,Piaskowa 01,50.09518,19.89773,Chełmońskiego
102,Chełmońskiego Osiedle 02,50.091783055,19.902153333,Stawowa
103,Chełmońskiego Pętla 04,50.09354,19.89757,Stawowa
104,Stawowa 01,50.09385,19.892701388,Jasnogórska
105,Rondo Ofiar Katynia 03,50.086632222,19.891058888,Armii Krajowej
106,Bronowice SKA 07,50.081535,19.890548333,Armii Krajowej
107,Zarzecze 01,50.076750277,19.888642777,Armii Krajowej
108,Przybyszewskiego 01,50.070635,19.898988055,Armii Krajowej
109,Miasteczko Studenckie AGH 01,50.069619722,19.906450833,Nawojki
110,Czarnowiejska 02,50.066206111,19.922917222,Czarnowiejska
111,Plac Inwalidów 03,50.069381388,19.926953055,al. Słowackiego
112,Nowy Kleparz 03,50.073616666,19.937271388,al. Słowackiego
113,Politechnika 08,50.071080277,19.944637222,Pawia
114,Uniwersytet Ekonomiczny 03,50.067719166,19.953124166,Lubomirskiego
115,Rondo Mogilskie 06,50.067139444,19.959706388,al. Beliny-Prażmowskiego
116,Pilotów 01,50.078783333,19.971497777,Pilotów
117,Miechowity 02,50.083048888,19.970922777,Młyńska
118,Bora-Komorowskiego 02,50.08577,19.98061,al. Bora-Komorowskiego
119,Wiślicka 02,50.087575833,20.002118055,al. Bora-Komorowskiego
120,Os. Na Lotnisku 01,50.086586666,20.013876388,Dunikowskiego
121,Rondo Hipokratesa 03,50.090058333,20.023784444,Obrońców Krzyża
122,Arka 01,50.083490555,20.030394722,Obrońców Krzyża
123,Teatr Ludowy 06,50.0813,20.0334,Obrońców Krzyża
124,Żeromskiego 02,50.07811,20.03918,al. Róż
125,Aleja Róż 03,50.074788055,20.038866944,al. Przyjaźni
126,Struga 03,50.074766388,20.047584722,al. Solidarności
127,Krowodrza Górka P+R 04,50.088569444,19.931230833,Krowoderskich Zuchów
128,Krowodrza Górka P+R 07,50.088982222,19.932581944,Ździebły-Danowskiego
129,Pachońskiego P+R 04,50.094857222,19.929748055,Pachońskiego
130,Piaszczysta 02,50.096611666,19.931558611,Matki Pauli Zofii Tajber
131,Glogera 02,50.102499166,19.927695277,Glogera
132,Glogera Granica Miasta 02,50.104271944,19.926456111,Glogera
133,Zielonki Skrzyżowanie,50.108362777,19.924198611,Zielonki ul. Krakowskie Przedmieście
134,Zielonki Urząd Gminy,50.118203055,19.920994444,Zielonki ul. Krakowskie Przedmieście
135,Zielonki Transformator,50.123819722,19.920243888,Zielonki ul. Krakowskie Przedmieście
136,Zielonki Rozjazd,50.129320277,19.916986388,Zielonki ul. Krakowskie Przedmieście
137,Trojanowice Strugi,50.134280277,19.906120833,Trojanowice ul. Krakowskie Przedmieście
138,Trojanowice Słoneczna,50.1395775,19.898778888,Trojanowice ul. Krakowskie Przedmieście
139,Januszowice Młyńska,50.149378888,19.893201111,Januszowice ul. Krakowska
140,Januszowice Plac Zabaw,50.151107222,19.892191111,Januszowice ul. Młyńska
141,Korzkiew Botoja,50.155895,19.883523888,Korzkiew ul. Korzkiewska
142,Korzkiew Zamek,50.161637777,19.881249444,Korzkiew ul. Korzkiewska
143,Grębynice Remiza,50.166251388,19.872195277,Grębynice ul. Orlich Gniazd
144,Grębynice Parkowa,50.168047777,19.867553333,Grębynice ul. Orlich Gniazd
145,Grębynice Mogiełki,50.174402222,19.863685833,Maszyce
146,Maszyce Sadzawka,50.178248333,19.863428888,Maszyce
147,Maszyce Remiza,50.179202222,19.860974166,Maszyce
148,Maszyce Skrzyżowanie,50.180565555,19.855829166,Maszyce
149,Smardzowice Wołówka,50.187300833,19.854356666,Smardzowice ul. Krakowska
150,Smardzowice Remiza,50.191931944,19.853710555,Smardzowice ul. Szkolna
151,Smardzowice Kościelna,50.191953888,19.861343055,Smardzowice ul. Kościelna
152,Smardzowice Podgóry,50.189263333,19.869216666,Smardzowice ul. Kościelna
153,Cianowice Małe,50.186569722,19.885603611,Cianowice ul. Krakowska
154,Cianowice Szczodrkowicka,50.198067222,19.8836025,Cianowice ul. Krakowska
155,Cianowice Marianów,50.204343333,19.880217777,Cianowice ul. Krakowska
156,Cianowice Poręba,50.210240277,19.8719,Cianowice ul. Krakowska
157,Skała Wieś,50.214100555,19.8658725, 
158,Skała Rzeplińska,50.226151666,19.856574722,Skała ul. Krakowska
159,Skała Rynek,50.230248611,19.853874722, 
160,Cianowice Do Cegielni,50.212663333,19.867174166,Cianowice ul. Krakowska
161,Glogera Granica Miasta 01,50.1041575,19.926434444,Glogera
162,Glogera 01,50.102013611,19.927708888,Glogera
163,Pachońskiego P+R 06,50.094430555,19.928975555,Sosabowskiego
164,Krowodrza Górka P+R 08,50.088896944,19.932261666,Ździebły-Danowskiego
165,Cracovia Stadion 02,50.0585,19.92269,Kałuży
166,Muzeum Narodowe 05,50.059800555,19.925118888,al. Mickiewicza
167,AGH / UR 01,50.064276111,19.924364444,al. Mickiewicza
168,Biskupa Prandoty 01,50.079110833,19.94992,al. 29 Listopada
169,Opolska Estakada 01,50.086701388,19.955454166,al. 29 Listopada
170,Górka Narodowa P+R 03,50.105641666,19.965063333,al. 29 Listopada
171,Witkowicka 01,50.109084722,19.9658625,al. 29 Listopada
172,Węgrzce Starostwo Powiatowe,50.114804166,19.967101666,Węgrzce ul. Warszawska
173,Węgrzce A1,50.120012222,19.967592222,Węgrzce ul. A1
174,Węgrzce Warszawska,50.128311666,19.968405555,Węgrzce ul. Warszawska
175,Bibice Na Czekaj,50.133416388,19.967288611,Bibice ul. Warszawska
176,Michałowice Komora,50.142495833,19.970965,Michałowice ul. Krakowska
177,Michałowice Banasiówka,50.145162222,19.968547222,Michałowice ul. Komora
178,Michałowice Kwiaty Polne,50.146747222,19.963174444,Michałowice ul. Michałki
179,Michałowice Brzozowa,50.149907222,19.957629444,Michałowice ul. Graniczna
180,Michałowice Jana Pawła II,50.154990555,19.94814,Michałowice ul. Graniczna
181,Michałowice Ujęcie Wody,50.158291944,19.966984444,Michałowice ul. Jana Pawła II
182,Michałowice P+R,50.158837222,19.978371666,Michałowice ul. Jana Pawła II
183,Witkowicka 02,50.108553333,19.965409444,al. 29 Listopada
184,Górka Narodowa P+R 02,50.104954444,19.964319166,al. 29 Listopada
185,Opolska Estakada 02,50.0848275,19.953459166,al. 29 Listopada
186,Biskupa Prandoty 02,50.0780175,19.9486525,al. 29 Listopada
187,AGH / UR 02,50.062825555,19.923145,al. Mickiewicza
188,Muzeum Narodowe 04,50.05864,19.9252,al. Krasińskiego
189,Borek Fałęcki 04,50.011290555,19.926720277,Sielska
190,Góra Borkowska 03,50.006640277,19.924539166,Zakopiańska
191,Judyma 01,50.001448888,19.921791666,Zakopiańska
192,Kąpielowa 01,49.997064722,19.9195575,Zakopiańska
193,Opatkowice Wiadukt 01,49.994924444,19.918416111,Zakopiańska
194,Kłuszyńska 02,49.987476388,19.913824444,Taklińskiego
195,Taklińskiego 02,49.986218333,19.907351944,Taklińskiego
196,Podgaje 02,49.985992777,19.902016388,Taklińskiego
197,Petrażyckiego Osiedle 02,49.984301111,19.895394166,Petrażyckiego
198,Libertowska 02,49.983711666,19.890076388,Petrażyckiego
199,Żyzna 02,49.982809444,19.884081111,Petrażyckiego
200,Petrażyckiego 02,49.981785833,19.878726666,Petrażyckiego
201,Nałkowskiej 03,49.980853333,19.873539166,Prażmowskiego
202,Sidzina 02,49.988438055,19.871981944,Działowskiego
203,Nałkowskiej 01,49.980865555,19.874584444,Petrażyckiego
204,Petrażyckiego 01,49.981756388,19.878883611,Petrażyckiego
205,Żyzna 01,49.982885277,19.885029166,Petrażyckiego
206,Libertowska 01,49.983439166,19.889454166,Petrażyckiego
207,Petrażyckiego Osiedle 01,49.984283611,19.896315,Petrażyckiego
208,Podgaje 01,49.985979722,19.902695833,Taklińskiego
209,Taklińskiego 01,49.986249444,19.907908888,Taklińskiego
210,Kłuszyńska 01,49.987306111,19.913074166,Taklińskiego
211,Opatkowice 02,49.987842222,19.915095277,Zakopiańska
212,Opatkowice Wiadukt 02,49.994459166,19.918398055,Zakopiańska
213,Kąpielowa 02,49.997408333,19.919953055,Zakopiańska
214,Judyma 02,50.002401666,19.9226125,Zakopiańska
215,Góra Borkowska 02,50.00741,19.925282222,Zakopiańska
216,Kombinat 09,50.078566666,20.066445277,Ujastek
217,Kombinat 04,50.079024444,20.0647375,al. Solidarności
218,Łempickiego 72,50.078304722,20.060010833,al. Solidarności
219,Plac Centralny im. R.Reagana 06,50.073126944,20.0363375,al. Andersa
220,Os. Jagiellońskie 02,50.087775555,20.027813611,Obrońców Krzyża
221,Dunikowskiego 03,50.092540833,20.015753333,Mikołajczyka
222,Rondo Piastowskie 03,50.094491944,20.01094,Srebrnych Orłów
223,Os. Złotego Wieku 03,50.093984166,20.004756666,Jancarza
224,Miśnieńska 03,50.0946225,20.0001075,Jancarza
225,Mistrzejowice 03,50.0956075,19.993841944,Jancarza
226,Kurzei 01,50.095218611,19.988998333,Bohomolca
227,Marchołta 01,50.092637222,19.987713333,Bohomolca
228,Os. Oświecenia 01,50.08933,19.98764,Dobrego Pasterza
229,Park Wodny 01,50.09021,19.98251,Dobrego Pasterza
230,Słoneckiego 01,50.08952,19.97687,Dobrego Pasterza
231,Rondo Barei 01,50.088927222,19.9720625,Dobrego Pasterza
232,Promienistych 01,50.088631666,19.968513333,Dobrego Pasterza
233,Majora 03,50.087973055,19.964217222,Dobrego Pasterza
234,Dobrego Pasterza 04,50.088333055,19.956763888,al. 29 Listopada
235,UR al. 29 Listopada 02,50.082124166,19.9515575,al. 29 Listopada
236,Cmentarz Rakowicki Zachód 02,50.075635555,19.946810833,al. 29 Listopada
237,Radio Kraków 02,50.071751111,19.929330555,al. Słowackiego
238,Kawiory 02,50.068333055,19.9129525,Nawojki
239,Chopina 02,50.06753,19.917252222,Czarnowiejska
240,Radio Kraków 01,50.071805277,19.930436666,al. Słowackiego
241,Cmentarz Rakowicki Zachód 03,50.076185833,19.947648888,al. 29 Listopada
242,UR al. 29 Listopada 01,50.083320833,19.952735,al. 29 Listopada
243,Dobrego Pasterza 02,50.088835833,19.958378611,Dobrego Pasterza
244,Promienistych 02,50.08827,19.966799444,Dobrego Pasterza
245,Bitschana 02,50.088705833,19.970796944,Dobrego Pasterza
246,Rondo Barei 02,50.08907,19.97496,Dobrego Pasterza
247,Park Wodny 02,50.09005,19.98208,Dobrego Pasterza
248,Os. Oświecenia 04,50.089514166,19.988609444,Bohomolca
249,Marchołta 02,50.093185,19.987922222,Bohomolca
250,Kurzei 02,50.095151666,19.989864166,Jancarza
251,Mistrzejowice 02,50.095478055,19.994608333,Jancarza
252,Miśnieńska 04,50.094397222,20.000519444,Jancarza
253,Os. Złotego Wieku 04,50.093926666,20.004039166,Jancarza
254,Rondo Piastowskie 04,50.094162222,20.011105,Srebrnych Orłów
255,Dunikowskiego 04,50.092065,20.015925833,Mikołajczyka
256,Os. Jagiellońskie 01,50.087923333,20.027531944,Obrońców Krzyża
257,Łempickiego 71,50.078419722,20.061234444,al. Solidarności
258,Os. Piastów 04,50.1020125,20.012676388,Piasta Kołodzieja
259,Urząd Skarbowy Nowa Huta 01,50.104629722,20.012204166,Piasta Kołodzieja
261,Powstańców Magazyny 01,50.106259444,20.001605,Powstańców
262,Dziekanowicka 01,50.104150555,19.992114444,Powstańców
263,Cmentarz Prądnik Czerwony Wschód 01,50.102337777,19.986020277,Powstańców
264,Cmentarz Prądnik Czerwony 01,50.1012925,19.982019722,Powstańców
265,Prądnik Czerwony 04,50.096792777,19.974321388,Strzelców
266,Powstańców Garaże 01,50.094968055,19.967522222,Powstańców
267,Powstańców 01,50.092999444,19.963671388,Majora
268,Majora 01,50.088419722,19.963471944,Łepkowskiego
269,Politechnika 06,50.071278611,19.944103055,Warszawska
270,Dworzec Główny Zachód 03,50.068527222,19.944561388,Ogrodowa
271,Majora 02,50.088389166,19.9654325,Majora
272,Sudolska 02,50.091972777,19.964601666,Majora
273,Powstańców 02,50.093400277,19.964251388,Powstańców
274,Powstańców Garaże 02,50.095246111,19.968291111,Powstańców
275,Prądnik Czerwony 01,50.096538055,19.973766388,Strzelców
276,Cmentarz Prądnik Czerwony 02,50.101564166,19.983171666,Powstańców
277,Cmentarz Prądnik Czerwony Wschód 02,50.102448611,19.986821944,Powstańców
278,Dziekanowicka 02,50.103725555,19.99156,Powstańców
279,Powstańców Magazyny 02,50.106157777,20.001593888,Powstańców
281,Pleszów 05,50.072991666,20.117664166, 
282,Brama nr 8 02,50.073446388,20.12664,Igołomska
283,Igołomska Zakłady 02,50.074105,20.133523611,Igołomska
284,Szymańskiego 02,50.075023611,20.139894722,Igołomska
285,Rzepakowa 02,50.076015555,20.149070833,Igołomska
286,Wyciąska 03,50.077531388,20.154533611, 
287,Cmentarz Ruszcza 02,50.084975277,20.149868333,Jeziorko
288,Ruszcza 02,50.086936388,20.146420277,Jeziorko
289,Cmentarz Ruszcza 01,50.084936388,20.149770833,Jeziorko
290,Wyciąska 08,50.076501666,20.155915,Wyciąska
291,Wyciąże Sklep 02,50.0720575,20.158415,Wyciąska
292,Tymiankowa 02,50.069621388,20.163016666,Wyciąska
293,Podstawie 02,50.068205833,20.167092222,Wyciąska
294,Drożyska 02,50.065103888,20.168208611,Wyciąska
295,Przylasek Wyciąski 01,50.059230277,20.176260555,Drożyska
296,Siejówka 01,50.057116944,20.181100277,Drożyska
297,Bartnicza 01,50.056611388,20.187095277,Drożyska
298,Wolica Szkoła 01,50.055779722,20.194114166,Drożyska
299,Wolica Kościół 01,50.054934444,20.202362222,Drożyska
300,Wolica Most 02,50.052097222,20.206222777,Brzeska
301,Betonowa 01,50.05635,20.202353055,Brzeska
302,Ks. Luzara 01,50.063320833,20.193998333,Brzeska
303,Zakępie 01,50.068191111,20.189656666,Brzeska
304,Szlifierska 01,50.072394722,20.189751944,Brzeska
305,Cło 01,50.080522222,20.185734444,Wiewiórcza
306,Czeczeńska 01,50.079356111,20.173663611,Igołomska
307,Wyciąże Północ 01,50.078017222,20.163189166,Igołomska
308,Wyciąska 01,50.077136388,20.155483888,Igołomska
309,Rzepakowa 01,50.076222777,20.147185277,Igołomska
310,Szymańskiego 01,50.075144166,20.138799722,Igołomska
311,Igołomska Zakłady 01,50.074503611,20.132365555,Igołomska
312,Brama nr 8 01,50.073579166,20.125923888,Igołomska
313,Aleja Przyjaźni 01,50.07513,20.03416,al. Andersa
314,Cienista 04,50.08549,20.03917,Kocmyrzowska
315,Wańkowicza 04,50.08687,20.04593,Kocmyrzowska
316,Darwina 06,50.09015,20.06024,Darwina
317,Cmentarz Grębałów Południe 02,50.0901,20.06327,Darwina
318,Cmentarz Grębałów 02,50.09107,20.0703,Darwina
319,Lubocza Bugaj 02,50.09211,20.07587,Darwina
320,Lubocza Przychodnia 02,50.095,20.08465,Lubocka
321,Lubocza Szkoła 02,50.09498,20.09368,Lubocka
322,Lubocza Trafo 02,50.09432,20.10045,Wadowska
323,Wadowska 02,50.09669,20.12009,Wadowska
324,Wadów 02,50.09737,20.12483,Wadowska
325,Wadów Os. Kolejowe 01,50.09691,20.12881,Glinik
326,Wadów Glinik 01,50.09314,20.1325,Glinik
327,Wadów Działki 02,50.09273,20.13939,Spławy
328,Spławy 02,50.0935,20.14691,Węgrzynowicka
329,Węgrzynowicka 02,50.09704,20.14749,Węgrzynowicka
330,Węgrzynowice Dół 02,50.10379,20.14961,Węgrzynowicka
331,Barwna 02,50.1074,20.15166,Węgrzynowicka
332,Węgrzynowice Centrum 02,50.11037,20.15478,Węgrzynowicka
333,Węgrzynowice 02,50.1153,20.15371,Węgrzynowicka
334,Węgrzynowice Centrum 01,50.11119,20.1559,Węgrzynowicka
335,Barwna 01,50.10753,20.15169,Węgrzynowicka
336,Węgrzynowice Dół 01,50.10352,20.14942,Węgrzynowicka
337,Węgrzynowicka 01,50.09696,20.14738,Węgrzynowicka
338,Spławy 01,50.09356,20.14684,Węgrzynowicka
339,Wadów Działki 01,50.0928,20.13936,Spławy
340,Wadów Glinik 02,50.09276,20.13325,Glinik
341,Wadów Os. Kolejowe 02,50.09733,20.12854,Glinik
342,Wadów 01,50.09718,20.12413,Wadowska
343,Wadowska 01,50.09648,20.11904,Wadowska
344,Lubocza Trafo 01,50.0944,20.10058,Wadowska
345,Lubocza Szkoła 01,50.09518,20.09304,Lubocka
346,Lubocza Przychodnia 01,50.09481,20.08356,Lubocka
347,Lubocza Bugaj 01,50.09231,20.07507,Lubocka
348,Cmentarz Grębałów 01,50.09112,20.07022,Darwina
349,Cmentarz Grębałów Południe 01,50.09016,20.06315,Darwina
350,Darwina 05,50.09038,20.05967,Darwina
351,Wańkowicza 03,50.0872,20.04765,Kocmyrzowska
352,Cienista 03,50.08565,20.03877,Kocmyrzowska
353,Aleja Róż 02,50.07505,20.03786,al. Przyjaźni
354,Plac Centralny im. R.Reagana 09,50.07184,20.035523055,al. Jana Pawła II
355,Os. Kolorowe 03,50.07249,20.028504722,al. Jana Pawła II
356,Rondo Czyżyńskie 10,50.07246,20.01664,al. Pokoju
357,Gałczyńskiego 06,50.069602222,20.012625555,al. Pokoju
358,Rondo 308. Dywizjonu 06,50.067894166,20.007033055,al. Pokoju
359,Ogród Doświadczeń 04,50.065627777,19.996340833,al. Pokoju
360,TAURON Arena Kraków al. Pokoju 04,50.064061944,19.987038055,al. Pokoju
361,Dąbie 04,50.060897222,19.979136111,al. Pokoju
362,Ofiar Dąbia 04,50.0597175,19.975383611,al. Pokoju
363,Nullo 04,50.060153611,19.966723888,al. Pokoju
364,Rondo Grzegórzeckie 03,50.058426,19.959244,al. Powstania Warszawskiego
365,Rondo Mogilskie 04,50.064973,19.959357,al. Powstania Warszawskiego
366,Lubicz 01,50.065186,19.952104,Lubicz
367,Teatr Słowackiego 01,50.064609,19.945628,Lubicz
368,Poczta Główna 01,50.059797,19.942404,Westerplatte
369,Starowiślna 02,50.05689,19.945029,Starowiślna
370,Stradom 08,50.05145,19.94085,Dietla
373,Kapelanka 04,50.043208333,19.922647777,Kapelanka
374,Słomiana 04,50.0407325,19.924152777,Kapelanka
375,Kobierzyńska 04,50.034149166,19.925489444,Kapelanka
376,Lipińskiego 04,50.03068,19.92488,Grota-Roweckiego
377,Grota-Roweckiego 04,50.031828611,19.920038055,Grota-Roweckiego
378,Norymberska 04,50.0296,19.91208,Grota-Roweckiego
379,Ruczaj 04,50.02676,19.90507,Grota-Roweckiego
380,Kampus UJ 04,50.023853611,19.901541944,Bobrzyńskiego
382,Czerwone Maki P+R 04,50.018192777,19.889481944,Czerwone Maki
384,Kampus UJ 03,50.024642222,19.9025075,Bobrzyńskiego
385,Ruczaj 03,50.02705,19.90654,Grota-Roweckiego
386,Norymberska 03,50.02999,19.91368,Grota-Roweckiego
387,Grota-Roweckiego 05,50.03139,19.92098,Grota-Roweckiego
388,Lipińskiego 03,50.0305,19.92459,Grota-Roweckiego
389,Kobierzyńska 03,50.034056666,19.925870555,Kapelanka
390,Słomiana 03,50.040716666,19.924496944,Kapelanka
391,Kapelanka 03,50.04562,19.92245,Monte Cassino
392,Szwedzka 02,50.04674,19.92548,Monte Cassino
394,Stradom 05,50.05202,19.94226,Dietla
395,Starowiślna 07,50.056721944,19.946043888,Dietla
396,Poczta Główna 04,50.059310833,19.942836666,Wielopole
397,Teatr Słowackiego 03,50.064192,19.94499,Westerplatte
398,Lubicz 02,50.065046,19.951094,Lubicz
399,Rondo Mogilskie 03,50.064865,19.959303,al. Powstania Warszawskiego
400,Rondo Grzegórzeckie 01,50.057888,19.960296,al. Pokoju
401,Nullo 03,50.060143611,19.967896944,al. Pokoju
402,Ofiar Dąbia 05,50.059605833,19.977200555,al. Pokoju
403,Dąbie 05,50.060890555,19.979873333,al. Pokoju
404,TAURON Arena Kraków al. Pokoju 05,50.064201666,19.990359166,al. Pokoju
405,Ogród Doświadczeń 03,50.065240277,19.995889166,al. Pokoju
406,Rondo 308. Dywizjonu 05,50.067119722,20.005731666,al. Pokoju
407,Gałczyńskiego 03,50.06924,20.01303,al. Pokoju
408,Rondo Czyżyńskie 08,50.073014444,20.018921666,al. Jana Pawła II
409,Os. Kolorowe 04,50.072043888,20.029884444,al. Jana Pawła II
410,Kombinat 05,50.079967777,20.06607,Ujastek
411,Zajezdnia Nowa Huta 03,50.084339722,20.065734444,Ujastek
412,Elektromontaż 05,50.087974722,20.062695,Łowińskiego
413,Makuszyńskiego 02,50.089506388,20.043788611,Makuszyńskiego
414,Nad Dłubnią 02,50.089329722,20.040225555,Makuszyńskiego
415,Zajezdnia Bieńczyce 01,50.091168888,20.032821111,Nowolipki
416,Nowolipki 02,50.093399722,20.030857222,Okulickiego
417,Fatimska 02,50.093374166,20.027258611,Okulickiego
418,Os. Mistrzejowice Nowe 02,50.095158055,20.020830833,Okulickiego
419,Kupały 02,50.095379166,20.017385,Okulickiego
420,Os. Kalinowe 02,50.091363611,20.009965555,Okulickiego
421,Os. Akademickie PK 01,50.08768,19.99424,Dobrego Pasterza
422,Rondo Barei 03,50.088432222,19.973092777,Lublańska
423,Olsza II 01,50.0854525,19.9703725,Lublańska
424,Lublańska 01,50.085256388,19.961970833,Lublańska
425,Opolska Estakada 04,50.086546666,19.953829722,Opolska
426,Imbramowska 02,50.088293055,19.947266111,Opolska
427,Mackiewicza 02,50.090404444,19.943153888,Opolska
428,Szpital Jana Pawła II 04,50.08892,19.938032777,Fieldorfa-Nila
429,Krowodrza Górka P+R 06,50.088385833,19.930765,Krowoderskich Zuchów
430,Krowoderskich Zuchów 02,50.088924444,19.926238055,Krowoderskich Zuchów
431,"Batalionu ""Skała"" AK 01",50.087928333,19.923458333,"Batalionu ""Skała"" AK"
432,Makowskiego 02,50.087745,19.916055277,Makowskiego
433,Różyckiego 02,50.088396111,19.911289444,Różyckiego
434,Azory 01,50.086785833,19.908793611,Weissa
435,Różyckiego 01,50.087917777,19.913922222,Makowskiego
436,Makowskiego 01,50.087574722,19.917282777,Makowskiego
437,Krowoderskich Zuchów 01,50.088628888,19.925454722,Krowoderskich Zuchów
438,Krowodrza Górka P+R 05,50.087975555,19.931943611,Fieldorfa-Nila
439,Szpital Jana Pawła II 01,50.088976944,19.938890833,Prądnicka
440,Mackiewicza 01,50.089590277,19.943970555,Opolska
441,Imbramowska 01,50.087533055,19.948305,Opolska
442,Opolska Estakada 03,50.0856975,19.955480833,Lublańska
443,Lublańska 02,50.084896388,19.963585833,Lublańska
444,Olsza II 02,50.084841388,19.968847777,Lublańska
445,Olsza II 72,50.08571,19.97149,Lublańska
446,Os. Oświecenia 02,50.08881,19.98859,Dobrego Pasterza
447,Os. Akademickie PK 02,50.08722,19.99498,al. Bora-Komorowskiego
448,Os. Kalinowe 01,50.091520277,20.010456111,Okulickiego
449,Kupały 01,50.094414166,20.015487222,Okulickiego
450,Os. Mistrzejowice Nowe 01,50.094910833,20.021316666,Okulickiego
451,Fatimska 01,50.093156388,20.029105277,Okulickiego
452,Nowolipki 04,50.09292,20.033653333,Nowolipki
453,Zajezdnia Bieńczyce 02,50.091285555,20.032751388,Nowolipki
454,Nad Dłubnią 01,50.089213888,20.038085833,Makuszyńskiego
455,Makuszyńskiego 01,50.0893275,20.042095277,Makuszyńskiego
456,Wańkowicza 05,50.088243333,20.047190277,Makuszyńskiego
457,Elektromontaż 04,50.087883611,20.062921944,Łowińskiego
458,Zajezdnia Nowa Huta 04,50.083386944,20.065645833,Ujastek
459,Mrozowa 04,50.0842,20.07234,Mrozowa
460,Blokowa 04,50.08588,20.07383,Blokowa
461,Lubocza SKA 04,50.08834,20.07383,Blokowa
463,Wadów Szkoła 02,50.101007222,20.124966944,Glinik
464,Wadów Osiedle 02,50.106679722,20.121568333,Glinik
465,Łuczanowice Skrzyżowanie 01,50.111292222,20.119452777,Bystronia
466,Bystronia 01,50.109706388,20.1143125,Bystronia
467,Łuczanowice 02,50.107248888,20.110848055,Wittiga
468,Dojazdów Przedszkole,50.116963611,20.118345555,Dojazdów ul. Krakowska
469,Dojazdów Plac św. Stanisława,50.120938055,20.112834722,Dojazdów ul. Krakowska
470,Dojazdów Na Górce,50.122513888,20.108646944,Dojazdów ul. Krakowska
471,Dojazdów PKS,50.126916944,20.102391388,Sulechów ul. Kocmyrzowska
472,Dojazdów Działki,50.1309575,20.1077575,Sulechów ul. Kocmyrzowska
473,Kocmyrzów-Luborzyca Urząd Gminy,50.135073888,20.113212777,Kocmyrzów ul. Jagiellońska
474,Bystronia 02,50.1098,20.1148175,Bystronia
475,Łuczanowice Skrzyżowanie 02,50.111446388,20.120175277,Bystronia
476,Wadów Osiedle 01,50.105996388,20.121759444,Glinik
477,Wadów Szkoła 01,50.100144166,20.126019166,Glinik
478,Lubocza SKA 01,50.088707222,20.073699166,Blokowa
479,Blokowa 03,50.08517,20.07424,Mrozowa
480,Mrozowa 03,50.08422,20.07221,Mrozowa
481,Os. Piastów 01,50.101977,20.012058,Piasta Kołodzieja
482,Piasta Kołodzieja 02,50.098526,20.013051,Piasta Kołodzieja
483,Kleeberga 02,50.095759,20.012638,Piasta Kołodzieja
484,Dunikowskiego 02,50.092518,20.015491,Mikołajczyka
485,Rondo Hipokratesa 02,50.090094,20.021355,Broniewskiego
486,DH Wanda 02,50.084432,20.020689,al. Andersa
487,Rondo Kocmyrzowskie im. Ks. Gorzelanego 02,50.07905,20.026486,Bieńczycka
488,Bieńczycka 01,50.075661,20.02044,Bieńczycka
489,Rondo Czyżyńskie 02,50.07358,20.01606,al. Jana Pawła II
490,Czyżyny 02,50.074038,20.011272,al. Jana Pawła II
491,Stella-Sawickiego 02,50.074302,20.00459,al. Jana Pawła II
492,AKF / PK 02,50.074015,19.998685,al. Jana Pawła II
493,Muzeum Lotnictwa Polskiego 02,50.073539,19.990254,al. Jana Pawła II
494,TAURON Arena Kraków Wieczysta 02,50.071103,19.982871,Mogilska
495,Białucha 02,50.067597,19.977192,Mogilska
496,Cystersów 02,50.06654,19.969149,Mogilska
497,Rondo Mogilskie 01,50.065782,19.959639,Rondo Mogilskie
498,Stary Kleparz 01,50.066314,19.939721,Basztowa
499,Teatr Bagatela 02,50.063806,19.933366,Dunajewskiego
500,Stefana Batorego 01,50.066586,19.929432,Karmelicka
501,Plac Inwalidów 01,50.068728,19.926981,Karmelicka
502,Urzędnicza 01,50.071879,19.919754,Królewska
503,Biprostal 01,50.072862,19.916075,Królewska
504,UKEN 01,50.074123,19.910791,Królewska
505,Głowackiego 01,50.07536,19.9068,Podchorążych
506,Bronowice 03,50.077834,19.900593,Bronowicka
507,Wesele 01,50.078856,19.897857,Bronowicka
508,Bronowice SKA 01,50.081331,19.889698,Bronowicka
509,Bronowice Małe 01,50.08179,19.88192, 
510,Bronowice SKA 02,50.081524,19.888593,Bronowicka
511,Wesele 02,50.079235,19.896704,Bronowicka
512,Bronowice 02,50.077751,19.900684,Bronowicka
513,Głowackiego 02,50.075882,19.905845,Bronowicka
514,UKEN 02,50.07426,19.909991,Podchorążych
515,Biprostal 02,50.07309,19.915045,Królewska
516,Urzędnicza 02,50.071957,19.91925,Królewska
517,Plac Inwalidów 02,50.069585,19.925897,Królewska
518,Stefana Batorego 02,50.067023,19.928837,Karmelicka
519,Teatr Bagatela 03,50.063755,19.932586,Karmelicka
520,Stary Kleparz 02,50.066234,19.938562,Basztowa
521,Teatr Słowackiego 02,50.064792,19.944409,Basztowa
522,Rondo Mogilskie 02,50.065759,19.959864,Rondo Mogilskie
523,Cystersów 01,50.066523,19.970519,Mogilska
524,Białucha 01,50.067841,19.977991,Mogilska
525,TAURON Arena Kraków Wieczysta 01,50.071785,19.983839,Mogilska
526,Muzeum Lotnictwa Polskiego 01,50.07352,19.990472,al. Jana Pawła II
527,AKF / PK 01,50.073967,19.99881,al. Jana Pawła II
528,Stella-Sawickiego 01,50.074273,20.004747,al. Jana Pawła II
529,Czyżyny 01,50.07399,20.011459,al. Jana Pawła II
530,Rondo Czyżyńskie 03,50.074193,20.018028,Bieńczycka
531,Bieńczycka 02,50.0757,20.02058,Bieńczycka
532,Rondo Kocmyrzowskie im. Ks. Gorzelanego 01,50.080257,20.026561,al. Andersa
533,DH Wanda 01,50.084477,20.020671,al. Andersa
534,Rondo Hipokratesa 01,50.090025,20.021395,Broniewskiego
535,Dunikowskiego 01,50.092201,20.016038,Mikołajczyka
536,Kleeberga 01,50.095792,20.012713,Piasta Kołodzieja
537,Piasta Kołodzieja 01,50.097862,20.013018,Piasta Kołodzieja
538,Bronowice Małe 06,50.082106944,19.881660277,Balicka
539,Rondo Ofiar Katynia 02,50.08768,19.89079,Radzikowskiego
540,Katowicka 02,50.09071,19.88217,Radzikowskiego
541,Cmentarz Bronowice 02,50.09563,19.8732,Pasternik
542,Pasternik 02,50.098650833,19.8681875,Pasternik
543,Rząska Cmentarz,50.101098055,19.860662222,Rząska ul. Krakowska
544,Rząska Jednostka Wojskowa,50.099599444,19.855131111,Rząska ul. Krakowska
545,Rząska UR,50.096804722,19.845546111,Rząska ul. Krakowska
546,Rząska Szkoła,50.098726666,19.838596666,Rząska ul. Krakowska
547,Rząska Autostrada,50.105492777,19.835856111,Rząska ul. Krakowska
548,Modlniczka Mała,50.108027222,19.8352975,Modlniczka ul. Różańskiego
549,Zabierzów Rzemieślnicza,50.109106666,19.825693888,Zabierzów ul. Krakowska
550,Zabierzów Kmity,50.109734166,19.815511388,Zabierzów ul. Krakowska
551,Szczyglice Skała Kmity,50.098205277,19.805305277,Szczyglice ul. Kmity
552,Pasternik 01,50.097503611,19.868941111,Pasternik
553,Cmentarz Bronowice 01,50.095028888,19.873689722,Pasternik
554,Katowicka 01,50.089736388,19.883666388,Radzikowskiego
558,Mały Płaszów P+R 02,50.039519722,20.000665,Lipska
559,Surzyckiego 02,50.038983055,20.005348611,Surzyckiego
560,Albatrosów 02,50.037523888,20.019534722,Rybitwy
561,Botewa 02,50.037951666,20.028106388,Botewa
562,Półłanki 04,50.038233611,20.043550833,Śliwiaka
563,Śliwiaka Zakłady 02,50.037957777,20.053350555,Śliwiaka
564,Śliwiaka 02,50.037458055,20.059557222,Śliwiaka
565,Brzegi Użytek Ekologiczny,50.034868333,20.087424166,Brzegi Trakt Ojca Św. Jana Pawła II
566,Brzegi Pętla,50.031444444,20.09499,Brzegi
567,Brzegi Dom Kultury,50.036673888,20.101179444,Brzegi
568,Brzegi Granica,50.037184166,20.106511666,Brzegi
569,Grabie Szczurów,50.038661388,20.111962777,Grabie
570,Grabie Dom Kultury,50.040600555,20.134011666, 
571,Grabie Kościół,50.040456944,20.139653611,Grabie
572,Śliwiaka 01,50.037772777,20.058671944,Śliwiaka
573,Śliwiaka Zakłady 01,50.038387222,20.051952777,Śliwiaka
574,Półłanki 01,50.038674444,20.041895555,Botewa
575,Botewa 01,50.038140555,20.026209166,Rybitwy
576,Albatrosów 01,50.037977222,20.017977222,Surzyckiego
577,Surzyckiego 01,50.039580555,20.003646388,Lipska
578,Aleja Przyjaźni 03,50.07545,20.03373,al. Przyjaźni
579,Os. Zgody 04,50.07715,20.0308,al. Andersa
580,DH Wanda 04,50.08492,20.02041,al. Andersa
581,Os. Strusia 02,50.086755277,20.009170555,al. Andersa
582,Narzymskiego 02,50.0737,19.96606,Olszyny
583,Rondo Mogilskie Opera 02,50.065659166,19.957547777,Lubicz
584,UJ / AST 01,50.060269,19.93052,Piłsudskiego
586,UJ / AST 02,50.060366,19.931732,Piłsudskiego
587,Teatr Bagatela 01,50.0631,19.932648,Podwale
588,Narzymskiego 01,50.073693333,19.966314444,Olszyny
589,Os. Strusia 01,50.086433611,20.009556111,al. Andersa
590,DH Wanda 03,50.08425,20.02056,al. Andersa
591,Os. Zgody 03,50.07644,20.03128,al. Andersa
592,Strzelców 01,50.092534722,19.974770833,Strzelców
593,Rondo Barei 04,50.089744444,19.97391,Strzelców
594,Strzelców 02,50.093321666,19.975646388,Strzelców
597,Batowice Spławy,50.109884166,20.010491388,Batowice ul. Wojtyły
598,Batowice Kapliczka,50.1115475,20.016391111,Batowice ul. Wojtyły
599,Batowice Dłubnia,50.113591111,20.021758333,Batowice ul. Wojtyły
600,Raciborowice Wawelska,50.116915833,20.033505277,Raciborowice ul. Długosza
601,Raciborowice Granica,50.118570555,20.040698888,Raciborowice ul. Długosza
602,Zastów Pętla,50.121233611,20.050666111,Zastów ul. Kościuszki
603,Zastów Działki,50.121590833,20.056735555,Zastów ul. Kościuszki
604,Wiktorowice Rozlewnia Wód,50.132601666,20.063875,Wiktorowice
605,Maciejowice Góra,50.137101666,20.070105,Maciejowice
606,Maciejowice Skrzyżowanie,50.140207222,20.074310555,Maciejowice
607,Maciejowice Pętla,50.142419444,20.071178611,Maciejowice
608,Wiktorowice Skrzyżowanie,50.132555555,20.058208055,Wiktorowice
609,Wiktorowice Centrum,50.137514444,20.060979166,Wiktorowice
610,Wiktorowice Granica,50.1411375,20.056943055,Wiktorowice
611,Pielgrzymowice Pętla,50.144086388,20.051163055,Pielgrzymowice ul. Centralna
612,Salwator 04,50.052910833,19.916894722,Senatorska
613,Jubilat 03,50.056491388,19.927117222,al. Krasińskiego
614,Jasnogórska 02,50.098985,19.890191944,Jasnogórska
615,Modlnica Podchruście,50.113335833,19.872671666,Modlnica ul. Częstochowska
616,Modlnica Kolonia,50.129149444,19.870378333,Modlnica ul. Częstochowska
617,Modlnica Komora,50.138300277,19.864890833,Modlnica ul. Częstochowska
618,Szyce Spacerowa,50.144158888,19.861615833,Szyce ul. Olkuska
619,Szyce Wesoła,50.151237222,19.853362777,Szyce ul. Olkuska
620,Wielka Wieś Szkoła,50.157398333,19.842211944,Wielka Wieś ul. Krakowska
621,Biały Kościół Dolina Kluczwody,50.169311666,19.825936111,Biały Kościół ul. Krakowska
622,Biały Kościół Murownia,50.179585277,19.812647222,Biały Kościół os. Murownia
623,Czajowice Władysława Łokietka,50.189625,19.798411111,Czajowice ul. Ojcowska
624,Bębło Stara Wieś,50.184348888,19.792071944,Bębło ul. Krakowska
625,Bębło Łabajowa,50.179961388,19.7858125,Bębło ul. Krakowska
626,Bębło Lasek,50.183223333,19.777471944,Bębło ul. Na Dolinkę
627,Będkowice Mosurowa,50.180721388,19.767091944,Będkowice ul. Kawiory
628,Będkowice Kawiory,50.179000833,19.7631075,Będkowice ul. Kawiory
629,Będkowice Borynia,50.175874166,19.754401388,Będkowice ul. Kawiory
630,Będkowice Cmentarz,50.171230555,19.749509722,Będkowice ul. Browar
631,Będkowice Rynek,50.167304444,19.751889722,Będkowice Rynek
632,Będkowice Długa,50.163741944,19.750313888,Będkowice ul. Długa
633,Będkowice Pętla,50.158599166,19.747296111,Będkowice ul. Długa
634,Jasnogórska 01,50.098243055,19.890235277,Jasnogórska
635,Jubilat 04,50.056090555,19.926715,al. Krasińskiego
636,Biały Kościół Murownia Pętla,50.181106111,19.811826111,Biały Kościół os. Murownia
637,Kostrze OSP 01,50.028615277,19.852172222,Dąbrowa
638,Kostrze Szkoła 01,50.029152777,19.855608888,Tyniecka
639,Fort Winnica 01,50.022524444,19.86639,Winnicka
640,Winnicka 01,50.020063333,19.871136666,Winnicka
641,Skotniki Szkoła 03,50.016180833,19.876435555,Mochnaniec
642,Mochnaniec 01,50.016704444,19.882138055,Mochnaniec
643,Czerwone Maki P+R 02,50.017395833,19.888613611,Bunscha
644,Mochnaniec 02,50.016599166,19.881162777,Mochnaniec
645,Skotniki Szkoła 01,50.016959722,19.876085277,Skotnicka
646,Winnicka 02,50.019834166,19.872176666,Winnicka
647,Fort Winnica 02,50.0233375,19.865521944,Winnicka
648,Kostrze Szkoła 02,50.029113888,19.854831111,Tyniecka
649,Dworzec Główny Zachód 07,50.067783055,19.945272777,Pawia
650,Konopnickiej 01,50.052848888,19.929188055,Konopnickiej
651,Rondo Matecznego 03,50.0358775,19.941375277,Kamieńskiego
652,Kamieńskiego 01,50.028883611,19.956902222,Kamieńskiego
653,Bieżanowska 09,50.023366666,19.980460555,Wielicka
654,Prokocim Szpital 05,50.014401666,19.997565555,Wielicka
655,Jerzmanowskiego 01,50.009710277,20.009245833,Wielicka
656,Wieliczka Stacja Paliw,49.993,20.042991944,Wieliczka ul. Krakowska
657,Wieliczka Park,49.987335277,20.049481666,Wieliczka ul. Dembowskiego
658,Wieliczka Kopalnia Soli,49.984195,20.057063611,Wieliczka ul. Dembowskiego
659,Wieliczka Mediateka,49.984355833,20.063395833,Wieliczka ul. Słowackiego
660,Wieliczka Asnyka,49.982807222,20.069976944,Wieliczka ul. Asnyka
661,Wieliczka Miasto,49.986287777,20.074973055,Wieliczka ul. Piłsudskiego
663,Jerzmanowskiego 02,50.010636944,20.008023611,Wielicka
664,Prokocim Szpital 06,50.014461388,19.9984325,Wielicka
665,Bieżanowska 10,50.0227975,19.982073611,Wielicka
666,Kamieńskiego 02,50.029014444,19.957551944,Kamieńskiego
667,Rondo Matecznego 06,50.037178611,19.940133611,Konopnickiej
668,Konopnickiej 02,50.052736111,19.929577777,Konopnickiej
669,Os. Podwawelskie 03,50.04673,19.932773611,Barska
670,Rondo Grunwaldzkie 05,50.04835,19.92969,Monte Cassino
671,Rynek Dębnicki 01,50.051728611,19.926726944,Rynek Dębnicki
672,Praska 01,50.049765833,19.920495833,Praska
673,Zielińskiego 01,50.047137222,19.912646388,Praska
674,Os. Robotnicze 01,50.045725,19.908894166,Praska
675,"Park ""Skały Twardowskiego"" 02",50.038015277,19.898576944,Tyniecka
676,Pychowice 02,50.036683888,19.894008888,Tyniecka
677,Rodzinna 02,50.03512,19.885511388,Tyniecka
678,Górka Pychowicka 02,50.033943055,19.875729722,Tyniecka
679,Fort Bodzów 02,50.031488611,19.864755277,Tyniecka
680,Wały Wiślane 02,50.027525,19.847209166,Tyniecka
681,Kostrze Kapliczka 02,50.026923055,19.844624722,Tyniecka
682,Kolna 02,50.023987222,19.832112222,Tyniecka
683,Tyniecka Autostrada 01,50.021724444,19.827028333,Bolesława Śmiałego
684,Bolesława Śmiałego 01,50.018346388,19.817353611,Bolesława Śmiałego
685,Tyniec 03,50.015802777,19.809184166,Bolesława Śmiałego
686,Bogucianka 02,50.009925277,19.812202222,Bogucianka
687,Tyniec Kamieniołom 01,50.008375277,19.814477777,Bogucianka
688,Bogucianka 01,50.010293333,19.812025277,Bogucianka
689,Tyniec 01,50.0152275,19.809036111,Bogucianka
690,Bolesława Śmiałego 02,50.018275,19.818171944,Bolesława Śmiałego
691,Tyniecka Autostrada 02,50.021907222,19.827665,Bolesława Śmiałego
692,Kolna 01,50.024961388,19.834985277,Tyniecka
693,Kostrze Kapliczka 01,50.026891111,19.844738055,Tyniecka
694,Wały Wiślane 01,50.027728333,19.8479525,Tyniecka
695,Fort Bodzów 01,50.031521111,19.8650625,Tyniecka
696,Rodzinna 01,50.0351425,19.885759722,Tyniecka
697,Pychowice 01,50.036810277,19.895144722,Tyniecka
698,"Park ""Skały Twardowskiego"" 01",50.038043055,19.898978333,Tyniecka
699,Os. Robotnicze 02,50.04597,19.909683611,Praska
700,Zielińskiego 02,50.047511944,19.914000277,Praska
701,Praska 02,50.049713888,19.920569722,Praska
702,Rynek Dębnicki 02,50.051929444,19.926938611,Rynek Dębnicki
703,Bałuckiego 01,50.049639722,19.925893888,Bałuckiego
704,Rondo Grunwaldzkie 03,50.04825,19.93234,Konopnickiej
705,Łagiewniki 07,50.03005,19.93625,Brożka
706,Łagiewniki 09,50.02944,19.93596,Brożka
707,Borsucza 03,50.03047,19.9283,Brożka
708,Grota-Roweckiego 03,50.03133,19.92022,Kobierzyńska
709,Rostworowskiego 01,50.02788,19.91414,Kobierzyńska
710,Zachodnia 01,50.02319,19.91028,Kobierzyńska
711,Torfowa 01,50.01793,19.90517,Kobierzyńska
712,Lubostroń 01,50.01534,19.90254,Kobierzyńska
713,Skośna 01,50.01176,19.89881,Kobierzyńska
714,Kobierzyn 02,50.007363888,19.891805,Babińskiego
715,Babińskiego 02,50.00707,19.87987,Babińskiego
716,Skotniki 02,50.00671,19.87389,Babińskiego
717,Skotniki Kościół 01,50.00904,19.87471,Skotnicka
718,Brücknera 01,50.0125,19.87594,Skotnicka
719,Skotniki Szkoła 02,50.01635,19.87548,Skotnicka
720,Brücknera 02,50.01193,19.87579,Skotnicka
721,Skotniki 04,50.00733,19.87358,Skotnicka
722,Skotniki 01,50.00635,19.8752,Babińskiego
723,Babińskiego 01,50.007075277,19.881150555,Babińskiego
724,Kobierzyn 01,50.007143055,19.891830277,Babińskiego
725,Skośna 02,50.0112,19.89838,Kobierzyńska
726,Lubostroń 02,50.01424,19.90152,Kobierzyńska
727,Torfowa 02,50.01893,19.90636,Kobierzyńska
728,Zachodnia 02,50.02412,19.91119,Kobierzyńska
729,Rostworowskiego 02,50.02815,19.91528,Kobierzyńska
730,Borsucza 04,50.03031,19.92923,Brożka
731,Zajezdnia Wola Duchacka 04,50.023328611,19.960277222,Sławka
732,Wola Duchacka 02,50.019711666,19.960557222,Trybuny Ludów
733,Karpińskiego 02,50.016366388,19.963361944,Łużycka
734,Tuchowska 02,50.013319444,19.966591944,Łużycka
735,Bochenka 02,50.010002777,19.971241666,Łużycka
736,Łużycka 02,50.007801111,19.974555555,Łużycka
737,Piaski Wielkie 02,50.006094166,19.981901944,Cechowa
738,Hala Sportowa Piaski Wielkie 02,50.00271,19.986198888,Niebieska
739,Niebieska Autostrada 02,49.999676388,19.988505555,Niebieska
740,Kosocice 02,49.994155833,19.989226944,Żelazowskiego
741,Szczegów 02,49.993669722,19.9954625,Żelazowskiego
742,Żelazowskiego 02,49.9884075,20.000234166,Żelazowskiego
743,Barycz 03,49.984944444,20.002378333,Krzemieniecka
744,Krzemieniecka 01,49.983522777,19.995701666,Krzemieniecka
745,Drużbackiej 02,49.982064444,19.989292222,Drużbackiej
746,Soboniowice 01,49.979637222,19.990136111,Drużbackiej
747,Drużbackiej 01,49.982310833,19.989332222,Drużbackiej
748,Krzemieniecka 02,49.983400277,19.995220833,Krzemieniecka
749,Barycz 01,49.985443055,20.002446666,Żelazowskiego
750,Żelazowskiego 01,49.988623611,20.000083055,Żelazowskiego
751,Szczegów 01,49.993159722,19.996323611,Żelazowskiego
752,Kosocice 01,49.994316944,19.9892375,Niebieska
753,Niebieska Autostrada 01,49.999135555,19.988673888,Niebieska
754,Hala Sportowa Piaski Wielkie 01,50.002728888,19.986300277,Niebieska
755,Piaski Wielkie 01,50.006179166,19.982193055,Cechowa
756,Łużycka 01,50.008153055,19.973993888,Łużycka
757,Bochenka 01,50.010235,19.971138611,Łużycka
758,Tuchowska 01,50.013168888,19.967131666,Łużycka
759,Nowosądecka 03,50.014181111,19.965034444,Łużycka
760,Wola Duchacka 03,50.021261111,19.960270833,Sławka
761,Czyżyny Dworzec 01,50.07517,20.01525,Medweckiego
762,Gałczyńskiego 04,50.06881,20.01245,Centralna
763,Sołtysowska 02,50.0655,20.01145,Sołtysowska
764,Sołtysowska Zakłady 02,50.06411,20.01473,Sołtysowska
765,Sołtysowska Osiedle 02,50.06428,20.01896,Sołtysowska
766,Sikorki 02,50.0631,20.02224,Sołtysowska
767,Na Załęczu 04,50.05964,20.02407,Na Załęczu
768,Archiwum UMK 02,50.05887,20.02081,Na Załęczu
770,Wiklinowa 01,50.05567,20.02449,Isep
771,Isep 01,50.05477,20.0211,Ciepłownicza
772,Stręcka 01,50.05127,20.01459,Ciepłownicza
773,Szafrańska 01,50.05036,20.00894,Ciepłownicza
774,Elektrociepłownia 01,50.05128,20.00388,Ciepłownicza
775,Szafrańska 02,50.05027,20.00955,Ciepłownicza
776,Stręcka 02,50.05131,20.01471,Ciepłownicza
777,Isep 02,50.05459,20.02125,Ciepłownicza
778,Wiklinowa 02,50.05589,20.02513,Isep
779,Siwka 01,50.05725,20.01464,Siwka
780,Archiwum UMK 01,50.05874,20.02141,Na Załęczu
781,Na Załęczu 01,50.06067,20.02406,Sołtysowska
782,Sikorki 01,50.06271,20.02271,Sołtysowska
783,Sołtysowska Osiedle 01,50.06439,20.01852,Sołtysowska
784,Sołtysowska Zakłady 01,50.0642,20.01419,Sołtysowska
785,Sołtysowska 01,50.06604,20.01131,Centralna
786,Rondo Czyżyńskie 05,50.07382,20.01649,al. Jana Pawła II
787,Wyciąska 06,50.078176388,20.158499444, 
788,Janówka 02,50.079694444,20.160559166,Wiatra
789,Błonia Kościelnickie 02,50.084364166,20.1661975,Pysocice
792,Resztówka 02,50.098494166,20.178510277,Sawy-Calińskiego
793,Ostafina 02,50.104894444,20.171477777,Sawy-Calińskiego
794,Hektary 02,50.109731111,20.175665277,Sawy-Calińskiego
795,Wróżenice Górka 02,50.112823333,20.182460277,Wróżenicka
796,Wróżenice 01,50.113666666,20.189636388,Wróżenicka
797,Wróżenicka 02,50.112233333,20.178237222,Sawy-Calińskiego
798,Czulice Przymiarki,50.122565555,20.187431666,Czulice
799,Czulice Kościół,50.127033055,20.187995833,Czulice
800,Wróżenicka 01,50.112315555,20.1782025,Sawy-Calińskiego
801,Wróżenice Górka 01,50.112908055,20.182453888,Wróżenicka
802,Hektary 01,50.109511111,20.175328611,Sawy-Calińskiego
803,Ostafina 01,50.105020833,20.171263055,Sawy-Calińskiego
804,Resztówka 01,50.098808611,20.178153611,Sawy-Calińskiego
807,Błonia Kościelnickie 01,50.084430277,20.166261666,Pysocice
808,Janówka 01,50.079398055,20.160168611,Wiatra
809,Kąpielowa 04,49.998809444,19.921665,Kąpielowa
810,Wilga 02,49.994896111,19.930591388,Kąpielowa
811,Park Zdrojowy 02,49.992830555,19.936231666,Kąpielowa
812,Merkuriusza Polskiego 02,49.992691388,19.940142222,Chałubińskiego
813,Swoszowice Poczta 02,49.990357777,19.941345833,Chałubińskiego
814,Pytlasińskiego 02,49.986709166,19.94036,Chałubińskiego
815,Chałubińskiego 02,49.983118611,19.936946111,Chałubińskiego
816,Lusina Krakówka,49.9785925,19.932300833,Lusina ul. Zdrojowa
817,Lusina Dolna,49.973601666,19.933398333,Lusina ul. Zdrojowa
818,Lusina Zagrody,49.969266944,19.936070833,Lusina ul. Brzegi
819,Lusina Kraśnik,49.963943055,19.934953888,Lusina ul. Brzegi
820,Lusina Dobrzyczany,49.959172777,19.929252222,Lusina ul. Brzegi
821,Lusina Górka,49.955023055,19.930003333,Lusina ul. Brzegi
822,Lusina Zielona,49.953604166,19.933604722,Lusina ul. Brzegi
823,Konary Pętla,49.9442175,19.921189444, 
824,Chałubińskiego 01,49.982945277,19.936734722,Chałubińskiego
825,Pytlasińskiego 01,49.985988888,19.940108611,Chałubińskiego
826,Swoszowice Poczta 01,49.9908225,19.94255,Szybisko
827,Sawiczewskich 02,49.991373888,19.946058888,Myślenicka
828,Swoszowice Szkoła 02,49.993992777,19.946744166,Myślenicka
829,Merkuriusza Polskiego 01,49.993071111,19.938896388,Kąpielowa
830,Park Zdrojowy 01,49.993152777,19.934895,Kąpielowa
831,Wilga 01,49.995118611,19.930391388,Kąpielowa
832,Kąpielowa 03,49.999010833,19.921529444,Kąpielowa
833,Nowy Bieżanów Południe 02,50.0126825,20.015480555,Aleksandry
834,Aleksandry 02,50.008290833,20.0184375,Aleksandry
835,Węzeł Wielicki 04,50.006753333,20.017793888,Kaimska
836,Wlotowa 04,50.019108888,19.988405277,Wielicka
837,Rondo Grunwaldzkie 04,50.049659722,19.932238611,Konopnickiej
838,Dobrego Pasterza 03,50.089405833,19.958485833,al. 29 Listopada
839,Ks. Meiera 01,50.098135833,19.962628055,al. 29 Listopada
840,Banacha 01,50.102126111,19.963806944,al. 29 Listopada
841,Górka Narodowa P+R 04,50.105104722,19.963728611, 
842,Banacha 03,50.101704722,19.9643175,Meiera
843,Os. Gotyk 01,50.09986,19.964403888,Meiera
844,Ks. Meiera 02,50.097413888,19.961913611,al. 29 Listopada
845,Wlotowa 03,50.018868611,19.9881075,Wielicka
846,Węzeł Wielicki 03,50.006114166,20.017466111,Mała Góra
847,Aleksandry 01,50.0086175,20.018161666,Aleksandry
848,Białe Wzgórze 01,50.05153,19.90868,Księcia Józefa
849,Malczewskiego 01,50.04888,19.90166,Księcia Józefa
850,Wodociągowa 01,50.04813,19.89687,Księcia Józefa
851,Benedyktowicza 01,50.04762,19.88904,Księcia Józefa
852,Glinnik 01,50.04675,19.88235,Księcia Józefa
853,Przegorzały Obwodnica 01,50.046156666,19.871418055,Księcia Józefa
854,Na Krępaku 01,50.04518,19.8594,Księcia Józefa
855,Bielańskie Skały 01,50.04412,19.85083,Księcia Józefa
856,Wodociągi 01,50.04185,19.84119,Księcia Józefa
857,Skalna 01,50.038895277,19.830979722,Mirowska
858,Bielańska 01,50.036510555,19.825307222,Mirowska
859,Kryspinów Stopień Wodny,50.033359444,19.816230833,Kryspinów
860,Piekary Na Brzegu,50.029527777,19.806864444,Mirowska
861,Piekary Korea,50.029062777,19.800932777,Piekary
862,Piekary Sklep,50.026195555,19.797352777,Piekary
863,Piekary Centrum,50.023103611,19.794868333,Piekary
864,Piekary Pałac,50.02058,19.793517222,Piekary
865,Piekary Górne,50.018261666,19.787606944,Piekary
866,Rączna Gołębiec,50.015728333,19.775098888,Rączna
867,Rączna Kapliczka,50.0153,19.769121111,Rączna
868,Rączna Remiza,50.007987222,19.767448611,Rączna
869,Rączna Cracovia Centrum Treningowe,50.003509722,19.766673055,Rączna
870,Rączna Osiedle,50.001349444,19.755415833,Rączna
871,Dąbrowa Szlachecka Krzyż,49.998569166,19.751364722,Dąbrowa Szlachecka ul. Królewska
872,Dąbrowa Szlachecka Figurka,49.995973611,19.743710555,Dąbrowa Szlachecka ul. Królewska
873,Wołowice Skrzyżowanie,49.995387777,19.734064166,Wołowice ul. Dąbrowska
874,Dąbrowa Szlachecka Krzemiennik,49.999405277,19.739055555,Dąbrowa Szlachecka ul. Długa
875,Wołowice Szkoła,49.993867777,19.731407777,Wołowice ul. Podedwór
876,Wołowice Remiza,49.9893625,19.727224444,Wołowice ul. Sąsiedzka
877,Wołowice Kapliczka,49.986314166,19.727959722,Wołowice
878,Wołowice Sklep,49.989454444,19.720578055,Wołowice ul. Piastowska
879,Wołowice Pichonówka,49.988523055,19.711663055,Wołowice ul. Piastowska
880,Wołowice Niwka,49.988199722,19.705124722,Wołowice ul. Piastowska
881,Czernichów Stacja Paliw,49.992085277,19.688555277,Czernichów ul. Tyniecka
882,Czernichów Studzienki,49.992102222,19.685365555,Czernichów ul. Krakowska
883,Czernichów Rynek,49.987178055,19.6765675,Czernichów Rynek
884,Bielańska 02,50.036808888,19.826078888,Mirowska
885,Skalna 02,50.038867222,19.831600277,Mirowska
886,Wodociągi 02,50.0411,19.83996,Księcia Józefa
887,Bielańskie Skały 02,50.04408,19.85143,Księcia Józefa
888,Na Krępaku 02,50.045148055,19.860582222,Księcia Józefa
889,Przegorzały Obwodnica 02,50.04611,19.87293,Księcia Józefa
890,Glinnik 02,50.04707,19.88349,Księcia Józefa
891,Benedyktowicza 02,50.04765,19.89095,Księcia Józefa
892,Wodociągowa 02,50.04813,19.89763,Księcia Józefa
893,Malczewskiego 02,50.04874,19.90357,Księcia Józefa
894,Białe Wzgórze 02,50.05153,19.909,Księcia Józefa
895,Rączna Bażanty,50.011128888,19.775337777,Rączna
896,Ściejowice Remiza,50.006209722,19.778830555,Ściejowice
897,Ściejowice Na Bagnach,50.002380555,19.778306388,Ściejowice
898,Ściejowice Kościel,49.998795,19.779671944,Ściejowice
899,Jeziorzany Rondo,49.994115,19.776572777, 
900,Rondo Czyżyńskie 06,50.07433,20.01857,Bieńczycka
901,Bieńczycka 04,50.07631,20.02198,Bieńczycka
902,Rondo Kocmyrzowskie im. Ks. Gorzelanego 08,50.079965555,20.028753888,Kocmyrzowska
903,Teatr Ludowy 04,50.082188055,20.032948888,Kocmyrzowska
904,Darwina 04,50.091896944,20.0602225,Kocmyrzowska
905,Wzgórza Krzesławickie 02,50.094261666,20.064113055,Kocmyrzowska
906,Architektów 04,50.09689,20.05458,Poległych w Krzesławicach
907,Os. Na Stoku Szkoła 02,50.093195277,20.056343055,Poległych w Krzesławicach
908,Teatr Ludowy 03,50.082069444,20.032004166,Kocmyrzowska
909,Rondo Kocmyrzowskie im. Ks. Gorzelanego 07,50.07894,20.02608,Bieńczycka
910,Bieńczycka 03,50.07645,20.02158,Bieńczycka
911,Opatkowice 01,49.986485555,19.9139275,Zakopiańska
912,Ważewskiego 01,49.982916111,19.911907222,Zakopiańska
913,Libertów Góra Libertowska,49.973285277,19.905383333,Libertów ul. Jana Pawła II
914,Gaj Szkoła,49.960664166,19.89002,Gaj ul. Myślenicka
915,Gaj Zadziele,49.955183055,19.889433333,Gaj ul. Myślenicka
916,Mogilany Rynek,49.943117777,19.885851944,Mogilany ul. Krakowska
917,Mogilany Cicha,49.9377575,19.893873888,Mogilany ul. Świątnicka
918,Mogilany Wiadukt,49.936469722,19.896622777,Mogilany ul. Świątnicka
919,Mogilany Krótka,49.933080277,19.906567222,Mogilany ul. Świątnicka
920,Konary Królowej Polski,49.933426666,19.916495555,Konary ul. Świątnicka
921,Konary Pod Sosenką,49.931025555,19.917898611,Konary ul. Królowej Polski
922,Włosań Kopań,49.923657222,19.919966388,Konary ul. Królowej Polski
923,Włosań Krzyżówka,49.918023888,19.91454,Olszowice ul. Królowej Polski
924,Włosań Dział Wschodni,49.917128333,19.906815555,Włosań ul. Królowej Polski
925,Włosań Centrum,49.913592222,19.903005833,Włosań ul. Królowej Polski
926,Mogilany Cmentarz,49.9447975,19.882790555,Mogilany ul. Skawińska
927,Mogilany Pętla,49.943971111,19.870645277,Mogilany ul. Skawińska
928,Mogilany Ośrodek Zdrowia,49.941778055,19.892881111,Mogilany ul. Myślenicka
929,Ważewskiego 02,49.983764444,19.912832222,Zakopiańska
930,Kulerzów Wąwóz,49.945154444,19.8621625,Kulerzów
931,Kulerzów,49.945316666,19.853846666,Kulerzów
932,Buków Szkoła,49.946485555,19.846578888,Buków
933,Buków Klin,49.946620277,19.841873333,Buków
934,Buków Pętla,49.953585277,19.835135277,Buków
935,Chorowice Pętla,49.949365833,19.8697175,Chorowice ul. Doboszyńskiego
936,Miejskie Centrum Opieki 01,50.009386388,20.003603055,Jakubowskiego
937,Szpital Uniwersytecki / Instytut Pediatrii 01,50.010247222,20.000291388,Jakubowskiego
938,Nowy Kleparz 09,50.075474444,19.936221944,Prądnicka
939,Szpital Narutowicza 03,50.080958611,19.9369525,Doktora Twardego
940,Bratysławska 03,50.08273,19.93465,Doktora Twardego
941,Pielęgniarek 02,50.08347,19.93676,Pielęgniarek
942,Lekarska 01,50.086846944,19.938515,Prądnicka
943,Pachońskiego P+R 05,50.09516,19.928863055,Trasa Wolbromska
944,Prądnik Biały Zachód 04,50.100470277,19.923832222,Piaszczysta
945,Prądnik Biały Zachód 02,50.101593055,19.923118333,Noblistów Polskich
946,Szpital Jana Pawła II 02,50.08837,19.93856,Prądnicka
947,Lekarska 02,50.08657,19.93826,Prądnicka
948,Bratysławska 04,50.0832375,19.933895555,Doktora Twardego
949,Szpital Narutowicza 04,50.080758333,19.937036666,Doktora Twardego
950,Szpital Uniwersytecki / Instytut Pediatrii 02,50.009971111,20.000671111,Jakubowskiego
951,Piekary Borki,50.028473055,19.786624166,Piekary
952,Piekary Dół,50.031255833,19.780686111,Piekary
953,Liszki Tyniecka,50.034584166,19.773570833,Liszki ul. Tyniecka
954,Liszki Urząd Gminy,50.038523333,19.768236944,Liszki ul. Tyniecka
955,Liszki Rondo,50.034710277,19.757534444,Liszki ul. św. Jana Kantego
956,Kaszów Łysa Góra,50.037598055,19.743864722,Kaszów
957,Kaszów Tyrałówka,50.039658888,19.732653333,Kaszów
958,Kaszów Remiza,50.039293611,19.725566111,Kaszów
959,Kaszów Krzyżówka do Nowej Wsi Szlacheckiej,50.038948055,19.7199075,Kaszów
960,Kaszów Na Górce,50.035928333,19.7160275,Kaszów
961,Nowa Wieś Szlachecka Kapliczka,50.033875555,19.710804444,Nowa Wieś Szlachecka ul. Szlachecka
962,Nowa Wieś Szlachecka Sklep,50.030851111,19.704327777,Nowa Wieś Szlachecka ul. Szlachecka
963,Nowa Wieś Szlachecka Kościół,50.027471111,19.697768055,Nowa Wieś Szlachecka ul. Szlachecka
964,Nowa Wieś Szlachecka Pętla,50.025832777,19.690038333,Nowa Wieś Szlachecka ul. Szlachecka
965,Nowa Wieś Szlachecka Jesionka,50.026648055,19.680960277,Nowa Wieś Szlachecka ul. Szlachecka
966,Przeginia Duchowna Szkoła,50.023948333,19.655438055,Przeginia Duchowna ul. Kajasówka
967,Przeginia Duchowna Remiza,50.022370833,19.651910555,Przeginia Duchowna ul. św. Józefa
968,Przeginia Duchowna Kościół,50.018591944,19.652941388,Przeginia Duchowna ul. św. Józefa
969,Przeginia Narodowa Dwór,50.011236944,19.657518055,Przeginia Narodowa ul. Matejki
970,Przeginia Narodowa Bunar,50.005685277,19.6606675,Przeginia Narodowa ul. Matejki
971,Czernichów Bór,49.999580277,19.668184722,Czernichów ul. Krzeszowicka
972,Czernichów Zakamycze,49.993226388,19.666561388,Czernichów ul. Podgórki
975,Nowy Kleparz 05,50.074865,19.936107222,Prądnicka
976,Wielicka Granica Miasta,49.998851944,20.028706111,Wieliczka ul. Krakowska
977,Wieliczka Klasztor,49.988656666,20.053560277,Wieliczka ul. Narutowicza
978,Wieliczka Cmentarz,49.987274166,20.0642575,Wieliczka ul. Piłsudskiego
979,Zabawa Granica,49.992498055,20.086513611, 
980,Zabawa Centrum,49.994660277,20.0909625,Zabawa
981,Mała Wieś Skrzyżowanie,49.998691111,20.102006388,Mała Wieś
982,Sułków Zbój,49.999359444,20.111545833,Sułków
983,Ochmanów Oknoplast,50.0029775,20.126435277,Ochmanów
984,Zakrzów Ogrodzieniec,50.009678611,20.145966388,Zakrzów
985,Podłęże Balachówka,50.0108775,20.152119444,Podłęże ul. Wielicka
986,Podłęże Remiza,50.013410833,20.1643675,Podłęże ul. Wielicka
987,Podłęże Centrum,50.014304722,20.171426666,Podłęże ul. Wielicka
988,Staniątki Wiadukt,50.016443333,20.1806575,Staniątki ul. Wielicka
989,Niepołomice Wielicka,50.019396944,20.192244166,Niepołomice ul. Wielicka
990,Niepołomice Boryczów,50.023371944,20.198729444,Niepołomice ul. Wielicka
991,Niepołomice Kościuszki,50.029026111,20.206335,Niepołomice ul. Kościuszki
992,Niepołomice Rynek,50.033328611,20.216324444, 
993,Niepołomice Dworzec,50.038441666,20.216230555,Niepołomice ul. Kolejowa
994,Podłęże Przedszkole,50.013493611,20.161748888,Podłęże ul. Wielicka
995,Wieliczka Niepołomska Granica,49.9922275,20.085683888, 
996,Wielicka Granica Miasta 04,49.99986,20.028043055,Wielicka
997,Na Załęczu 02,50.05973,20.02508,Niepokalanej Marii Panny
998,Habina 02,50.0575,20.0309,Niepokalanej Marii Panny
999,Odmętowa 02,50.05403,20.0352,Niepokalanej Marii Panny
1000,Lasek Łęgowski 02,50.05246,20.03762,Niepokalanej Marii Panny
1001,Lesisko 01,50.05408,20.0453,Zagłoby
1002,Lasek Łęgowski 01,50.05256,20.03786,Niepokalanej Marii Panny
1003,Odmętowa 01,50.05471,20.0348,Niepokalanej Marii Panny
1004,Habina 01,50.05795,20.0302,Niepokalanej Marii Panny
1005,Rondo Kocmyrzowskie im. Ks. Gorzelanego 05,50.0788,20.0281,al. Andersa
1006,Os. Piastów 02,50.10089,20.01291,Piasta Kołodzieja
1007,Piasta Kołodzieja 04,50.097919722,20.013073888,Piasta Kołodzieja
1008,Kleeberga 04,50.095856111,20.012769444,Piasta Kołodzieja
1009,Rondo Hipokratesa 07,50.090186944,20.021111944,Broniewskiego
1010,Czyżyny 03,50.07417,20.01123,al. Jana Pawła II
1011,Stella-Sawickiego 03,50.074505,20.005368888,al. Jana Pawła II
1012,AKF / PK 03,50.074006388,19.997529722,al. Jana Pawła II
1013,TAURON Arena Kraków Wieczysta 06,50.070915277,19.982403611,Mogilska
1014,Białucha 03,50.067380555,19.977083055,Mogilska
1015,Stary Kleparz 05,50.066257777,19.940338055,Basztowa
1016,Bronowice 05,50.077903333,19.900878888,Bronowicka
1017,Wesele 03,50.079391111,19.896876944,Bronowicka
1018,Bronowice SKA 03,50.0812875,19.890906111,Balicka
1019,Bronowice Małe 08,50.08208,19.88303,Balicka
1020,Bronowice SKA 04,50.08158,19.88889,Balicka
1021,Wesele 04,50.078786944,19.898113055,Bronowicka
1022,Bronowice 04,50.077030555,19.902635,Bronowicka
1024,Białucha 04,50.068183611,19.978433055,Mogilska
1025,TAURON Arena Kraków Wieczysta 08,50.071620277,19.983936388,al. Jana Pawła II
1026,AKF / PK 04,50.073838888,19.998276944,al. Jana Pawła II
1027,Stella-Sawickiego 04,50.074091388,20.005313888,al. Jana Pawła II
1028,Czyżyny 04,50.073797222,20.012490555,al. Jana Pawła II
1029,Rondo Kocmyrzowskie im. Ks. Gorzelanego 06,50.08035,20.02671,al. Andersa
1030,Rondo Hipokratesa 05,50.090894166,20.020831388,Mikołajczyka
1031,Kleeberga 03,50.0956,20.01292,Piasta Kołodzieja
1032,Piasta Kołodzieja 03,50.09864,20.01332,Piasta Kołodzieja
1033,Krowodrza Urzędy Skarbowe 01,50.084464444,19.930583333,Krowoderskich Zuchów
1034,Wybickiego 02,50.084010833,19.927691666,Wybickiego
1035,Łobzów SKA 02,50.081517777,19.916122222,Wrocławska
1036,Mazowiecka 01,50.077827222,19.9177125,al. Kijowska
1037,Biprostal 03,50.073213611,19.914905,Królewska
1038,UKEN 03,50.0739975,19.911533611,Królewska
1039,Miasteczko Studenckie AGH 04,50.069695833,19.903704166,Piastowska
1040,Cichy Kącik 02,50.061956944,19.901953333,Piastowska
1041,Piastowska 01,50.058657777,19.897532222,Królowej Jadwigi
1042,Tondosa 01,50.060624722,19.893072222,Królowej Jadwigi
1043,Lajkonika 01,50.062282777,19.8881175,Królowej Jadwigi
1044,Strzelnica 01,50.063778333,19.883741944,Królowej Jadwigi
1045,Sielanka 01,50.065191388,19.878235555,Królowej Jadwigi
1046,Park Decjusza 01,50.066968611,19.869904166,Królowej Jadwigi
1047,Kasztanowa 01,50.065215555,19.8655325,al. Kasztanowa
1048,Kopalina 01,50.065789722,19.8620225,al. Kasztanowa
1049,Zielony Dół 01,50.066738611,19.856201944,al. Kasztanowa
1050,Chełm 02,50.067538333,19.846619722,Chełmska
1051,Chełmska 02,50.063910277,19.8411,Chełmska
1052,Rzepichy 02,50.062388888,19.835544166,Rzepichy
1053,Kosmowskiej 02,50.061218611,19.830984444,Rzepichy
1054,Zakamycze 01,50.058352777,19.829113611,Rzepichy
1055,Obserwatorium 01,50.053760277,19.827054166,Orla
1056,Cmentarz Bielany 01,50.0473225,19.826425,Orla
1057,Bielany Szkoła 01,50.044163888,19.825713055,Księcia Józefa
1058,Bielany 01,50.043325833,19.819836388,Astronautów
1059,Bielany Szkoła 04,50.0445175,19.827430555,Orla
1060,Cmentarz Bielany 02,50.048657222,19.826242222,Orla
1061,Obserwatorium 02,50.053613055,19.827051111,Orla
1062,Kosmowskiej 01,50.061535,19.831731388,Rzepichy
1063,Rzepichy 01,50.062290833,19.835753333,Rzepichy
1064,Chełmska 01,50.0637175,19.841029722,Chełmska
1065,Chełm 01,50.067823888,19.847234722,Chełmska
1066,Zielony Dół 02,50.066740555,19.855670277,al. Kasztanowa
1067,Kopalina 02,50.065921666,19.860721666,al. Kasztanowa
1068,Kasztanowa 02,50.0650325,19.866133333,al. Kasztanowa
1069,Park Decjusza 02,50.067049166,19.869311944,Królowej Jadwigi
1070,Sielanka 02,50.065383888,19.8766275,Królowej Jadwigi
1071,Strzelnica 02,50.064083333,19.882691666,Królowej Jadwigi
1072,Lajkonika 02,50.062094722,19.888298611,Królowej Jadwigi
1073,Tondosa 02,50.060715277,19.891409444,Królowej Jadwigi
1074,Owcy-Orwicza 02,50.059711666,19.894475833,Królowej Jadwigi
1075,Piastowska 03,50.059158611,19.899515,Piastowska
1076,Cichy Kącik 03,50.062784722,19.902649722,Piastowska
1077,Miasteczko Studenckie AGH 03,50.070400277,19.904257777,Piastowska
1078,UKEN 04,50.074385,19.909086666,Podchorążych
1079,Biprostal 04,50.073446388,19.916006111,al. Kijowska
1080,Mazowiecka 02,50.078620833,19.918173888,al. Kijowska
1081,Łobzów SKA 01,50.081646111,19.916340277,Wrocławska
1082,Wybickiego 01,50.083789722,19.926369166,Wybickiego
1083,Krowodrza Urzędy Skarbowe 02,50.084911111,19.930756666,Krowoderskich Zuchów
1084,Fort Skotniki 02,50.006668055,19.869413333,Kozienicka
1085,Orszy-Broniewskiego 02,50.006494166,19.86411,Kozienicka
1086,Kozienicka 02,50.006392222,19.859189166,Kozienicka
1087,Podgórki Tynieckie 01,50.006390833,19.844414166,Kozienicka
1088,Kozienicka 01,50.006051111,19.858673055,Wujka
1089,Orszy-Broniewskiego 01,50.005706666,19.864715833,Jana Chryzostoma Paska
1090,Fort Skotniki 01,50.006663888,19.871257777,Kozienicka
1091,Os. Podwawelskie 01,50.04607,19.93265,Barska
1092,Cracovia Błonia 02,50.058916666,19.921979722,al. Focha
1093,Chełm 04,50.06787,19.84631,Olszanicka
1094,Olszanica Bory 02,50.062098611,19.805175555,Olszanicka
1095,Kraków Airport,50.070890833,19.800160833,Balice ul. Medweckiego
1096,Olszanica Bory 01,50.061806944,19.805855833,Olszanicka
1097,Modlniczka Leroy Merlin,50.106416111,19.849690277,Modlniczka ul. Różańskiego
1098,Zabierzów Willowa,50.112211666,19.810157777,Zabierzów ul. Krakowska
1099,Zabierzów Centrum,50.112944722,19.800940555,Zabierzów ul. Krakowska
1100,Zabierzów Rynek,50.116455277,19.799897222,Zabierzów ul. Kolejowa
1101,Zabierzów PKP,50.118084444,19.800941111,Zabierzów ul. Rodziny Poganów
1102,Bolechowice Zielona,50.127132222,19.803861944,Bolechowice ul. Łąkowa
1103,Bolechowice Krzewiny,50.135125277,19.799213333,Bolechowice ul. Jurajska
1104,Bolechowice Drogi,50.141760833,19.797127777,Bolechowice ul. Jurajska
1105,Bolechowice Centrum,50.147126944,19.791726388,Bolechowice Winnica
1106,Zelków Wola,50.154231111,19.799785,Zelków ul. Jana Pawła II
1107,Zelków Staw,50.159599722,19.796098888,Zelków ul. Jana Pawła II
1108,Zelków Spławy,50.161118611,19.800169444,Zelków ul. Jana Pawła II
1109,Zelków Kościuszki,50.161494722,19.805215555,Zelków ul. Kościuszki
1110,Zelków Pętla,50.161463611,19.811571944,Zelków ul. Kościuszki
1111,Podgórze SKA 06,50.042103333,19.962711944,Powstanców Wielkopolskich
1112,Podgórze SKA 03,50.04182,19.96112,Wielicka
1113,Dworcowa 05,50.03256,19.97074,Wielicka
1114,Kabel 03,50.02743,19.97597,Wielicka
1115,Węzeł Wielicki 01,50.005761944,20.018205555,Wielicka
1116,Wieliczka Ochronka,49.981527777,20.070433055,Wieliczka ul. Gdowska
1117,Wieliczka Polna,49.979981111,20.077934444,Wieliczka ul. Gdowska
1118,Lednica Górna Świdówka,49.978253055,20.086736666,Lednica Górna
1120,Tomaszkowice Urząd Gminy Biskupice,49.975831944,20.099199722,Tomaszkowice
1121,Przebieczany Gdowska,49.974053611,20.108290833,Przebieczany
1122,Biskupice Rymarówka,49.972433333,20.123949722,Biskupice
1123,Biskupice Szczygłów,49.96901,20.132820833,Biskupice
1124,Trąbki Pacówki,49.963369166,20.141795,Trąbki
1125,Trąbki Remiza,49.957968333,20.146516111,Trąbki
1126,Trąbki P+R,49.957295555,20.147004722,Trąbki
1127,Węzeł Wielicki 02,50.006846111,20.016539444,Wielicka
1128,Kabel 04,50.02747,19.97623,Wielicka
1129,Dworcowa 04,50.03358,19.97004,Wielicka
1130,Michałowice Dąbrowskich,50.151508611,19.983826944,Michałowice ul. Krakowska
1131,Michałowice Centrum,50.158880555,19.980463611,Michałowice ul. Krakowska
1132,Masłomiąca Koźlica,50.160331111,19.989183055,Masłomiąca ul. Długa
1133,Masłomiąca Staw,50.160668333,19.999554444,Masłomiąca ul. Długa
1134,Masłomiąca Długa,50.157797222,20.013451388,Masłomiąca ul. Długa
1135,Więcławice Stare Centrum,50.154693611,20.0289575,Więcławice Stare ul. św. Jakuba
1136,Sieborowice,50.159963611,20.036026388,Więcławice Dworskie ul. Lubicz
1137,Zagórzyce Stare Owocowa,50.167680277,20.0351725,Zagórzyce Stare ul. Owocowa
1138,Zagórzyce Dworskie Remiza,50.174826111,20.039423611,Zagórzyce Dworskie
1139,Więcławice Stare Wysyłek,50.154406666,20.032998611,Więcławice Stare ul. Wysyłek
1140,Pielgrzymowice Granica,50.153434444,20.039881111,Pielgrzymowice ul. Centralna
1141,Pielgrzymowice Wierzbowa,50.151023055,20.047262777,Pielgrzymowice ul. Centralna
1142,Banacha 02,50.101320833,19.963149722,al. 29 Listopada
1143,Plac Centralny im. R.Reagana 01,50.071704,20.035631,al. Jana Pawła II
1144,Os. Kolorowe 02,50.072371,20.028517,al. Jana Pawła II
1145,Rondo Czyżyńskie 04,50.072758,20.017068,al. Pokoju
1146,Gałczyńskiego 02,50.069417,20.012742,al. Pokoju
1147,Rondo 308. Dywizjonu 02,50.067398,20.005374,al. Pokoju
1148,Ogród Doświadczeń 02,50.065502,19.996324,al. Pokoju
1149,TAURON Arena Kraków al. Pokoju 02,50.064416,19.990077,al. Pokoju
1150,Dąbie 02,50.060709,19.979012,al. Pokoju
1151,Ofiar Dąbia 02,50.059629,19.976271,al. Pokoju
1152,Fabryczna 02,50.060251,19.971272,al. Pokoju
1153,Nullo 02,50.060173,19.967382,al. Pokoju
1154,Teatr Variété 02,50.058827,19.962374,al. Pokoju
1155,Stradom 03,50.052258,19.942061,Dietla
1160,Lipińskiego 01,50.030792,19.924804,Grota-Roweckiego
1161,Grota-Roweckiego 01,50.031867,19.920212,Grota-Roweckiego
1162,Norymberska 01,50.029809,19.912225,Grota-Roweckiego
1163,Ruczaj 01,50.026932,19.905181,Grota-Roweckiego
1164,Kampus UJ 01,50.024044,19.901485,Bobrzyńskiego
1165,Chmieleniec 01,50.020377,19.897505,Bobrzyńskiego
1166,Czerwone Maki P+R 01,50.017986,19.889106, 
1167,Chmieleniec 02,50.020825,19.898122,Bobrzyńskiego
1168,Kampus UJ 02,50.024685,19.901995,Bobrzyńskiego
1169,Ruczaj 02,50.02729,19.906125,Grota-Roweckiego
1170,Norymberska 02,50.030129,19.913131,Grota-Roweckiego
1171,Grota-Roweckiego 02,50.031593,19.921162,Grota-Roweckiego
1172,Lipińskiego 02,50.030738,19.924874,Grota-Roweckiego
1178,Starowiślna 01,50.05731,19.94455,Starowiślna
1179,Poczta Główna 02,50.059205,19.942571,Starowiślna
1180,Teatr Variété 01,50.058858,19.962529,al. Pokoju
1181,Nullo 01,50.060001,19.966793,al. Pokoju
1182,Fabryczna 01,50.060437,19.970172,al. Pokoju
1183,Ofiar Dąbia 01,50.05959,19.976363,al. Pokoju
1184,Dąbie 01,50.060724,19.979185,al. Pokoju
1185,TAURON Arena Kraków al. Pokoju 01,50.064188,19.988978,al. Pokoju
1186,Ogród Doświadczeń 01,50.065658,19.997488,al. Pokoju
1187,Rondo 308. Dywizjonu 01,50.067352,20.005379,al. Pokoju
1188,Gałczyńskiego 01,50.0692,20.012191,al. Pokoju
1189,Rondo Czyżyńskie 01,50.0733,20.01888,al. Jana Pawła II
1190,Os. Kolorowe 01,50.072198,20.0298,al. Jana Pawła II
1191,Plac Centralny im. R.Reagana 05,50.072432777,20.038780555,al. Solidarności
1192,Przybysławice Centrum,50.157623055,19.895277777,Przybysławice ul. Krakowska
1193,Przybysławice Na Lipowiec,50.160037222,19.897231111,Przybysławice ul. Krakowska
1194,Przybysławice Na Stoczki,50.164053055,19.899451666,Przybysławice ul. Krakowska
1195,Brzozówka Ośrodek,50.172463888,19.898280833,Brzozówka ul. Krakowska
1196,Brzozówka Oskarówka,50.175492777,19.896537777,Brzozówka ul. Topolowa
1197,Owczary Długa,50.177436388,19.908756666,Owczary ul. Topolowa
1198,Owczary Pętla,50.174306111,19.913244166,Owczary ul. Długa
1199,Jubileuszowa 02,50.101385277,20.0695775,Kocmyrzowska
1200,Morcinka 02,50.104435833,20.072992777,Kocmyrzowska
1201,Prusy Rondo,50.110652222,20.081766666,Prusy ul. Kocmyrzowska
1202,Prusy Szkoła,50.114074166,20.085519444,Prusy ul. Niepodległości
1203,Prusy Kościół,50.119097777,20.092135,Prusy ul. Kocmyrzowska
1204,Sulechów,50.12195,20.096788333,Sulechów ul. Kocmyrzowska
1205,Luborzyca Przy Źródle,50.1429425,20.126348888,Luborzyca ul. Jagiellońska
1206,Luborzyca Piotrowiec,50.149578055,20.136284166,Luborzyca ul. Jagiellońska
1207,Rawałowice Góra,50.155648055,20.144905277,Rawałowice
1208,Rawałowice Skrzyżowanie,50.164228055,20.148375277,Rawałowice
1209,Rawałowice Kapliczka,50.166315555,20.155334722,Rawałowice
1210,Morcinka 01,50.103697222,20.072038888,Kocmyrzowska
1211,Jubileuszowa 01,50.101063611,20.069092777,Kocmyrzowska
1212,Wzgórza Krzesławickie 03,50.096115833,20.065584722,Kocmyrzowska
1213,Darwina 03,50.091796944,20.059713333,Kocmyrzowska
1214,Plac Na Stawach 01,50.05509,19.92053,Senatorska
1215,Salwator 05,50.05312,19.91661,Senatorska
1216,Malczewskiego 04,50.04978,19.90315,Malczewskiego
1217,Aleja Waszyngtona 01,50.05335,19.89764,Wodociągowa
1218,Kopiec Kościuszki 01,50.05528,19.8926,al. Waszyngtona
1219,Aleja Waszyngtona 02,50.05314,19.89611,Wodociągowa
1220,Salwator 02,50.052724,19.915028,Kościuszki
1221,Komorowskiego 02,50.053384,19.921893,Kościuszki
1222,Zajezdnia Płaszów 02,50.035496666,20.011571388,Biskupińska
1223,Płk. Dąbka 01,50.036466666,20.006399722,Płk. Dąbka
1224,Mały Płaszów P+R 03,50.0399475,19.999499166,Lipska
1225,Szczecińska 02,50.042327222,19.991096388,Przewóz
1226,Saska 02,50.045588611,19.983731666,Saska
1227,Stoczniowców 05,50.049491944,19.981281666,Stoczniowców
1228,TAURON Arena Kraków al. Pokoju 03,50.064836111,19.989393333,Lema
1229,TAURON Arena Kraków 01,50.068015555,19.988787222,Lema
1230,TAURON Arena Kraków Wieczysta 05,50.071870277,19.982389166,Meissnera
1231,Meissnera 01,50.075746388,19.9792625,Meissnera
1232,Pszona 01,50.078546388,19.977048888,Meissnera
1233,Rondo Młyńskie 01,50.080695,19.973245,Młyńska
1234,Banacha 04,50.101799722,19.962594166,Banacha
1235,Papierni Prądnickich 03,50.102380277,19.957445555,Papierni Prądnickich
1236,Papierni Prądnickich 05,50.102048611,19.957719444,Banacha
1237,Rondo Młyńskie 04,50.080384722,19.974240277,Meissnera
1238,Pszona 02,50.077693055,19.977718333,Meissnera
1239,Meissnera 02,50.074624722,19.979661666,Meissnera
1240,TAURON Arena Kraków Wieczysta 04,50.070929444,19.983902222,Lema
1241,TAURON Arena Kraków 02,50.066949722,19.988569444,Lema
1242,Ofiar Dąbia 03,50.059048333,19.975379166,Ofiar Dąbia
1243,Stoczniowców 03,50.048517777,19.982045277,Saska
1244,Saska 03,50.044969166,19.984290555,Przewóz
1245,Szczecińska 01,50.042769444,19.989785,Przewóz
1246,Rzebika 04,50.0402525,19.992723888,Lipska
1247,Surzyckiego 04,50.038904444,20.004162777,Mierzeja Wiślana
1248,Płk. Dąbka 02,50.0361475,20.007039722,Płk. Dąbka
1249,Medweckiego 02,50.07631,20.00734,Medweckiego
1250,Stella-Sawickiego 08,50.07653,20.00359,Medweckiego
1251,Os. Dywizjonu 303 02,50.08478,20.00059,Stella-Sawickiego
1252,Miechowity 01,50.08338,19.96894,Miechowity
1253,Bosaków 01,50.08331,19.96434,Miechowity
1254,Brogi 01,50.07987,19.96103,Brogi
1255,Wileńska 02,50.08231,19.95389,Wileńska
1256,UR al. 29 Listopada 03,50.08244,19.95215,al. 29 Listopada
1257,Brogi 02,50.07964,19.95939,Czerwonego Prądnika
1258,Bosaków 02,50.08225,19.9631,Brogi
1259,Miechowity 72,50.08351,19.96961,Miechowity
1260,Wiślicka 03,50.08718,20.00126,Stella-Sawickiego
1261,Os. Dywizjonu 303 01,50.08431,19.9996,Stella-Sawickiego
1262,Stella-Sawickiego 06,50.07487,20.00369,Stella-Sawickiego
1263,Medweckiego 01,50.07602,20.00733,Medweckiego
1264,Kapelanka 06,50.04541,19.92042,Zielińskiego
1265,Zielińskiego 04,50.04717,19.91119,Zielińskiego
1266,Malczewskiego 03,50.049,19.90413,Most Zwierzyniecki
1267,Zielińskiego 03,50.04625,19.91194,Zielińskiego
1268,Dworzec Główny Wschód 01,50.068481666,19.949429166,Wita Stwosza
1269,Muzeum Armii Krajowej 02,50.071636666,19.948854166,Wita Stwosza
1270,Ks. Meiera 04,50.097964166,19.961836666,Kużnicy Kołłątajowskiej
1271,Kuźnicy Kołłątajowskiej 04,50.098448888,19.958804722,Kużnicy Kołłątajowskiej
1272,Natansona 02,50.098261944,19.951719722,Kużnicy Kołłątajowskiej
1273,Siewna 02,50.099968333,19.947319722,Siewna
1274,Dożynkowa 02,50.102574444,19.94603,Dożynkowa
1275,Witkowice Nowe 02,50.105408888,19.944000277,Dożynkowa
1276,Witkowice 02,50.108748888,19.943231944,Dożynkowa
1277,Os. Marszowiec 02,50.118412222,19.9416775,Dożynkowa
1278,Zielonki Marszowiec Pętla,50.123621388,19.939838333,Zielonki ul. Marszowiecka
1279,Os. Marszowiec 01,50.118901944,19.941376111,Dożynkowa
1280,Witkowice 03,50.108553055,19.943073333,Dożynkowa
1281,Witkowice Nowe 01,50.104908888,19.944503333,Dożynkowa
1282,Dożynkowa 01,50.102415277,19.946013888,Dożynkowa
1283,Siewna 03,50.099202222,19.948628888,Kużnicy Kołłątajowskiej
1284,Natansona 01,50.098236388,19.951143611,Kużnicy Kołłątajowskiej
1285,Kuźnicy Kołłątajowskiej 03,50.0982575,19.957588888,Kużnicy Kołłątajowskiej
1286,Muzeum Armii Krajowej 01,50.07041,19.9490275,Wita Stwosza
1287,Witkowice 01,50.107378888,19.942298055,Zielone Wzgórze
1288,Bunscha 02,50.012073611,19.883155277,Bunscha
1289,Baczyńskiego 02,50.003543055,19.869453333,Skotnicka
1290,Wrony 02,49.995085833,19.851497777,Skotnicka
1291,Skawina Obwodnica,49.991731666,19.8488475,Skawina ul. Krakowska
1292,Skawina Podlipki,49.988536388,19.844574166,Skawina ul. Krakowska
1293,Skawina Rzepnik,49.983477222,19.837851944,Skawina ul. Krakowska
1294,Radziszów Kładka,49.940374166,19.807698055,Radziszów ul. Brzegi
1295,Radziszów Zacisze,49.935349166,19.809168611,Radziszów ul. Zawodzie
1296,Radziszów Podwale,49.927017222,19.807925833,Radziszów ul. Zawodzie
1297,Radziszów Zawodzie,49.921130833,19.807395,Radziszów ul. Zawodzie
1298,Radziszów PKP,49.918198888,19.808896944,Radziszów ul. Zawodzie
1299,Wrony 01,49.995429722,19.852586666,Hollendra
1300,Baczyńskiego 01,50.003051388,19.869039166,Skotnicka
1301,Babińskiego 03,50.0074875,19.881083055,Bunscha
1302,Bunscha 01,50.012658888,19.883872222,Bunscha
1303,Os. Na Stoku 02,50.09782,20.05016,Architektów
1304,Leszka Białego 01,50.095823611,20.050785833,Władysława Jagiełły
1305,Jana Kazimierza 01,50.095106111,20.047241111,Władysława Jagiełły
1306,Władysława Jagiełły 01,50.095516388,20.041566944,Władysława Jagiełły
1307,Stawowa 04,50.093933611,19.8932625,Jasnogórska
1308,Władysława Jagiełły 02,50.094972222,20.040074444,Władysława Jagiełły
1309,Jana Kazimierza 02,50.094923333,20.047062222,Władysława Jagiełły
1310,Leszka Białego 02,50.095812222,20.051748055,Władysława Jagiełły
1311,Architektów 01,50.09738,20.05466,Architektów
1312,Michałowice Ośrodek Zdrowia,50.161466111,19.979734444,Michałowice ul. Krakowska
1313,Michałowice Lecznica,50.1654225,19.968972777,Michałowice ul. Górna
1314,Michałowice Na Stoku,50.168411944,19.951726944,Michałowice ul. Górna
1315,Michałowice Michałówka,50.170205,19.940404166,Michałowice ul. Górna
1316,Michałowice Gościniec,50.173828888,19.945677777,Michałowice ul. Warszawka
1317,Narama Graniczna Sklep,50.180580833,19.944559722,Narama ul. Graniczna
1318,Narama Księża,50.185521944,19.943851388,Narama ul. Graniczna
1319,Krasieniec Stary Skrzyżowanie,50.191066944,19.941380555,Krasieniec Stary
1320,Krasieniec Stary Kopalina,50.195965833,19.938775833,Krasieniec Stary
1321,Krasieniec Zakupny Remiza,50.200932777,19.939202777,Krasieniec Zakupny
1322,Krasieniec Zakupny Pod Lipą,50.207680555,19.938265833,Krasieniec Zakupny
1323,Krasieniec Zakupny Kapliczka,50.211325833,19.949889166,Krasieniec Zakupny
1324,Krasieniec Zakupny Kotryska,50.213372222,19.955307777, 
1325,Iwanowice Dworskie Pętla,50.2205325,19.979605277, 
1326,Iwanowice Dworskie Kotryska,50.213978055,19.956347777, 
1327,Michałowice Górna,50.1681825,19.977970833,Michałowice ul. Krakowska
1328,Modlniczka Trzcie,50.109446666,19.839464444,Modlniczka ul. Kasztanowa
1329,Brzezie Działki,50.116754166,19.828790555,Brzezie ul. Szlachecka
1330,Brzezie Narodowe,50.121948055,19.822343333,Brzezie ul. Szlachecka
1331,Brzezie Kluczwody,50.129303055,19.821800833,Brzezie ul. Narodowa
1332,Brzezie Kościół,50.132455,19.821639444,Brzezie ul. Narodowa
1333,Ujazd Pętla,50.135829166,19.820256388,Ujazd ul. Krótka
1334,Brzezie Kulka,50.124841111,19.815266111,Brzezie ul. Szlachecka
1335,Zabierzów Młyn,50.119474444,19.801250555,Zabierzów ul. Rodziny Poganów
1336,Nowy Bieżanów P+R 01,50.015608,20.023053, 
1337,Ćwiklińskiej 02,50.015966,20.019968,Ćwiklińskiej
1338,Nowy Prokocim 02,50.016318,20.013226,Ćwiklińskiej
1339,Teligi 02,50.016511,20.007916,Teligi
1340,Prokocim Szpital 02,50.014585,20.000171,Teligi
1341,Prokocim 02,50.017646,19.990988,Wielicka
1342,Wlotowa 02,50.019553,19.987851,Wielicka
1343,Bieżanowska 02,50.023119,19.981692,Wielicka
1344,Kabel 02,50.026621,19.977231,Wielicka
1345,Dworzec Płaszów Estakada 01,50.033556,19.977196,Estakada
1346,Lipska 02,50.040688,19.981676,Kuklińskiego
1347,Gromadzka 02,50.040657,19.978076,Kuklińskiego
1348,Kuklińskiego 02,50.044575,19.973602,Kuklińskiego
1349,Klimeckiego 02,50.049016,19.967621,Herlinga-Grudzińskiego
1350,Zabłocie 02,50.049951,19.964216,Herlinga-Grudzińskiego
1351,TAURON Arena Kraków Wieczysta 03,50.072108,19.985169, 
1352,Rondo Grzegórzeckie 04,50.056894,19.958941,Kotlarska
1353,Zabłocie 01,50.0497,19.965148,Herlinga-Grudzińskiego
1354,Klimeckiego 01,50.048976,19.967573,Herlinga-Grudzińskiego
1355,Kuklińskiego 01,50.044529,19.973549,Kuklińskiego
1356,Gromadzka 01,50.040619,19.978092,Kuklińskiego
1357,Lipska 03,50.039687,19.982994, 
1358,Dworzec Płaszów Estakada 02,50.033468,19.976946,Estakada
1359,Kabel 01,50.027229,19.976567,Wielicka
1360,Bieżanowska 01,50.023027,19.981791,Wielicka
1361,Wlotowa 01,50.019364,19.988113,Wielicka
1362,Prokocim 01,50.017526,19.991105,Wielicka
1363,Prokocim Szpital 01,50.014443,19.998952,Wielicka
1364,Teligi 01,50.016599,20.007159,Teligi
1365,Nowy Prokocim 01,50.016128,20.012098,Teligi
1366,Ćwiklińskiej 01,50.016057,20.019317,Ćwiklińskiej
1367,Rondo Kocmyrzowskie im. Ks. Gorzelanego 04,50.079056,20.02806,al. Andersa
1368,Os. Zgody 01,50.076921,20.030839,al. Andersa
1369,Pędzichów 01,50.069678,19.937536,Długa
1370,Nowy Kleparz 01,50.07349,19.93663,al. Słowackiego
1371,Dworzec Towarowy 01,50.075988,19.940292, 
1372,Szpital Narutowicza 01,50.080794,19.93763,Prądnicka
1373,Bratysławska 01,50.08373,19.93416,Doktora Twardego
1374,Krowodrza Górka P+R 01,50.088958,19.932816, 
1375,Pachońskiego P+R 01,50.09416,19.92983,Sosabowskiego
1376,Białoprądnicka 02,50.09485,19.9352,Pachońskiego
1377,Górnickiego 02,50.09617,19.94202,Pachońskiego
1378,Siewna Wiadukt 01,50.09583,19.94816,Siewna
1379,Bociana 01,50.09505,19.95446,Bociana
1380,Kuźnicy Kołłątajowskiej 01,50.09801,19.9561, 
1381,Papierni Prądnickich 01,50.1019,19.95743, 
1382,Górka Narodowa P+R 01,50.104864,19.96247, 
1383,Papierni Prądnickich 02,50.10163,19.9573, 
1384,Kuźnicy Kołłątajowskiej 02,50.09766,19.95603, 
1385,Bociana 02,50.09514,19.95394,Bociana
1386,Siewna Wiadukt 02,50.09599,19.94751,Siewna
1387,Górnickiego 01,50.09598,19.94142,Pachońskiego
1388,Białoprądnicka 01,50.09499,19.93486,Pachońskiego
1389,Pachońskiego P+R 02,50.09379,19.93005,Sosabowskiego
1390,Krowodrza Górka P+R 02,50.088752,19.93274, 
1391,Bratysławska 02,50.084645,19.933583,Doktora Twardego
1392,Szpital Narutowicza 02,50.080625,19.937974,Prądnicka
1393,Dworzec Towarowy 03,50.074994,19.93968,Kamienna
1394,Nowy Kleparz 02,50.073508,19.936452,al. Słowackiego
1395,Pędzichów 02,50.069646,19.937499,Długa
1396,Stary Kleparz 03,50.06666,19.93895,Długa
1397,Plac Centralny im. R.Reagana 02,50.072961,20.036331,al. Andersa
1398,Os. Zgody 02,50.076456,20.031524,al. Andersa
1399,Mały Płaszów P+R 01,50.040064,20.001498, 
1400,Rzebika 02,50.040546,19.990871,Lipska
1401,Dworcowa 02,50.032673,19.971078,Wielicka
1402,Cmentarz Podgórski 02,50.038686,19.964919,Wielicka
1403,Podgórze SKA 02,50.04184,19.961425,Wielicka
1404,Limanowskiego 02,50.045,19.955911,Limanowskiego
1405,Korona 02,50.044052,19.947497,Kalwaryjska
1406,Plac Wolnica 02,50.048114,19.943448,Krakowska
1407,Stradom 04,50.050842,19.942415,Krakowska
1408,Wawel 01,50.05449,19.93963,Św. Gertrudy
1409,św. Gertrudy 01,50.058627,19.940988,Św. Gertrudy
1410,Plac Wszystkich Świętych 01,50.05912,19.93824,Pl. Dominikański
1411,Filharmonia 01,50.05903,19.93387,Franciszkańska
1412,Muzeum Narodowe 01,50.059525,19.92554,Piłsudskiego
1413,Oleandry 01,50.059787,19.921194,al. 3 Maja
1414,Park Jordana 01,50.06029,19.918105,al. 3 Maja
1415,Reymana 01,50.061364,19.911163,al. 3 Maja
1416,Cichy Kącik 01,50.062955,19.903385, 
1417,Reymana 02,50.061356,19.910722,al. 3 Maja
1418,Park Jordana 02,50.060224,19.917799,al. 3 Maja
1419,Oleandry 02,50.05985,19.920531,al. 3 Maja
1420,Muzeum Narodowe 02,50.059326,19.924504,al. 3 Maja
1421,Filharmonia 03,50.05917,19.9331,Straszewskiego
1422,Plac Wszystkich Świętych 02,50.059113,19.937497,Pl. Wszystkich Św.
1423,św. Gertrudy 02,50.058486,19.940838,Św. Gertrudy
1424,Wawel 02,50.054324,19.939295,Św. Gertrudy
1425,Stradom 02,50.052086,19.941166,Stradomska
1426,Plac Wolnica 01,50.048028,19.943426,Krakowska
1427,Korona 03,50.044032,19.94678,Legionów Piłsudskiego
1428,Limanowskiego 01,50.045136,19.954882,Limanowskiego
1429,Podgórze SKA 01,50.042438,19.960723,Limanowskiego
1430,Cmentarz Podgórski 01,50.038989,19.964548,Wielicka
1431,Dworcowa 01,50.033435,19.970294,Wielicka
1432,Lipska 01,50.040641,19.98442,Lipska
1433,Rzebika 01,50.040429,19.992646,Lipska
1434,Zabierzów Kamieniołom,50.115545833,19.792511666,Zabierzów ul. Śląska
1435,Zabierzów Piaski,50.1169225,19.78439,Zabierzów ul. Śląska
1436,Zabierzów Ośrodek Zdrowia,50.116971666,19.778085277,Zabierzów ul. Śląska
1437,Zabierzów Wrzosowa,50.116217222,19.7637025,Zabierzów ul. Śląska
1438,Kochanów Centrum,50.114857222,19.748541944,Kochanów ul. Lubomirskich
1439,Rudawa Młyn,50.114403055,19.701061111,Rudawa ul. Śląska
1440,Młynka Kalwaryjska,50.113818333,19.697141944,Młynka ul. Kalwaryjska
1441,Młynka Pętla,50.111924166,19.692382222,Młynka ul. Kalwaryjska
1442,Modlniczka Poligon,50.115375277,19.867802777,Modlniczka ul. Krakowska
1443,Modlniczka Willowa,50.1153925,19.856962222,Modlniczka ul. Krakowska
1444,Modlniczka Dworska,50.119921666,19.854598888,Modlniczka pl. Norbertanek
1445,Modlniczka Centrum Logistyczne,50.114315277,19.840868333,Modlniczka ul. Komandosów
1446,Komuny Paryskiej 02,50.006795555,19.897117777,Zawiła
1447,Zawiła 02,50.006397222,19.901194444,Zawiła
1448,Las Borkowski 02,50.007980277,19.906577777,Zawiła
1449,Cmentarz Borek Fałęcki 02,50.008723611,19.914952222,Zawiła
1450,Góra Borkowska 05,50.007084722,19.925673888,Jugowicka
1451,Jugowicka 01,50.0074625,19.930281388,Jugowicka
1452,Myślenicka 04,50.005621111,19.945413611,Stojałowskiego
1453,Bujaka 01,50.010339444,19.948842777,Halszki
1454,Kurdwanów P+R 05,50.013670277,19.9505725,Witosa
1455,Witosa 03,50.0124275,19.9571375,Witosa
1456,Nowosądecka 05,50.013996666,19.966577222,Nowosądecka
1457,Piaski Nowe 03,50.015310555,19.971784444,Nowosądecka
1458,Dauna 03,50.019297222,19.977754722,Nowosądecka
1459,Bieżanowska 06,50.023906944,19.978963055,Nowosądecka
1460,Dauna 04,50.018551111,19.977294722,Nowosądecka
1461,Piaski Nowe 04,50.015315277,19.970051388,Nowosądecka
1462,Nowosądecka 04,50.013781388,19.964683611,Witosa
1463,Witosa 04,50.012821388,19.955670277,Witosa
1464,Kurdwanów P+R 02,50.013536111,19.949672222,Halszki
1465,Bujaka 02,50.009641388,19.948417222,Halszki
1466,Halszki 03,50.005808611,19.947651388,Stojałowskiego
1467,Myślenicka 01,50.005774444,19.9437225,Podmokła
1468,Jugowicka 02,50.0075075,19.930713055,Jugowicka
1469,Borek Fałęcki 05,50.011626666,19.926668611,Orzechowa
1470,Góra Borkowska 01,50.007407777,19.924550833,Zawiła
1471,Cmentarz Borek Fałęcki 01,50.009535,19.913702777,Zawiła
1472,Las Borkowski 01,50.008524444,19.907132777,Zawiła
1473,Zawiła 01,50.006506111,19.900934166,Zawiła
1474,Komuny Paryskiej 01,50.007234166,19.896398611,Zawiła
1475,Armii Krajowej 02,50.071944166,19.890860277,Armii Krajowej
1476,Mydlniki Wapiennik P+R 01,50.09085,19.840258888,Brzezińskiego
1477,Armii Krajowej 01,50.071698333,19.890901666,Armii Krajowej
1478,Cogiteon 01,50.08675,19.98627,al. Bora-Komorowskiego
1479,Pleszowska 02,50.09189,19.93509,Opolska
1480,Sosabowskiego 02,50.09153,19.93041,Opolska
1481,Opolska Kładka 02,50.09159,19.92716,Opolska
1482,Mehoffera 02,50.0896,19.91265,Opolska
1483,Conrada 02,50.0886,19.89843,Conrada
1484,Lindego 03,50.08004,19.87063,Lindego
1485,Bronowice Małe 03,50.07953,19.88024,Na Błonie
1486,Rondo Ofiar Katynia 01,50.087308888,19.892780277,Conrada
1487,Conrada 01,50.08857,19.900115,Conrada
1488,Mehoffera 01,50.08934,19.91377,Opolska
1489,Opolska Kładka 01,50.09129,19.92713,Opolska
1490,Sosabowskiego 01,50.09123,19.93235,Opolska
1491,Pleszowska 01,50.09158,19.93656,Opolska
1492,Olsza II 74,50.08492,19.97208,al. Bora-Komorowskiego
1493,Cogiteon 02,50.08641,19.9862,al. Bora-Komorowskiego
1494,Os. Na Lotnisku 03,50.08564,20.01412,al. Andersa
1495,Nowy Prokocim 03,50.016024722,20.011548055,Teligi
1496,Teligi 03,50.016618888,20.006629166,Teligi
1497,Malborska 02,50.026502222,19.973354722,Kamieńskiego
1498,Makowa 02,50.027352222,19.965973611,Kamieńskiego
1499,Bonarka 02,50.029813055,19.953476944,Kamieńskiego
1500,Kamieńskiego Wiadukt 02,50.031956666,19.948416944,Kamieńskiego
1501,Ludwinów 02,50.043267777,19.935156111,Konopnickiej
1502,Ludwinów 01,50.043236388,19.934745,Konopnickiej
1503,Kamieńskiego Wiadukt 01,50.0311075,19.949136666,Kamieńskiego
1504,Bonarka 01,50.028766111,19.954010833,Kamieńskiego
1505,Makowa 01,50.027071666,19.966611388,Kamieńskiego
1506,Malborska 03,50.026035833,19.974830833,Kamieńskiego
1507,Prokocim Szpital 04,50.014224444,20.000125,Teligi
1508,Teligi 04,50.016539166,20.006314722,Teligi
1509,Nowy Prokocim 04,50.015907222,20.011751666,Teligi
1510,Petőfiego 02,50.094166388,20.035555,Petőfiego
1511,Struga 04,50.075031388,20.047553888,al. Solidarności
1512,Orkana 01,50.073245,20.050270277,Orkana
1513,Os. Willowe 02,50.072244166,20.053741944,Bulwarowa
1514,Klasztorna 04,50.068810555,20.051892222,al. Jana Pawła II
1515,Os. Na Skarpie 04,50.069701111,20.046958611,al. Jana Pawła II
1516,Pilotów 02,50.077914166,19.970264444,Pilotów
1517,Brodowicza 02,50.06908,19.96111,Brodowicza
1518,Brodowicza 01,50.07023,19.96285,Brodowicza
1519,Aleja Przyjaźni 02,50.075510555,20.0344225,al. Przyjaźni
1520,Plac Centralny im. R.Reagana 07,50.071100833,20.038640555,al. Jana Pawła II
1521,Os. Na Skarpie 03,50.069547222,20.046205277,al. Jana Pawła II
1522,Klasztorna 03,50.068817222,20.050263888,al. Jana Pawła II
1523,Os. Willowe 04,50.072756388,20.053407222,Orkana
1525,Petőfiego 01,50.094161666,20.035337777,Petőfiego
1526,Mistrzejowice 05,50.095890833,19.996135833,Jancarza
1527,Marycjusza 02,50.0982275,20.025448611,Marycjusza
1528,Zalew Zesławice 02,50.104173888,20.033118055,Morcinka
1529,Zesławice 02,50.106190555,20.043758888,Morcinka
1530,Zesławice Ogródki Działkowe 02,50.105654444,20.049674444,Morcinka
1531,Kantorowice 02,50.104153055,20.061786111,Morcinka
1532,Zakole 01,50.108810833,20.053120277,Kantorowicka
1533,Kantorowice 01,50.1042225,20.061821666,Morcinka
1534,Zesławice Ogródki Działkowe 01,50.105922777,20.048733055,Morcinka
1535,Zesławice 01,50.106253611,20.043878055,Morcinka
1536,Zalew Zesławice 01,50.104238055,20.033089722,Morcinka
1537,Marycjusza 01,50.098463333,20.025136111,Mistrzejowicka
1538,Kleeberga 05,50.09619,20.01419,Kruszwicka
1539,Niepołomice Kolejowa,50.043844166,20.2123125,Niepołomice ul. Kolejowa
1540,Niepołomice Batorego,50.040796111,20.223516944,Niepołomice ul. Batorego
1541,Niepołomice Grobla,50.042097777,20.229818055,Niepołomice ul. Batorego
1542,Niepołomice Jazy,50.043625833,20.2400775,Niepołomice ul. Zabierzowska
1543,Niepołomice Słoneczna,50.046758888,20.246165277,Niepołomice ul. Zabierzowska
1544,Wola Batorska Ruskie,50.053238055,20.259092777,Wola Batorska
1545,Wola Batorska Żwirownia,50.052432777,20.267372777,Wola Batorska
1546,Wola Batorska Kościół,50.052961944,20.277163611,Wola Batorska
1547,Wola Batorska Cmentarz,50.052575555,20.290766666,Wola Batorska
1548,Wola Batorska Borek,50.054480833,20.296809444,Wola Batorska
1549,Wola Batorska Mikoniowiec,50.058838611,20.298848611,Wola Batorska
1550,Wola Batorska Zamoglice,50.064300277,20.302278055,Wola Batorska
1551,Zabierzów Bocheński Centrum,50.067754722,20.318955833,Zabierzów Bocheński
1552,Wola Zabierzowska Chałupki,50.070179722,20.334790277,Wola Zabierzowska
1553,Chobot Kapliczka,50.073618888,20.347514444,Chobot
1554,Chobot Leśniczówka,50.080205555,20.352612222,Chobot
1555,Wolica Most 01,50.051725277,20.207439166,Brzeska
1556,Wolica Kościół 02,50.055009722,20.2023775,Drożyska
1557,Wolica Szkoła 02,50.055857777,20.193374444,Drożyska
1558,Bartnicza 02,50.056690277,20.1869325,Drożyska
1559,Siejówka 02,50.057321388,20.1805375,Drożyska
1560,Przylasek Wyciąski 02,50.059042222,20.176768888,Drożyska
1561,Drożyska 01,50.065088055,20.168318611,Wyciąska
1562,Podstawie 01,50.068779444,20.166985,Wyciąska
1563,Tymiankowa 01,50.069689166,20.162439166,Wyciąska
1564,Wyciąże Sklep 01,50.072271666,20.158387777,Wyciąska
1565,Bielany Klasztor 01,50.04348,19.83093,Księcia Józefa
1566,Bielany 03,50.043294444,19.820682777,Księcia Józefa
1567,Bielany Obwodnica,50.043324444,19.8081825,Kryspinów
1568,Kryspinów Rondo,50.043626111,19.798126666,Kryspinów
1569,Kryspinów Sanka,50.041948055,19.786686388,Kryspinów
1570,Liszki Mazurowa,50.038935555,19.773340555,Liszki ul. Krakowska
1571,Jeziorzany Pętla,49.987069722,19.778519166, 
1572,Jeziorzany Górskie Domy,49.981628333,19.766688055,Jeziorzany
1573,Wołowice Grotowa,49.983763611,19.758980555,Wołowice ul. Skawińska
1574,Wołowice Grotowa Skrzyżowanie,49.984623611,19.754590555,Wołowice ul. Skawińska
1575,Wołowice Zawierzbie,49.981737222,19.745028888,Wołowice ul. Skawińska
1576,Bielany Obwodnica 02,50.041869444,19.811845,Księcia Józefa
1577,Bielany 02,50.04298,19.819320555,Księcia Józefa
1578,Bielany Szkoła 02,50.04408,19.82767,Księcia Józefa
1579,Bielany Klasztor 02,50.04332,19.83123,Księcia Józefa
1580,Liszki Wołowska Droga,50.0310275,19.749321111,Liszki ul. Czernichowska
1581,Rączna Dzikowiec,50.017283055,19.746018055,Rączna
1582,Rączna Podlas,50.012295,19.7451675,Rączna
1583,Rączna Kościół,50.011003055,19.756831111,Rączna
1584,Bronowice 01,50.077246,19.901982, 
1585,Jarzębiny 02,50.092061,20.061073,Kocmyrzowska
1586,Darwina 02,50.089892,20.059126,Kocmyrzowska
1587,Wańkowicza 01,50.086978,20.04756,Kocmyrzowska
1588,Cienista 01,50.08539,20.03852,Kocmyrzowska
1589,Teatr Ludowy 01,50.082264,20.032708,Kocmyrzowska
1590,Rondo Mogilskie 05,50.066002,19.958722,Tunel
1591,Dworzec Główny Tunel 02,50.068258,19.947641,Tunel
1592,Politechnika 03,50.071143,19.945072,Tunel
1593,Krowodrza Górka P+R 03,50.089389,19.93163, 
1594,Dworzec Towarowy 02,50.07592,19.94038, 
1595,Politechnika 04,50.071056,19.945016,Tunel
1596,Dworzec Główny Tunel 01,50.068199,19.947649,Tunel
1597,Rondo Kocmyrzowskie im. Ks. Gorzelanego 03,50.080062,20.028408,Kocmyrzowska
1598,Teatr Ludowy 02,50.081863,20.032035,Kocmyrzowska
1599,Cienista 02,50.08492,20.03772,Kocmyrzowska
1600,Wańkowicza 02,50.086937,20.047608,Kocmyrzowska
1601,Darwina 01,50.089985,20.059244,Kocmyrzowska
1602,Bieżanowska 03,50.023562,19.97926,Nowosądecka
1603,Dauna 01,50.018289,19.977516,Nowosądecka
1604,Piaski Nowe 01,50.015482,19.971574,Nowosądecka
1605,Nowosądecka 01,50.013455,19.964635,Witosa
1606,Witosa 01,50.012338,19.956857,Witosa
1607,Kurdwanów P+R 08,50.01359,19.95044,Witosa
1608,Kurdwanów P+R 10,50.01407,19.94809,Witosa
1609,Turowicza 02,50.01511,19.94435,Trasa Łagiewnicka
1610,Sanktuarium Bożego Miłosierdzia 02,50.01779,19.93633,Trasa Łagiewnicka
1611,Łagiewniki SKA 02,50.022103,19.932601,Zakopiańska
1612,Łagiewniki 05,50.029682,19.935452,Brożka
1613,Brożka 02,50.03053,19.93173,Brożka
1614,Borsucza 02,50.03055,19.929101,Brożka
1615,Borsucza 01,50.030504,19.928538,Brożka
1616,Brożka 01,50.030494,19.931874,Brożka
1617,Łagiewniki 04,50.029498,19.935946,Brożka
1618,Łagiewniki ZUS 01,50.024577,19.933922,Zakopiańska
1619,Łagiewniki SKA 03,50.02111,19.93288,Trasa Łagiewnicka
1620,Sanktuarium Bożego Miłosierdzia 01,50.01777,19.93626,Trasa Łagiewnicka
1621,Turowicza 01,50.01506,19.94439,Trasa Łagiewnicka
1622,Kurdwanów P+R 03,50.01409,19.94783,Witosa
1623,Kurdwanów P+R 01,50.01356,19.95042,Witosa
1624,Witosa 02,50.012424,19.95579,Witosa
1625,Nowosądecka 02,50.013437,19.964684,Witosa
1626,Piaski Nowe 02,50.015447,19.971604,Nowosądecka
1627,Dauna 02,50.018408,19.977585,Nowosądecka
1628,Bieżanowska 04,50.023609,19.979431,Nowosądecka
1629,Mackiewicza 03,50.090679722,19.944044444,Mackiewicza
1630,Clepardia 01,50.094079444,19.945286666,Mackiewicza
1631,Siewna Wiadukt 04,50.096474444,19.947223333,Siewna
1632,Zielonki Galicyjska,50.122156666,19.932343055,Zielonki ul. Galicyjska
1633,Trojanowice Krakowska,50.137018611,19.91296,Trojanowice ul. Krakowska
1634,Trojanowice Pętla,50.140978055,19.910838611, 
1635,Siewna 01,50.098954166,19.94738,Siewna
1636,Siewna Wiadukt 06,50.095858055,19.946498888,Mackiewicza
1637,Clepardia 02,50.093211388,19.944814444,Mackiewicza
1638,Rzozów Szkoła,49.952844166,19.7951175,Rzozów
1640,Krzęcin Sklep,49.941212777,19.750146111,Krzęcin ul. Kalwaryjska
1641,Krzęcin Cmentarz,49.9439975,19.745205277,Krzęcin ul. św. Floriana
1642,Krzęcin Kościół,49.943720555,19.74139,Krzęcin ul. św. Floriana
1643,Krzęcin Kapliczka,49.945501111,19.732935277,Krzęcin ul. Krakowska
1644,Krzęcin Szczęsna,49.947945277,19.730322222,Krzęcin ul. Krakowska
1645,Krzęcin Pętla,49.952702222,19.729412222,Krzęcin ul. Krakowska
1646,Krzęcin Szkoła,49.943812222,19.738990277,Krzęcin ul. św. Floriana
1647,Skawina,49.9684975,19.8298025,Skawina ul. Jana Pawła II
1648,Skawina Ajka,49.971330555,19.829223333,Skawina ul. Popiełuszki
1649,Skawina Popiełuszki,49.974242777,19.830657222,Skawina ul. Popiełuszki
1650,Piasta Kołodzieja 06,50.09808,20.01367,Popielidów
1651,Popielidów 02,50.09945,20.0197,Popielidów
1652,Kruszwicka 01,50.09747,20.01921,Kruszwicka
1653,Łęczycka 01,50.092868333,20.006270555,Wiślicka
1654,Cedyńska 01,50.090283888,20.004309722,Wiślicka
1655,Cichy Kącik 04,50.06301,19.90367,Igrców
1656,Wiślicka 04,50.088159166,20.001520277,Wiślicka
1657,Łęczycka 02,50.092866944,20.006484166,Wiślicka
1658,Kruszwicka 02,50.09774,20.02004,Kruszwicka
1659,Popielidów 01,50.09931,20.01767,Popielidów
1660,Zajezdnia Wola Duchacka 01,50.023863333,19.958632777,Puszkarska
1661,Puszkarska 01,50.027072222,19.948585,Puszkarska
1662,Puszkarska 02,50.026069722,19.949235833,Puszkarska
1663,Podgórze SKA 08,50.041831944,19.962539444,Powstanców Wielkopolskich
1664,Kuklińskiego 03,50.045343055,19.9747175,Nowohucka
1665,Zajezdnia Płaszów 01,50.035260555,20.011705833,Biskupińska
1666,Biskupińska 02,50.03619,20.013769444,Obrońców Modlina
1667,Botewa 04,50.038426388,20.026868888,Rybitwy
1668,Rybitwy Sklep 02,50.041566666,20.028694444,Rybitwy
1669,Rybitwy Dom Kultury 02,50.042833888,20.035687777,Rybitwy
1670,Rybitwy Rozjazd 02,50.046097777,20.044234722,Rybitwy
1671,Szparagowa 04,50.043289722,20.045618611,Rączna
1672,Ks.Targosza 02,50.042790555,20.052462777,Rączna
1673,Przewóz 02,50.041851388,20.063220833,Wrobela
1674,Husarska 02,50.044549444,20.06625,Wrobela
1675,Wrobela 02,50.047584722,20.066327222,Wrobela
1676,Podwierzbie 01,50.047624722,20.05997,Wrobela
1677,Wrobela 01,50.047367777,20.065761388,Wrobela
1678,Husarska 01,50.043716666,20.065616388,Wrobela
1679,Przewóz 01,50.041808333,20.061388611,Rączna
1680,Ks.Targosza 01,50.042738611,20.053226944,Rączna
1681,Szparagowa 06,50.04441,20.045253055,Szparagowa
1682,Rybitwy Rozjazd 01,50.046086666,20.043808055,Rybitwy
1683,Rybitwy Dom Kultury 01,50.042679444,20.035150277,Rybitwy
1684,Rybitwy Sklep 01,50.041524722,20.028321111,Rybitwy
1685,Albatrosów 06,50.037341944,20.018201111,Brandla
1686,Biskupińska 01,50.036304722,20.013541388,Obrońców Modlina
1687,Stoczniowców 02,50.048756944,19.981015277,Nowohucka
1688,Kuklińskiego 05,50.044956944,19.972054444,Powstanców Wielkopolskich
1689,Kocmyrzów Rondo,50.133731944,20.114206944,Kocmyrzów ul. Centralna
1690,Kocmyrzów Krzyżówka,50.133575,20.125917777,Kocmyrzów ul. Centralna
1691,Kocmyrzów Biblioteka,50.130398611,20.130112777,Kocmyrzów ul. Centralna
1692,Kocmyrzów Sodfiny,50.129928333,20.137105555,Kocmyrzów ul. Centralna
1693,Głęboka Kolonia,50.132150833,20.144478055,Sodfiny
1694,Głęboka Staw,50.133114444,20.149221666,Głęboka
1695,Głęboka Zakręt,50.128088888,20.15451,Głęboka
1696,Karniów Szkoła,50.131451666,20.171100833, 
1697,Pleszów 01,50.072893,20.11689,Igołomska
1698,Koksochemia 02,50.071926,20.104459,Igołomska
1699,Meksyk 02,50.069892,20.095243,Igołomska
1700,Brama nr 5 02,50.069071,20.091584,Igołomska
1701,Giedroycia 02,50.06473,20.08479,Igołomska
1702,Brama nr 4 02,50.064899,20.075212,Igołomska
1703,Fort Mogiła 02,50.066394,20.071325,Igołomska
1704,Bardosa 02,50.067772,20.064912,Ptaszyckiego
1705,Suche Stawy 02,50.067515,20.059695,Ptaszyckiego
1706,Klasztorna 02,50.068478,20.053009,al. Jana Pawła II
1707,Os. Na Skarpie 02,50.069704,20.046218,al. Jana Pawła II
1708,Smolki 01,50.041496,19.943119,Kalwaryjska
1709,Rondo Matecznego 01,50.036959,19.940795,Kalwaryjska
1710,Rzemieślnicza 01,50.033644,19.938697,Wadowicka
1711,Łagiewniki 01,50.030477,19.936964,Wadowicka
1712,Łagiewniki 02,50.030486,19.937053,Wadowicka
1713,Rzemieślnicza 02,50.03295,19.938389,Wadowicka
1714,Rondo Matecznego 02,50.035927,19.940363,Wadowicka
1715,Smolki 02,50.041629,19.943262,Kalwaryjska
1716,Korona 01,50.043604,19.946683,Kalwaryjska
1717,Poczta Główna 03,50.059339,19.941821,Św. Gertrudy
1718,Plac Centralny im. R.Reagana 04,50.071283,20.038494,al. Jana Pawła II
1719,Os. Na Skarpie 01,50.069813,20.045465,al. Jana Pawła II
1720,Klasztorna 01,50.068607,20.052165,al. Jana Pawła II
1721,Suche Stawy 01,50.067467,20.060033,Ptaszyckiego
1722,Bardosa 01,50.067743,20.064949,Ptaszyckiego
1723,Fort Mogiła 01,50.066659,20.070794,Igołomska
1724,Brama nr 4 01,50.064955,20.074756,Igołomska
1725,Giedroycia 01,50.06462,20.08447,Igołomska
1726,Brama nr 5 01,50.069176,20.09178,Igołomska
1727,Meksyk 01,50.069815,20.09469,Igołomska
1728,Koksochemia 01,50.071926,20.104695,Igołomska
1729,Elektromontaż 02,50.087727,20.064095,Łowińskiego
1730,Grodzki Urząd Pracy 02,50.0874,20.0597,Łowińskiego
1731,Grodzki Urząd Pracy 01,50.0873,20.0596,Łowińskiego
1732,Miśnieńska 02,50.094406,20.000154,Jancarza
1733,Os. Złotego Wieku 02,50.093667,20.004478,Jancarza
1734,Rondo Piastowskie 02,50.094355,20.011302,Srebrnych Orłów
1735,Rondo Piastowskie 01,50.094372,20.011221,Srebrnych Orłów
1736,Os. Złotego Wieku 01,50.093749,20.004333,Jancarza
1737,Luborzyca Szkoła,50.143976944,20.10837,Luborzyca ul. św. Królowej Jadwigi
1738,Luborzyca,50.146426111,20.109266111,Wysiołek Luborzycki
1739,Wola Luborzycka Działki,50.154678611,20.115788888,Wola Luborzycka
1740,Wola Luborzycka Skrzyżowanie,50.160360277,20.117043333,Wola Luborzycka
1741,Wola Luborzycka Las,50.164554444,20.119128611,Wola Luborzycka
1742,Goszyce Pod Lasem,50.171495,20.125273055,Goszyce ul. Kościuszki
1743,Goszyce Remiza,50.179256666,20.132651666,Goszyce ul. Kościuszki
1744,Skrzeszowice OSP Boisko,50.188729444,20.144854444,Skrzeszowice ul. Krakowska
1745,Łososkowice Szkoła,50.190568055,20.156543333,Łososkowice
1746,Łososkowice Remiza,50.1876875,20.160179444,Łososkowice
1747,Wysiołek Luborzycki Skrzyżowanie,50.1518025,20.105112222,Wysiołek Luborzycki ul. Krakowska
1748,Wysiołek Luborzycki Kapkazy,50.154876944,20.099774444,Wysiołek Luborzycki ul. Krakowska
1749,Łuczyce Las,50.159234444,20.092256666,Łuczyce ul. Krakowska
1750,Łuczyce Kosynierów,50.160359166,20.084675,Łuczyce ul. Krakowska
1751,Łuczyce Zjawienie,50.164681666,20.075208055,Łuczyce ul. Krakowska
1752,Łuczyce Zwierzyniec,50.170098888,20.069213055,Łuczyce ul. Sadowa
1753,Sadowie Wiadukt,50.176051111,20.066724166,Sadowie ul. Centralna
1754,Goszcza Cmentarz,50.1821425,20.068641944,Sadowie ul. Szkolna
1755,Goszcza Dworek,50.1868,20.0699,Goszcza ul. Langiewicza
1756,Goszcza Kościół,50.184876666,20.073835833,Goszcza ul. Langiewicza
1760,Os. Kurdwanów 02,50.004407777,19.960347222,Stojałowskiego
1761,Stojałowskiego 01,50.005258055,19.954741111,Stojałowskiego
1762,Halszki 01,50.005631111,19.949589166,Stojałowskiego
1763,Kurdwanów P+R 04,50.014786944,19.950199722,Beskidzka
1764,Beskidzka 02,50.01837,19.951585555,Beskidzka
1765,Pszenna 01,50.020203611,19.956447777,Klonowica
1766,Zajezdnia Wola Duchacka 03,50.024250833,19.960538055,Sławka
1767,Sławka 01,50.026469722,19.959794722,Sławka
1768,Stoczniowców 01,50.049677222,19.983405,Nowohucka
1769,Koszykarska 01,50.052572222,19.989904166,Nowohucka
1770,Arctowskiego 01,50.056984722,20.001714444,Nowohucka
1771,Centralna 01,50.064047222,20.004055555,Nowohucka
1772,Bulwarowa Ogródki Działkowe 01,50.071160555,20.053534166,Bulwarowa
1775,Centralna 02,50.063087222,20.003533611,Nowohucka
1776,Arctowskiego 02,50.056461666,20.000383611,Nowohucka
1777,Koszykarska 02,50.052494166,19.988930833,Nowohucka
1778,Podgórze SKA 05,50.042475555,19.962435555,Powstanców Wielkopolskich
1779,Sławka 02,50.025699444,19.960035277,Sławka
1780,Pszenna 02,50.0202725,19.955678611,Klonowica
1781,Beskidzka 01,50.018673611,19.951652777,Beskidzka
1782,Halszki 02,50.005513611,19.948951666,Stojałowskiego
1783,Stojałowskiego 02,50.005038055,19.956045555,Stojałowskiego
1784,Lubocza Szkoła 04,50.095710555,20.093715,Łuczanowicka
1785,Grzegorza z Sanoka 02,50.098109166,20.092693611,Łuczanowicka
1786,Łuczanowicka 02,50.100580277,20.096363333,Łuczanowicka
1787,Orłowskiego 02,50.107838333,20.106910833,Łuczanowicka
1788,Orłowskiego 01,50.108136944,20.107768333,Łuczanowicka
1789,Łuczanowicka 01,50.101436111,20.098001944,Łuczanowicka
1790,Grzegorza z Sanoka 01,50.098491666,20.092481944,Łuczanowicka
1791,Os. Przewóz 02,50.043338333,19.993233333, 
1792,Myśliwska 01,50.0450525,19.997808055,Myśliwska
1793,Lasówka 01,50.0495225,19.996164166,Koszykarska
1794,Arctowskiego 04,50.056347222,20.0013725,Ciepłownicza
1795,Galicyjska 01,50.058664166,20.007613055,Galicyjska
1796,ZDMK 01,50.063703888,20.0089525,Centralna
1797,Sołtysowska 04,50.065443055,20.010319722,Centralna
1798,ZDMK 02,50.063771944,20.008339166,Centralna
1799,Galicyjska 02,50.0581,20.0065,Galicyjska
1800,Koszykarska 03,50.051711666,19.99006,Koszykarska
1801,Lasówka 02,50.049224722,19.996503055,Koszykarska
1802,Myśliwska 02,50.045171666,19.996701666,Myśliwska
1803,Os. Przewóz 01,50.042746944,19.992991111, 
1804,Szpital Okulistyczny 02,50.099430833,20.064068888,Osieckiego
1805,Krasnowolskiego 02,50.085298888,20.049221944,Wańkowicza
1806,PCK 02,50.083938055,20.054630277,Wańkowicza
1807,Krzesławice Młyn 02,50.080528611,20.056791111,Wańkowicza
1808,Fort Mogiła 04,50.0651075,20.070494722,Ptaszyckiego
1809,Giedroycia 06,50.062303611,20.081586666,Giedroycia
1810,Giedroycia ZTPO 02,50.059355277,20.078391111,Giedroycia
1811,Kępa 02,50.055700555,20.065996388,Podbipięty
1812,Zakarnie 02,50.053038611,20.062456944,Podbipięty
1813,Zakarnie 01,50.052986388,20.061945833,Podbipięty
1814,Kępa 01,50.055257777,20.0657125,Podbipięty
1815,Giedroycia ZTPO 01,50.059252777,20.078052222,Giedroycia
1816,Giedroycia 03,50.064445277,20.080900555,Igołomska
1817,Fort Mogiła 03,50.065299166,20.070766944,Ptaszyckiego
1818,Krzesławice Młyn 01,50.079914166,20.056924444,Wańkowicza
1819,PCK 01,50.084342777,20.0542375,Wańkowicza
1820,Krasnowolskiego 01,50.085391944,20.049101944,Wańkowicza
1821,Wańkowicza 06,50.086596388,20.047306944,Wańkowicza
1822,Wyciąska 02,50.077008055,20.156573055,Igołomska
1823,Wyciąże Północ 02,50.077909166,20.164183611,Igołomska
1824,Czeczeńska 02,50.079195833,20.175343611,Igołomska
1825,Cło 02,50.079771944,20.186264722,Brzeska
1826,Szlifierska 02,50.072578611,20.189660833,Brzeska
1827,Zakępie 02,50.067792777,20.189638888,Brzeska
1828,Ks. Luzara 02,50.062563055,20.194728888,Brzeska
1829,Betonowa 02,50.055731666,20.202615277,Brzeska
1830,Poronińska 02,49.986973055,19.916797222,Poronińska
1831,Opatkowice Zadworze 02,49.984902777,19.919500833,Smoleńskiego
1832,Smoleńskiego 02,49.981552777,19.919683888,Smoleńskiego
1833,Opatkowice Zadworze 01,49.985151666,19.919460277,Smoleńskiego
1834,Poronińska 01,49.986941388,19.918246944,Poronińska
1835,Węgrzce Centrum,50.119915833,19.9745825,Węgrzce ul. A4
1836,Węgrzce Błonie,50.125946388,19.974920833,Węgrzce ul. C1
1837,Węgrzce Pętla,50.128736388,19.9747425, 
1838,Kolna 03,50.025316388,19.832631944,Kolna
1839,Tor Kajakowy 02,50.032568611,19.829195555,Kolna
1840,Kolna Kapliczka 02,50.028801388,19.830184166,Kolna
1841,Janasówka 02,49.999570555,19.817811388,Bogucianka
1842,Skawina Podgórki,49.996763055,19.818644166,Skawina ul. Tyniecka
1843,Skawina Tyniecka Rzepnik,49.991254722,19.813415833,Skawina ul. Tyniecka
1844,Skawina Wojska Polskiego,49.9868275,19.814291388,Skawina ul. Wojska Polskiego
1845,Skawina Samborek Most,49.988842222,19.810982222,Skawina ul. Piastowska
1846,Skawina Piastowska,49.987485555,19.8083875,Skawina ul. Piastowska
1847,Skawina Żwirowa,49.985583055,19.804450555,Skawina ul. Żwirowa
1848,Skawina Żwirownia,49.982409722,19.807853333,Skawina ul. Energetyków
1849,Skawina Tyniecka,49.984315,19.816499722,Skawina ul. Tyniecka
1850,Skawina Tyniecka Osiedle,49.978015833,19.8200325,Skawina ul. Tyniecka
1851,Janasówka 01,49.999973333,19.817519166,Bogucianka
1852,Rondo Grzegórzeckie 02,50.057558,19.957748,Grzegórzecka
1853,Hala Targowa 02,50.058678,19.948657,Grzegórzecka
1854,Starowiślna 04,50.057262,19.946032,Dietla
1855,Jubilat 01,50.055498,19.928109,Zwierzyniecka
1856,Komorowskiego 01,50.053451,19.921873,Kościuszki
1857,Salwator 03,50.05263,19.917407,Kościuszki
1858,Salwator 01,50.052708,19.913739, 
1859,Jubilat 02,50.054999,19.927052,Kościuszki
1860,Filharmonia 02,50.058666,19.933001,Zwierzyniecka
1861,Starowiślna 03,50.057227,19.946086,Dietla
1862,Hala Targowa 01,50.058639,19.948875,Grzegórzecka
1863,Plac Bohaterów Getta 02,50.046716,19.9551,Na Zjeździe
1864,św. Wawrzyńca 02,50.051415,19.950829,Starowiślna
1865,Miodowa 02,50.05321,19.9489,Starowiślna
1866,Miodowa 01,50.053886,19.948108,Starowiślna
1867,św. Wawrzyńca 01,50.051131,19.951064,Starowiślna
1868,Plac Bohaterów Getta 01,50.046605,19.955028,Na Zjeździe
1869,Dworzec Główny Zachód 02,50.067827,19.945408,Pawia
1870,Politechnika 02,50.070807,19.945062,Pawia
1871,Dworzec Główny Zachód 01,50.06783,19.945354,Pawia
1872,Teatr Słowackiego 04,50.065006,19.94518,Pawia
1873,Sawiczewskich 01,49.989627222,19.945401944,Myślenicka
1874,Wróblowice Szkoła 01,49.9839875,19.9446275,Myślenicka
1875,Wróblowice 06,49.979315833,19.944356388,Krzyżańskiego
1876,Ukraina 02,49.975728888,19.945863888,Krzyżańskiego
1877,Zbydniowice 02,49.972411666,19.947124166,Krzyżańskiego
1878,Wrząsowice Spacerowa,49.969438055,19.945921111,Wrząsowice ul. Wrzosowa
1879,Wrząsowice Wrzosowa,49.963429444,19.9458725,Wrząsowice ul. Wrzosowa
1880,Wrząsowice Centrum,49.959903055,19.943977222,Wrząsowice ul. Wrzosowa
1881,Wrząsowice Pileckiego,49.957375,19.946185,Wrząsowice ul. Pileckiego
1882,Wrząsowice Kowaleca,49.954304444,19.945561111,Wrząsowice ul. Pileckiego
1883,Wrząsowice Bonifraterska,49.948411666,19.946875277,Wrząsowice ul. Zielona
1884,Wrząsowice Zielona,49.942431388,19.943453055,Konary ul. Zielona
1885,Świątniki Górne Krakowska,49.938410277,19.943275,Świątniki Górne ul. Krakowska
1886,Świątniki Górne Urząd Miasta i Gminy,49.934259722,19.946638333,Świątniki Górne ul. Bruchnalskiego
1887,Świątniki Górne Centrum,49.934366111,19.954023888,Świątniki Górne ul. Bielowicza
1888,Świątniki Górne Bielowicza Szkoła,49.935098333,19.962189722,Świątniki Górne ul. Bielowicza
1889,Świątniki Górne Skrzyżowanie,49.934275,19.966900555,Świątniki Górne ul. Bielowicza
1890,Świątniki Górne Piasna Górka,49.931928888,19.973748611,Rzeszotary ul. Piasna Górka
1891,Rzeszotary Zalesie,49.931555833,19.981395555,Rzeszotary ul. Galicyjska
1892,Rzeszotary Panciawa,49.932216944,19.994413333,Rzeszotary ul. Panciawa
1893,Rzeszotary Panciawa Pętla,49.934846388,19.999378055,Rzeszotary ul. Panciawa
1894,Zbydniowice 03,49.973237777,19.947221388,Krzyżańskiego
1895,Ukraina 01,49.975349166,19.9464525,Krzyżańskiego
1896,Wróblowice 02,49.980611111,19.944398888,Myślenicka
1897,Wróblowice Szkoła 02,49.984554444,19.944540555,Myślenicka
1898,Kaszów Wielka Droga,50.025128611,19.736271666,Kaszów
1899,Kaszów Szkoła nr 2,50.0218675,19.729056666,Kaszów
1900,Kaszów Wyźrał,50.015959444,19.719039166,Kaszów
1901,Zagacie Witkówki,50.004083888,19.702026944,Zagacie ul. Jana III Sobieskiego
1902,Zagacie Górka,49.999875277,19.696725555,Zagacie ul. Jana III Sobieskiego
1903,Czernichów Ratanice Most,49.995303611,19.657391666,Czernichów ul. Wadowicka
1904,Czernichów Ratanice,49.996979444,19.650666944,Czernichów ul. Wadowicka
1905,Kłokoczyn Szkoła,49.994995555,19.639677222,Kłokoczyn ul. Czernichowska
1906,Kłokoczyn Machaczki,49.996403333,19.632448055,Kłokoczyn ul. Czernichowska
1907,Rusocice Łęg,49.995385277,19.618266388,Rusocice ul. Krakowska
1908,Rusocice Załęg,49.997801111,19.617061944,Rusocice ul. Załęg
1909,Rusocice Wieś,50.001152777,19.612977222,Rusocice ul. Załęg
1910,Rusocice Skład,49.9951225,19.606263333,Rusocice ul. Krakowska
1911,Rusocice Na Brzegu,49.99982,19.601890277,Rusocice ul. Krakowska
1912,Rusocice Jałowce,50.0020525,19.591515277,Rusocice ul. Krakowska
1913,Rusocice Granica,50.005246111,19.58803,Rusocice ul. Krakowska
1914,Kamień Remiza,50.008573333,19.583788055,Kamień ul. Piaski
1915,Kamień Szkoła,50.014953055,19.586690833,Kamień Pl. Wolnica
1916,Złocień 01,50.021874166,20.051241944,Domagały
1917,Złocień 02,50.022772222,20.051192777,Domagały
1918,Domagały Magazyny 02,50.029083333,20.051756666,Domagały
1919,Domagały 01,50.033033055,20.051090277,Nad Drwiną
1920,Bazarowa 02,50.034125,20.042288888,Półłanki
1921,Saska 01,50.044427777,19.983535555,Saska
1922,Lipska 05,50.040839444,19.982450555,Kuklińskiego
1923,Gromadzka 03,50.040824722,19.976899722,Kuklińskiego
1924,Kuklińskiego 04,50.045658611,19.973176944,Klimeckiego
1925,Klimeckiego 05,50.049159166,19.967668333,Herlinga-Grudzińskiego
1926,Most Kotlarski 01,50.051057222,19.962198333,Herlinga-Grudzińskiego
1927,Klimeckiego 03,50.048338055,19.968419722,Klimeckiego
1928,Kuklińskiego 06,50.044466944,19.9732475,Kuklińskiego
1929,Gromadzka 04,50.040498611,19.9770425,Kuklińskiego
1930,Lipska 04,50.0412875,19.983468888,Saska
1931,Półłanki 03,50.038029166,20.042381666,Półłanki
1932,Bazarowa 01,50.034394722,20.042146666,Półłanki
1933,Domagały 03,50.032426111,20.051826388,Domagały
1934,Domagały Magazyny 01,50.028118611,20.051521944,Domagały
1935,Szpital Rydygiera 01,50.09263,20.02165,Łopackiego
1936,Os. Wandy 02,50.069391388,20.04866,al. Jana Pawła II
1937,Os. Na Skarpie 05,50.068514166,20.0451875,Zachemskiego
1938,Szpital Żeromskiego 01,50.066389722,20.046919722,Sieroszewskiego
1939,Sieroszewskiego 01,50.066071388,20.051162222,Sieroszewskiego
1940,Klasztor Cystersów 02,50.065289166,20.052043333,Klasztorna
1941,Stare Wiślisko 02,50.059336111,20.050221388,Klasztorna
1942,Lasek Mogilski 02,50.054315277,20.049453333,Klasztorna
1943,Szparagowa 01,50.043102222,20.045165,Półłanki
1944,Złocień 03,50.02232,20.05014,Agatowa
1945,Agatowa 01,50.02191,20.04267,Agatowa
1946,Bieżanów Pomnik 01,50.01824,20.03316,Bieżanowska
1947,Duża Góra 01,50.01819,20.0275,Bieżanowska
1948,Bieżanów Szkoła 04,50.0186,20.02467,Barbary
1949,Nowy Bieżanów P+R 03,50.015234722,20.023139166,Ćwiklińskiej
1950,Ćwiklińskiej 03,50.016101111,20.018785,Ćwiklińskiej
1951,Prokocim Szpital 03,50.0150625,20.001265833,Teligi
1952,Ćwiklińskiej 04,50.015556944,20.020349166,Ćwiklińskiej
1953,Nowy Bieżanów P+R 02,50.014974444,20.023512777,Ćwiklińskiej
1954,Korepty 01,50.01555,20.0284,Mała Góra
1955,Duża Góra 02,50.018,20.02831,Bieżanowska
1956,Bieżanów Pomnik 02,50.01837,20.03514,Bieżanowska
1957,Agatowa 02,50.02176,20.04303,Agatowa
1958,Półłanki 02,50.039140555,20.043200277,Półłanki
1959,Szparagowa 02,50.044420833,20.046049722,Półłanki
1960,Lasek Mogilski 01,50.055518888,20.049661944,Klasztorna
1961,Stare Wiślisko 01,50.059207222,20.050318333,Klasztorna
1962,Klasztor Cystersów 01,50.064178611,20.052210277,Klasztorna
1963,Sieroszewskiego 02,50.066132777,20.051505277,Sieroszewskiego
1964,Szpital Żeromskiego 02,50.066548055,20.046581944,Sieroszewskiego
1966,Dąbrowskiej 01,50.07814,20.01489,Dąbrowskiej
1967,Os. Kościuszkowskie 01,50.08263,20.01681,Dąbrowskiej
1968,Os. Kościuszkowskie 02,50.08279,20.01648,Dąbrowskiej
1969,Dąbrowskiej 02,50.07814,20.01441,Dąbrowskiej
1970,Widłakowa 02,50.037440277,19.877163611,Widłakowa
1971,Bodzowska 02,50.041266666,19.872472777,Widłakowa
1972,Bodzów 02,50.038667777,19.867614166,Wielkanocna
1973,Bodzowska 01,50.041147222,19.872429166,Widłakowa
1974,Widłakowa 01,50.037338888,19.876928611,Widłakowa
1976,Kostrze OSP 02,50.028695555,19.852136388,Dąbrowa
1977,Ślaskiego 02,50.025469722,19.850583055,Dąbrowa
1978,Dąbrowa 02,50.023314722,19.847349722,Dąbrowa
1979,Kostrze 02,50.018958055,19.842551111,Dąbrowa
1980,Bagienna 01,50.010176666,19.840899444,Podgórki Tynieckie
1981,Bagienna 02,50.009746111,19.841222222,Podgórki Tynieckie
1982,Kostrze 01,50.018918055,19.842980277,Dąbrowa
1983,Dąbrowa 01,50.024466388,19.848940555,Dąbrowa
1984,Ślaskiego 01,50.025670833,19.851146666,Dąbrowa
1985,Nowy Kleparz 07,50.074169722,19.936373888,Prądnicka
1986,Morawica Krzyżówka,50.080469722,19.749659722,Morawica
1987,Morawica Mostek,50.082783055,19.738836944,Morawica
1988,Chrosna Kapliczka,50.079605,19.729375277,Chrosna
1989,Chrosna Sklep,50.079667222,19.721047777,Chrosna
1990,Chrosna Studnia,50.081384444,19.716254166,Chrosna
1991,Chrosna Pętla,50.082203055,19.709563333,Chrosna
1992,Morawica Centrum,50.074345,19.751048333, 
1993,Jerzmanowice Pod Lasem,50.201787222,19.784844722,Jerzmanowice ul. Jana III Sobieskiego
1994,Jerzmanowice Lepianka,50.209263888,19.772621388,Jerzmanowice ul. Jana III Sobieskiego
1995,Jerzmanowice Centralna,50.218273055,19.756761388,Jerzmanowice ul. Jana III Sobieskiego
1996,Jerzmanowice Ojcowska,50.221859444,19.748425555,Jerzmanowice ul. Jana III Sobieskiego
1997,Gotkowice Wieś,50.224583611,19.736046111,Gotkowice
1998,Przeginia Ostra Góra,50.230611944,19.719817777,Przeginia
1999,Przeginia Skotnica,50.233103611,19.7111275,Przeginia
2000,Przeginia Dom Ludowy,50.236076944,19.699278611,Przeginia
2001,Przeginia Kościół,50.237598611,19.685736944,Przeginia
2002,Sawiczewskich 04,49.989912222,19.946406111,Sawiczewskich
2003,Fort Swoszowice 02,49.989010833,19.955978333,Sawiczewskich
2004,Landaua 02,49.988076111,19.963743333,Kuryłowicza
2005,Rajsko 02,49.986485,19.969675,Kuryłowicza
2006,Geologów 02,49.985359722,19.977622222,Kuryłowicza
2007,Malinowskiego 02,49.984194166,19.982993611,Kuryłowicza
2008,Soboniowice 02,49.979085833,19.988733055,Drużbackiej
2009,Pod Lipą 02,49.975267222,19.986542777,Drużbackiej
2010,Golkowice Sklep,49.973000833,19.987650555,Golkowice
2011,Grabówki Pętla,49.973741666,20.000553333, 
2012,Podstolice Zamłynie,49.964754722,19.999651388, 
2013,Podstolice Centrum,49.958451111,19.997687222, 
2014,Golkowice Granica,49.973679722,19.994827222, 
2015,Pod Lipą 01,49.97542,19.986636111,Drużbackiej
2016,Soboniowice 03,49.979919722,19.989823611,Drużbackiej
2017,Malinowskiego 01,49.984029722,19.984153055,Kuryłowicza
2018,Geologów 01,49.985027222,19.978776666,Kuryłowicza
2019,Rajsko 01,49.987421666,19.9684875,Kuryłowicza
2020,Landaua 01,49.98842,19.962275833,Sawiczewskich
2021,Fort Swoszowice 01,49.989056388,19.956248611,Sawiczewskich
2022,Aleja Przyjaźni 05,50.075341111,20.034581388,al. Przyjaźni
2023,Uniwersytet Ekonomiczny 01,50.067608,19.952235,Rakowicka
2024,Muzeum Fotografii 01,50.070486,19.954281,Rakowicka
2025,Cmentarz Rakowicki 01,50.074262,19.957387,Rakowicka
2026,Cmentarz Rakowicki 02,50.072948,19.956041,Rakowicka
2027,Muzeum Fotografii 02,50.070982,19.954592,Rakowicka
2028,Uniwersytet Ekonomiczny 02,50.068328,19.952638,Rakowicka
2029,Lubicz 03,50.065436,19.951621,Rakowicka
2030,Wrząsowice Nad Wilgą,49.9672575,19.953401666,Wrząsowice ul. Nad Wilgą
2031,Wrząsowice Pod Skałą,49.961397777,19.954335555,Wrząsowice ul. Pod Skałą
2032,Ochojno Dąbrówki,49.959359722,19.963316944,Ochojno ul. Jagiellońska
2033,Ochojno Kamieniec,49.957363055,19.970925833,Ochojno ul. Jagiellońska
2034,Ochojno Skrzyżowanie,49.952724166,19.974171666,Ochojno ul. Podhalańska
2035,Rzeszotary Remiza,49.945664444,19.973032222,Rzeszotary Górny Rynek
2036,Rzeszotary Polanki,49.945164444,19.981290833,Rzeszotary ul. Piastowska
2037,Rzeszotary Dworska,49.943518333,19.993310555,Rzeszotary ul. Piastowska
2038,Rzeszotary Tempo,49.941555277,19.989029444,Rzeszotary ul. Zagrody
2039,Rzeszotary Trafo,49.939314722,19.983237222,Rzeszotary ul. Pod Dębiną
2040,Rzeszotary Szkoła,49.938286666,19.974490555,Rzeszotary ul. Pod Dębiną
2041,Rzeszotary Pod Dębiną,49.938459444,19.967888055,Rzeszotary ul. Pod Dębiną
2042,Łukasiewicza 01,50.075265555,19.965461388,Łukasiewicza
2043,Cmentarz Rakowicki 04,50.073678333,19.958529722,al. Beliny-Prażmowskiego
2044,Rondo Mogilskie 09,50.06476,19.95902,al. Powstania Warszawskiego
2045,Starowiślna 08,50.05743,19.94576,Dietla
2046,Cmentarz Rakowicki 03,50.073714444,19.958914444,al. Beliny-Prażmowskiego
2047,Lekarska 03,50.08654,19.93883,Lekarska
2048,Reja 01,50.08447,19.9423,Jaracza
2049,Żabiniec 02,50.08445,19.9471,Żabiniec
2050,Żmujdzka 02,50.08626,19.9476,Żabiniec
2051,Bobrzeckiej 02,50.08857,19.9414,Zdrowa
2052,Wydział Farmaceutyczny UJ 01,50.011895277,19.993097222,Medyczna
2053,Prokocim UJ 02,50.0099075,19.992871944,Kostaneckiego
2054,Madejówka 02,50.014186388,20.028192222,Mała Góra
2055,Cmentarz Bieżanów 02,50.010014166,20.022984722,Łaczka
2056,Ks. Łaczka 01,50.0100975,20.030333888,Łaczka
2057,Bieżanów Drożdżownia SKA 01,50.011510833,20.036815277,Lipowskiego
2058,Drożdżowa 02,50.011919444,20.040419444,Bogucicka
2059,Ślósarczyka 02,50.009577777,20.041684444,Bogucicka
2060,Bieżanów Kaim 02,50.008084166,20.045017222,Stolarza
2061,Bieżanów Potrzask 01,50.0083975,20.052908055,Potrzask
2062,Pruszyńskiego 01,50.013700277,20.04893,Potrzask
2063,Weigla 02,50.012968333,20.043085833,Pruszyńskiego
2064,Jędrzejczyka 01,50.014795555,20.042057222,Weigla
2065,Dwór Czeczów 01,50.015282777,20.040529722,Popiełuszki
2066,Lipowskiego 02,50.015096111,20.037180555,Lipowskiego
2067,Bieżanów Drożdżownia SKA 02,50.011353333,20.0356975,Lipowskiego
2068,Świdzińskiego 01,50.010483888,20.032492222,Łaczka
2069,Ks. Łaczka 02,50.01019,20.027355277,Łaczka
2070,Cmentarz Bieżanów 01,50.011495277,20.024475555,Mała Góra
2071,Madejówka 01,50.013615833,20.028113888,Mała Góra
2072,Prokocim UJ 01,50.010320555,19.992496388,Obronna
2073,Instytut Reumatologii 02,50.057731944,19.913707222,al. Focha
2074,Przegon 02,50.056438611,19.904673611,al. Focha
2075,Panieńskich Skał 01,50.06852,19.86472,Królowej Jadwigi
2076,Grabowa 01,50.06969,19.85929,Królowej Jadwigi
2077,Wilczy Stok 02,50.06823,19.85308,Junacka
2078,Raczkiewicza 02,50.06886,19.8372,Olszanicka
2079,Leśmiana 02,50.06814,19.83212,Olszanicka
2080,Olszanica Kapliczka 02,50.0682,19.82873,Olszanicka
2081,Cmentarz Olszanica 04,50.0677,19.82383,Olszanicka
2082,Olszanica Kapliczka 01,50.06807,19.82789,Olszanicka
2083,Leśmiana 01,50.0682,19.83294,Olszanicka
2084,Raczkiewicza 01,50.06875,19.83763,Olszanicka
2085,Wilczy Stok 01,50.06819,19.85317,Junacka
2086,Grabowa 02,50.06973,19.85891,Królowej Jadwigi
2087,Panieńskich Skał 02,50.0686,19.86358,Królowej Jadwigi
2088,Piastowska 02,50.057544722,19.900183888,Królowej Jadwigi
2089,Przegon 01,50.056447222,19.905345,al. Focha
2090,Instytut Reumatologii 01,50.057719722,19.914256944,al. Focha
2091,Cracovia Błonia 01,50.058785,19.921688333,al. Focha
2095,Rzemieślnicza 03,50.032658055,19.938285277,Wadowicka
2096,Łagiewniki 11,50.02881,19.93622,Zakopiańska
2097,Łagiewniki SKA 06,50.02144,19.93188,Trasa Łagiewnicka
2098,Krokusowa 02,50.02498,19.91942,Trasa Łagiewnicka
2099,Borkowska 01,50.004634722,19.905784166,Borkowska
2100,Kliny Zacisze 02,50.001235555,19.900269444,Bartla
2101,Os. Pod Fortem 02,49.998623611,19.897229444,Bartla
2102,Kliny Zacisze 01,50.001647222,19.900897777,Krygowskiego
2103,Borkowska 02,50.004885555,19.905853055,Borkowska
2104,Rostworowskiego 05,50.02764,19.91488,Rostworowskiego
2105,Krokusowa 01,50.02422,19.91962,Trasa Łagiewnicka
2106,Łagiewniki SKA 04,50.02183,19.93291,Zakopiańska
2107,Łagiewniki 06,50.0294425,19.936939444,Wadowicka
2108,Rzemieślnicza 04,50.033204166,19.938845,Wadowicka
2109,Nowy Kleparz 06,50.073103888,19.934821388,Długa
2110,Wzgórza Krzesławickie 05,50.095824722,20.063839444,Architektów
2111,Zawiszy 01,49.999428333,19.9134925,Forteczna
2112,Forteczna 01,50.001048611,19.906106944,Forteczna
2113,Forteczna 02,50.000803888,19.906795555,Forteczna
2114,Zawiszy 02,49.999698611,19.911808055,Forteczna
2115,Judyma Szkoła 02,50.000858611,19.916795833,Judyma
2116,Os. Kliny 02,50.000541388,19.912616944,Zawiszy
2117,Niebyła 02,50.102033055,20.061571944,Kantorowicka
2118,Kantorowice 04,50.104645,20.061571666,Kantorowicka
2119,Niebyła 01,50.102107777,20.061340833,Kantorowicka
2120,Centrum JP II 01,50.012326388,19.9371075,Totus Tuus
2121,Turowicza 03,50.014541388,19.946148888,Trasa Łagiewnicka
2122,Wieliczka Modrzewiowa,49.994699722,20.019902777,Wieliczka ul. Ochota
2123,Wieliczka Krzyszkowice Dom Ludowy,49.989827222,20.032036388,Wieliczka ul. Krzyszkowicka
2124,Wieliczka Os. Szymanowskiego,49.988798611,20.038249166,Wieliczka ul. Sadowa
2125,Wieliczka Solne Miasto,49.985344444,20.046125,Wieliczka ul. Kościuszki
2126,Wieliczka Sąd,49.980705555,20.049398055,Wieliczka ul. Janińska
2127,Wieliczka Klaśnieńska,49.981209444,20.056438333,Wieliczka ul. Klaśnieńska
2128,Wieliczka Goliana,49.985135277,20.061512222,Wieliczka ul. Goliana
2129,Wieliczka Różana,49.998502222,20.024258333,Wieliczka ul. Ochota
2130,Kurdwanów P+R 06,50.014263611,19.949086944,Witosa
2131,Turowicza 04,50.015036944,19.944228055,Trasa Łagiewnicka
2132,Modlnica Skrzyżowanie,50.124474166,19.867578333,Modlnica ul. Leśna
2133,Modlnica Szkoła,50.130616111,19.863255,Modlnica ul. Świętego Wojciecha
2134,Modlnica Kościelna,50.133609166,19.855439722,Modlnica ul. Kościelna
2135,Tomaszowice Zacisze,50.135320555,19.848196111,Tomaszowice ul. Krakowska
2136,Tomaszowice Dwór,50.134431388,19.841722222,Tomaszowice ul. Krakowska
2137,Tomaszowice Kolberga,50.134835833,19.836473055,Tomaszowice ul. Ujazdowska
2138,Tomaszowice Spacerowa,50.134920277,19.831491944,Tomaszowice ul. Ujazdowska
2139,Bratysławska 06,50.084061111,19.932053611,Wybickiego
2140,Władysława Łokietka 01,50.085554722,19.923147222,Władysława Łokietka
2141,"Batalionu ""Skała"" AK 02",50.088819166,19.923416388,"Batalionu ""Skała"" AK"
2142,Wyki 02,50.092708333,19.922331388,Wyki
2143,Skrajna 01,50.092510555,19.91717,Władysława Łokietka
2144,Jordanowska 01,50.095580833,19.914490555,Władysława Łokietka
2145,Chabrowa 01,50.098581111,19.912057222,Władysława Łokietka
2146,Starego Wiarusa 01,50.101558888,19.909437222,Władysława Łokietka
2147,Poziomkowa 01,50.103511388,19.907651666,Władysława Łokietka
2148,Gospodarska 01,50.108295833,19.902600277,Władysława Łokietka
2149,Tonie Skrzyżowanie 01,50.112534166,19.898723611,Władysława Łokietka
2150,Na Budzyniu 02,50.111826388,19.893238888,Gaik
2151,Tonie 03,50.109366944,19.885920277,Gaik
2152,Na Budzyniu 01,50.111878055,19.893604722,Gaik
2153,Tonie Skrzyżowanie 02,50.112685277,19.898324444,Władysława Łokietka
2154,Gospodarska 02,50.107791944,19.903138888,Władysława Łokietka
2155,Poziomkowa 02,50.104260555,19.906670555,Władysława Łokietka
2156,Starego Wiarusa 02,50.100232222,19.910573333,Władysława Łokietka
2157,Chabrowa 02,50.097685,19.912593055,Władysława Łokietka
2158,Jordanowska 02,50.094848611,19.914962222,Władysława Łokietka
2159,Skrajna 02,50.092329166,19.918170277,Pachońskiego
2160,Wyki 01,50.092728888,19.922131944,Wyki
2161,Władysława Łokietka 02,50.086271666,19.922826666,Władysława Łokietka
2162,Os. Piastów 03,50.10064,20.01319,Piasta Kołodzieja
2163,Stella-Sawickiego 05,50.07358,20.00343,Nowohucka
2164,Rondo 308. Dywizjonu 04,50.0682,20.00411,Nowohucka
2165,Bonarka SKA 01,50.02986,19.94454,Tischnera
2166,Łagiewniki 08,50.028813611,19.93745,Tischnera
2167,Bonarka SKA 02,50.02946,19.94538,Tischnera
2168,Rondo 308. Dywizjonu 03,50.06775,20.00458,Nowohucka
2169,Rżąka 02,50.006238055,20.010988611,Rydygiera
2170,Kawiory 04,50.068746111,19.913941666,al. Kijowska
2171,Stachiewicza 01,50.084893055,19.916344722,Stachiewicza
2172,Vetulaniego 02,50.094080277,19.924718888,Pachońskiego
2173,Prądnik Biały 02,50.0962025,19.930309722,Jasna
2174,Pachońskiego P+R 03,50.094745555,19.927966944,Pachońskiego
2175,Vetulaniego 01,50.094059444,19.924027222,Pachońskiego
2176,Makowskiego 04,50.087667777,19.917394444,Makowskiego
2177,Biprostal 05,50.072443333,19.915158888,al. Kijowska
2178,Kawiory 01,50.068707777,19.913783611,al. Kijowska
2179,Czerwiakowskiego 02,50.008302222,20.010038611,Rydygiera
2180,Polana Żywiecka 02,50.011072777,19.909174722,Żywiecka
2181,Łuczyńskiego 02,50.013076666,19.913398055,Żywiecka
2182,Żywiecka 02,50.015716944,19.919725555,Żywiecka
2183,Rynek Fałęcki 02,50.017863611,19.924195555,Kościuszkowców
2184,Kościuszkowców 04,50.016098611,19.928577777,Kościuszkowców
2185,Cmentarz Olszanica 02,50.067574166,19.8237325,Olszanicka
2186,Olszanica Ogródki Działkowe 02,50.064184444,19.817986666,Olszanicka
2187,Olszanica Ogródki Działkowe 01,50.064360833,19.818612222,Olszanicka
2188,Cmentarz Olszanica 01,50.0676075,19.8244275,Olszanicka
2189,Warchałowskiego 02,49.989921388,19.860347222,Wrony
2190,Sapalskiego 02,49.990494444,19.863806388,Wrony
2191,Nałkowskiej 02,49.980414722,19.873075277,Petrażyckiego
2192,Skawina Graniczna,49.976572777,19.861150833,Skawina ul. Graniczna
2193,Skawina Korabniki,49.974819166,19.858430833,Skawina ul. Leśna
2194,Skawina Wyspiańskiego Szkoła,49.971851944,19.853601944,Skawina ul. Wyspiańskiego
2195,Skawina Cmentarz Komunalny,49.967816666,19.852817222,Skawina ul. Wyspiańskiego
2196,Skawina Kopernika,49.966137777,19.850411388,Skawina ul. Kopernika
2197,Skawina Ogrody,49.968784444,19.843532777,Skawina ul. Kopernika
2198,Skawina Starostwo Powiatowe,49.972366111,19.837046944,Skawina ul. Kopernika
2199,Skawina 29 Listopada,49.973305833,19.834715833,Skawina ul. Kopernika
2200,Sidzina 04,49.988435,19.872221111,Działowskiego
2201,Sapalskiego 01,49.990495277,19.864215277,Wrony
2202,Warchałowskiego 01,49.990528611,19.859534722,Wrony
2203,Wrony 03,49.995481666,19.853133333,Wrony
2204,Zielonki Jaskinia Zielonkowska,50.132301388,19.919451111,Zielonki ul. Garlicka
2205,Garlica Murowana Kasztany,50.134675277,19.922941666,Garlica Murowana ul. Garlicka
2206,Garlica Murowana Plac Zabaw,50.141143333,19.927583055,Garlica Murowana ul. Garlicka
2207,Garlica Duchowna Kapliczka,50.144208333,19.924867222,Garlica Duchowna
2208,Garlica Duchowna Rozjazd,50.148829722,19.922058611,Garlica Duchowna
2209,Wola Zachariaszowska Szkoła,50.150470833,19.931564722,Wola Zachariaszowska ul. Słowiańska
2210,Wola Zachariaszowska Słoneczna,50.155562222,19.936395,Wola Zachariaszowska ul. Słowiańska
2211,Górna Wieś Pętla,50.162461388,19.936055833,Górna Wieś ul. Graniczna
2212,Borek Fałęcki 01,50.013101,19.927021,Zakopiańska
2213,Solvay 02,50.014546,19.927822,Zakopiańska
2214,Kościuszkowców 02,50.015661,19.929342,Zakopiańska
2215,Łagiewniki SKA 05,50.0221,19.93254,Zakopiańska
2216,Kościuszkowców 01,50.016651,19.929831,Zakopiańska
2217,Solvay 01,50.014606,19.927852,Zakopiańska
2218,Skawina Zachodnia,49.97303,19.806549166,Skawina ul. Piłsudskiego
2219,Skawina Elektrownia,49.972857222,19.802207222,Skawina ul. Piłsudskiego
2220,Skawina Piłsudskiego,49.972206944,19.797218611,Skawina ul. Piłsudskiego
2221,Skawina Podbory,49.968891111,19.785650277,Skawina ul. Piłsudskiego
2222,Borek Szlachecki,49.966164722,19.778913055,Borek Szlachecki
2223,Borek Szlachecki Kościół,49.965116388,19.772286666,Borek Szlachecki
2224,Zelczyna,49.962422777,19.757908888,Zelczyna
2225,Zelczyna PKP,49.960475,19.747632222,Zelczyna
2226,Zelczyna Szkoła,49.9588825,19.743603611,Zelczyna
2227,Facimiech Pod Kolebą,49.95888,19.7219025, 
2228,Wielkie Drogi PKP,49.9580825,19.710240833,Wielkie Drogi
2229,Wielkie Drogi Ośrodek Zdrowia,49.959262222,19.700960555, 
2230,Wielkie Drogi Szkoła,49.961004444,19.6936525, 
2231,Wielkie Drogi Trzebol,49.960784166,19.6853075,Wielkie Drogi
2232,Jaśkowice PKP,49.960771944,19.674016944,Jaśkowice
2233,Jaśkowice Remiza,49.96006,19.666019444,Jaśkowice
2234,Brzezinka Kuźnia,49.963110555,19.648595833,Brzezinka
2235,Brzeźnica Pasieka,49.964880833,19.638468333,Brzeźnica ul. Krakowska
2236,Brzeźnica Dworzec,49.967182777,19.628235833,Brzeźnica ul. Kolejowa
2237,Lubostroń 04,50.01536,19.90137,Lubostroń
2238,Konopczyńskiego 02,50.01499,19.89688,Lubostroń
2239,Piltza 02,50.01531,19.89276,Lubostroń
2240,Piltza 04,50.01526,19.8903,Lubostroń
2241,Czerwone Maki P+R 06,50.01809,19.88882, 
2242,Piltza 01,50.01522,19.892,Lubostroń
2243,Konopczyńskiego 01,50.01493,19.89685,Lubostroń
2244,Lubostroń 03,50.01547,19.90198,Lubostroń
2245,Malborska 01,50.026394166,19.972981111,Kamieńskiego
2246,Sułkowskiego 02,50.023798611,19.969263611,Malborska
2247,Malborska Szkoła 02,50.022056111,19.964478333,Malborska
2248,Myślenicka 02,50.004791388,19.942932777,Herberta
2249,Swoszowice Autostrada 01,50.001051944,19.941287777,Węzeł Łagiewnicki
2250,Warszewicza 01,49.997463611,19.9460225,Myślenicka
2251,Swoszowice Szkoła 04,49.994355833,19.94607,Merkuriusza Polskiego
2252,Swoszowice SKA 02,49.999826388,19.927677222, 
2253,Warszewicza 02,49.998795,19.945862777,Myślenicka
2254,Swoszowice Autostrada 02,50.000622222,19.9423875,Węzeł Łagiewnicki
2255,Wola Duchacka 01,50.021022777,19.962011388,Malborska
2256,Malborska Szkoła 01,50.022223888,19.965351111,Malborska
2257,Sułkowskiego 01,50.023481388,19.968732222,Malborska
2258,Rzepakowa 04,50.07554,20.14903,Rzepakowa
2259,Barwinkowa 02,50.07437,20.15066,Rzepakowa
2260,Prawocheńskiego 02,50.06534,20.15289,Rzepakowa
2261,Przylasek Rusiecki Północ 02,50.05994,20.15455,Rzepakowa
2262,Rzepakowa Świetlica 02,50.05736,20.15883,Rzepakowa
2263,Przylasek Rusiecki Kąpielisko 02,50.05395,20.16176,Rzepakowa
2265,Przylasek Rusiecki 01,50.04625,20.16387,Rzepakowa
2267,Przylasek Rusiecki Kąpielisko 01,50.05419,20.16162,Rzepakowa
2268,Rzepakowa Świetlica 01,50.05756,20.15873,Rzepakowa
2269,Przylasek Rusiecki Północ 01,50.05971,20.15498,Rzepakowa
2270,Prawocheńskiego 01,50.06542,20.15297,Rzepakowa
2271,Barwinkowa 01,50.07339,20.1515,Rzepakowa
2272,Kępa Grabska 01,50.04909,20.15566,Karasiówka
2273,Siewna Wiadukt 05,50.096036388,19.947629166,Mackiewicza
2274,Zawodzie 01,50.093761944,19.952091944,Siewna
2275,Jabłonna 01,50.091736111,19.956319444,Siewna
2276,Jabłonna 02,50.091790833,19.956359444,Siewna
2277,Zawodzie 02,50.093246666,19.953096388,Siewna
2278,Piaski Wielkie 04,50.005826388,19.982935277,Rżącka
2279,Chełmońskiego Pętla 02,50.093337777,19.897231388,Stawowa
2280,Łobzów SKA 04,50.082465277,19.915028055,Radzikowskiego
2281,Radzikowskiego 02,50.0833025,19.909128055,Radzikowskiego
2282,Gnieźnieńska 02,50.0834825,19.906260277,Radzikowskiego
2283,Czerwieńskiego 02,50.083970833,19.902424444,Radzikowskiego
2284,Fiszera 02,50.085486944,19.896870277,Radzikowskiego
2285,Radzikowskiego Osiedle 02,50.086275833,19.894045555,Radzikowskiego
2286,Radzikowskiego 01,50.083197222,19.908991666,Radzikowskiego
2287,Łobzów SKA 03,50.082311944,19.916193333,Wybickiego
2288,Ugorek 01,50.077064166,19.984235555,Ułanów
2289,Spadochroniarzy 01,50.079903611,19.981495277,Ułanów
2290,Akacjowa 02,50.081524444,19.976936666,Pilotów
2291,Czerwone Maki P+R 03,50.01758,19.89037,Bobrzyńskiego
2292,Wysiołek Luborzycki,50.158612777,20.104053611,Wysiołek Luborzycki ul. Radwany
2293,Wysiołek Luborzycki Radwany,50.163937777,20.099944722,Wysiołek Luborzycki ul. Radwany
2294,Marszowice Góry,50.170666944,20.096178888,Marszowice ul. Leśna
2295,Marszowice,50.187792777,20.09267,Marszowice ul. Leśna
2296,Polanowice Kolonia,50.193435,20.091641944,Polanowice
2297,Polanowice Boisko,50.198215,20.091476388,Polanowice
2298,Niedźwiedź PKP,50.211890555,20.085921111,Niedźwiedź ul. Kocmyrzowska
2299,Niedźwiedź Felix,50.223748611,20.082021944,Ratajów
2300,Ratajów Skrzyżowanie,50.230075833,20.082068611,Ratajów
2301,Słomniki Zagłoby,50.234263055,20.0820325,Słomniki ul. Zagłoby
2302,Słomniki Rynek,50.2407,20.0806,Słomniki Rynek
2303,Słomniki Kościuszki,50.243341944,20.083028888,Słomniki ul. Kościuszki
2304,Słomniki Osiedle,50.2453225,20.084509166,Słomniki ul. św. Jana Pawła II
2305,Kopiec Wandy 02,50.069726,20.067014,Ujastek Mogilski
2306,Kombinat 03,50.0787,20.066005,Ujastek
2307,Zajezdnia Nowa Huta 01,50.083538,20.065554,Ujastek
2308,Kombinat 02,50.079835,20.065863,Ujastek
2309,Kopiec Wandy 01,50.069952,20.066722,Ujastek Mogilski
2310,Sucharskiego 02,50.01835,20.04272,Sucharskiego
2311,Złocieniowa 02,50.01609,20.05116,Sucharskiego
2312,Bieżanów Granica Miasta 02,50.009805833,20.0643875,Kokotowska
2313,Czarnochowice Kokotowska,50.01216,20.074324722,Czarnochowice
2314,Kokotów I,50.012193055,20.084318055,Kokotów
2315,Kokotów II,50.0135825,20.093084166,Kokotów
2316,Węgrzce Wielkie Gościniec,50.014614166,20.106499166,Węgrzce Wielkie ul. Długa
2317,Węgrzce Wielkie OSP,50.014826111,20.110704722,Węgrzce Wielkie ul. Długa
2318,Węgrzce Wielkie Pętla,50.014831666,20.115184166,Węgrzce Wielkie ul. Długa
2319,Bieżanów Granica Miasta 01,50.010843055,20.065115833,Kokotowska
2320,Złocieniowa 01,50.01632,20.05062,Sucharskiego
2321,Sucharskiego 01,50.01785,20.04404,Sucharskiego
2322,Korepty 02,50.015940833,20.028221666,Mała Góra
2323,Tonie Gliniki 01,50.117001944,19.894202222,Władysława Łokietka
2324,Modlnica Cicha,50.124954722,19.885066944,Modlnica ul. Szydło
2325,Giebułtów Osiedle Polana,50.1296125,19.880225833,Giebułtów ul. Graniczna
2326,Giebułtów Zielone Wzgórze,50.135726666,19.871522222,Giebułtów ul. Graniczna
2327,Giebułtów Świętego Idziego,50.138107222,19.868968611,Giebułtów ul. Świętego Idziego
2328,Giebułtów Kościół,50.141620555,19.884166111,Giebułtów ul. Świętego Idziego
2329,Giebułtów Plac Zabaw,50.143897777,19.878875277,Giebułtów ul. Orlich Gniazd
2330,Giebułtów Zbiornik,50.147013055,19.875736944,Giebułtów ul. Orlich Gniazd
2331,Giebułtów Morgi,50.151578888,19.871016666,Giebułtów ul. Orlich Gniazd
2332,Tonie Gliniki 02,50.117211111,19.893642222,Władysława Łokietka
2333,Koksochemia 03,50.07211,20.10539,Igołomska
2334,Nadbrzezie 02,50.07,20.10165,Nadbrzezie
2335,Suchy Jar 02,50.06967,20.10746,Nadbrzezie
2336,Gwarecka 02,50.06614,20.10955,Suchy Jar
2337,Karowa 01,50.06049,20.10798,Karowa
2338,Dymarek 01,50.05902,20.1037,Karowa
2339,"Oczyszczalnia Ścieków ""Kujawy"" 02",50.05183,20.10173,Dymarek
2340,Kujawy 02,50.04819,20.10022,Dymarek
2341,"Oczyszczalnia Ścieków ""Kujawy"" 01",50.05272,20.10183,Dymarek
2342,Dymarek 02,50.05933,20.10478,Karowa
2343,Karowa 02,50.06025,20.10746,Karowa
2344,Gwarecka 01,50.06635,20.10964,Suchy Jar
2345,Suchy Jar 01,50.0697,20.10783,Nadbrzezie
2346,Nadbrzezie 01,50.07007,20.10177,Nadbrzezie
2347,Koksochemia 04,50.07173,20.10482,Igołomska
2348,Cmentarz Pleszów 02,50.07225,20.11534,Igołomska
2349,Danalówka 01,50.027448611,20.039033888,Półłanki
2350,Magazynowa 01,50.024965833,20.038096111,Półłanki
2351,Magazynowa 02,50.025494166,20.0384,Półłanki
2352,Danalówka 02,50.028386388,20.03947,Półłanki
2353,Walcownia 02,50.08886,20.08066,Łowińskiego
2354,Agencja Kraków Wschód 03,50.08759,20.07941,Mrozowa
2355,Elektromontaż 03,50.08817,20.06649,Łowińskiego
2356,Elektromontaż 06,50.08801,20.06638,Łowińskiego
2357,Lubocza SKA 03,50.08843,20.07332,Łowińskiego
2359,Bieżanowska 08,50.02427,19.98265,Bieżanowska
2360,Prosta 02,50.02531,19.99114,Bieżanowska
2361,Prokocim Rynek 02,50.02325,19.99779,Bieżanowska
2362,Młodzieży 02,50.02285,20.00193,Bieżanowska
2363,Cmentarz Prokocim 02,50.02156,20.00795,Bieżanowska
2364,Bieżanów Trafo 02,50.02103,20.01723,Bieżanowska
2365,Bieżanów Szkoła 02,50.0193,20.02374,Bieżanowska
2366,Jasieńskiego 04,50.01697,20.05718,Zarzyckiego
2367,Kokotów SKA 02,50.01756,20.06834,Zarzyckiego
2368,Jasieńskiego 02,50.01721,20.0573,Zarzyckiego
2369,Bieżanów Szkoła 01,50.01956,20.02303,Bieżanowska
2370,Bieżanów Trafo 01,50.02128,20.01625,Bieżanowska
2371,Cmentarz Prokocim 01,50.02184,20.00725,Bieżanowska
2372,Młodzieży 01,50.02284,20.00251,Bieżanowska
2373,Prokocim Rynek 01,50.02373,19.99662,Bieżanowska
2374,Prosta 01,50.02511,19.99262,Bieżanowska
2375,Bieżanowska 07,50.02456,19.98314,Bieżanowska
2376,Cmentarz Podgórski 04,50.0386,19.96487,Wielicka
2377,Kantorowicka 01,50.098889444,20.067272222,Kantorowicka
2378,Grębałów 01,50.097296944,20.073153611,Grębałowska
2379,Folwarczna 02,50.100518611,20.076515555,Grębałowska
2380,Sucha 01,50.02421,19.942090555,Fredry
2381,Fredry 01,50.020804722,19.942739444,Fredry
2382,Połomskiego 02,50.018928333,19.945457777,Turowicza
2383,Wysłouchów 02,50.008024166,19.953763333,Wysłouchów
2384,Bojki 02,50.00772,19.962533333,Wysłouchów
2385,Kurdwanów Szkoła 02,50.005106666,19.965472222,Cechowa
2386,Cechowa 02,50.007053611,19.972573611,Cechowa
2387,Cechowa 01,50.006854444,19.970884444,Cechowa
2388,Kurdwanów Szkoła 01,50.005684444,19.9664475,Cechowa
2389,Bojki 01,50.008015277,19.961296388,Wysłouchów
2390,Wysłouchów 01,50.008176666,19.953402777,Wysłouchów
2391,Turowicza 05,50.015875,19.945608333,Turowicza
2392,Połomskiego 03,50.019329722,19.944409722,Połomskiego
2393,Fredry 02,50.021486388,19.942705833,Fredry
2394,Sucha 02,50.024536388,19.942108055,Fredry
2395,Budzyń Zalew na Piaskach,50.049695555,19.799601388,Budzyń
2396,Balice Olszanica Bory,50.062986944,19.804051944,Balice ul. Medweckiego
2397,Balice Na Lotnisko,50.076624444,19.808118055,Balice ul. Na Lotnisko
2398,Morawica Rudki,50.070354444,19.747724166, 
2399,Mników Granica,50.064403611,19.737409166, 
2400,Mników Sklep,50.060491111,19.7278525, 
2401,Mników Remiza,50.059949444,19.722221388,Mników
2402,Mników Pańska Góra,50.063428055,19.721111111,Mników
2403,Mników Zarynnie,50.066340555,19.718667777,Mników
2404,Mników Skały,50.068845,19.707355,Mników
2405,Balice Medweckiego,50.068178611,19.800905277,Balice ul. Medweckiego
2406,Łutnia 02,50.040484722,20.073278888,Łutnia
2407,Brzegi Grobla,50.033178333,20.094411388,Brzegi
2408,Niepołomice Podgrabie,50.03862,20.150237222,Niepołomice ul. Krakowska
2409,Niepołomice Pasternik,50.040880833,20.167001666,Niepołomice ul. Krakowska
2410,Niepołomice Kątek,50.038958611,20.173452777,Niepołomice ul. Grabska
2411,Niepołomice Poręby,50.037078611,20.180863055,Niepołomice ul. Grabska
2412,Niepołomice Diesla,50.033847222,20.189013055,Niepołomice ul. Grabska
2413,Niepołomice Wodna,50.032370555,20.1929475,Niepołomice ul. Grabska
2414,Niepołomice Płaszowska I,50.030888055,20.198166111,Niepołomice ul. Płaszowska
2415,Łutnia 01,50.040614722,20.073716111,Łutnia
2416,Libertów Zgodna,49.977914722,19.909211388,Libertów ul. Jana Pawła II
2417,Libertów Szkoła,49.972707222,19.899923333,Libertów ul. Jana Pawła II
2418,Libertów Działy,49.972173333,19.891093055,Libertów ul. Jana Pawła II
2419,Libertów Krzyżówka,49.9716825,19.883672777,Libertów ul. Jana Pawła II
2420,Libertów Droga do Sidziny,49.971589166,19.876126944,Żyzna
2421,Brzyczyna,49.972815277,19.868660555,Skawina ul. Leśna
2422,Skawina Wyspiańskiego,49.974826388,19.855233333,Skawina ul. Korabnicka
2423,Skawina Korabnicka,49.974154722,19.847434722,Skawina ul. Korabnicka
2424,Skawina Korabnicka Szkoła,49.974251388,19.836886666,Skawina ul. Korabnicka
2425,Ochodza Dwór,49.964798333,19.743298611, 
2426,Ochodza Dom Ludowy,49.967662777,19.742323055, 
2427,Ochodza Staw,49.970297222,19.746651666, 
2428,Ochodza Odwiśle,49.977829722,19.750303611, 
2429,Łagiewniki SKA 01,50.02032,19.9317,Zakopiańska
2430,Konary Sęk,49.935353333,19.926663611,Konary ul. Świątnicka
2431,Świątniki Górne Buk,49.935047222,19.934363888,Świątniki Górne ul. Bruchnalskiego
2432,Ochojno Remiza,49.954161944,19.973713333,Ochojno ul. Jagiellońska
2433,Akacjowa 01,50.081540277,19.9775475,Pilotów
2434,Spadochroniarzy 02,50.080214722,19.980894444,Ułanów
2435,Ugorek 02,50.077943888,19.983379444,Ułanów
2436,Makowskiego 03,50.087612777,19.916406666,Makowskiego
2437,Urząd Marszałkowski 02,50.078828888,19.92223,Wrocławska
2438,Wrocławska 02,50.076442222,19.927984444,Wrocławska
2439,Friedleina 02,50.075403333,19.931582222,Wrocławska
2440,Nowy Kleparz 08,50.074803888,19.935015,Wrocławska
2441,Dworzec Główny Zachód 09,50.067204166,19.944498333,Kurniki
2442,Friedleina 01,50.075461111,19.931826111,Wrocławska
2443,Wrocławska 01,50.077293611,19.926271111,Wrocławska
2444,Urząd Marszałkowski 01,50.078811666,19.922528055,Wrocławska
2445,Szymańskiego 04,50.07436,20.13943,Szymańskiego
2446,Plastusia 02,50.06865,20.1398,Plastusia
2447,Deszczowa 02,50.0639,20.14146,Karaszewicza-Tokarzewskiego
2448,Branice Szkoła 01,50.06028,20.14323,Branicka
2449,Branice 01,50.05918,20.13671,Branicka
2450,Branice Ośrodek Zdrowia 01,50.05843,20.1289,Branicka
2451,Chałupki Górne 04,50.05465,20.12514,Kąkolowa
2452,Kąkolowa 02,50.0513,20.12754,Kąkolowa
2453,Truskawkowa 03,50.04759,20.12835,Truskawkowa
2454,Chałupki 01,50.04899,20.12205,Rumiankowa
2455,Truskawkowa 01,50.04765,20.12817,Truskawkowa
2456,Kąkolowa 01,50.05143,20.12743,Kąkolowa
2457,Chałupki Górne 02,50.05499,20.12564,Branicka
2458,Branice Ośrodek Zdrowia 02,50.05833,20.12941,Branicka
2459,Branice 02,50.05916,20.13686,Branicka
2460,Branice Szkoła 02,50.06019,20.14318,Branicka
2461,Deszczowa 01,50.06552,20.14122,Karaszewicza-Tokarzewskiego
2462,Plastusia 01,50.06877,20.1401,Plastusia
2463,Rzebika 03,50.040694166,19.991008888,Lipska
2464,Fabryczna 05,50.061203888,19.970570555,Fabryczna
2465,Fabryczna 06,50.061192222,19.9704375,Fabryczna
2466,Lipska 06,50.04051,19.9839825,Lipska
2467,Nad Drwiną 02,50.032305277,20.056891666,Nad Drwiną
2468,Domagały 02,50.032829444,20.053048055,Nad Drwiną
2469,Bibice Kościuszki,50.1213425,19.958680833,Bibice ul. Kościuszki
2470,Bibice Rynek,50.126185,19.953912777,Bibice ul. Kościuszki
2471,Bibice Cmentarz,50.125469166,19.940683611,Bibice ul. Kasztanowa
2472,Skawina Centrum Sportowe,49.971209444,19.825651666,Skawina ul. Konstytucji 3 Maja
2473,Skawina Radziszowska,49.969321944,19.822603055,Skawina ul. Radziszowska
2474,Skawina Groble,49.966932222,19.819775833,Skawina ul. Radziszowska
2475,Skawina Os. Radziszowskie,49.960031388,19.81569,Skawina ul. Radziszowska
2476,Skawina Nad Potokiem,49.954340833,19.815126111,Skawina ul. Radziszowska
2477,Radziszów Kamionna,49.946871111,19.811208888,Radziszów ul. Skawińska
2478,Radziszów Centrum,49.938384444,19.810166388,Radziszów ul. Jana Pawła II
2479,Radziszów Zadworze,49.93587,19.816025277,Radziszów ul. Zadworze
2480,Radziszów Włosanka,49.930448333,19.820607222,Radziszów ul. Zadworze
2481,Radziszów Podlesie,49.922173333,19.821095277,Radziszów ul. Podlesie
2482,Radziszów Leśniczówka,49.916338333,19.818523888,Radziszów ul. Podlesie
2483,Radziszów Podlesie Las,49.912379444,19.820781111,Radziszów ul. Podlesie
2484,Radziszów Stare Sanatorium,49.909431666,19.827500833,Radziszów ul. Podlesie
2485,Radziszów Szpital,49.906684166,19.833490277,Radziszów ul. Podlesie
2486,Wola Radziszowska Kapelanka,49.904606388,19.824823333,Wola Radziszowska ul. Krakowska
2487,Wola Radziszowska Mała Ostra Góra,49.906863888,19.814426944,Wola Radziszowska ul. Mickiewicza
2488,Wola Radziszowska Most,49.907196944,19.804735555,Wola Radziszowska ul. Mickiewicza
2489,Wola Radziszowska Lipki,49.91027,19.797869444,Wola Radziszowska ul. św. Jana Pawła II
2490,Wola Radziszowska Podgaźle,49.909590833,19.792115555,Wola Radziszowska ul. św. Jana Pawła II
2491,Wola Radziszowska Centrum,49.9077775,19.7871475,Wola Radziszowska ul. św. Jana Pawła II
2492,Wola Radziszowska Chorzyny,49.90379,19.775557777,Wola Radziszowska ul. Kalwaryjska
2493,Wola Radziszowska Pętla,49.902490277,19.7683975,Wola Radziszowska ul. Kalwaryjska
2494,Bieżanów Pomnik 04,50.017868611,20.034907222,Popiełuszki
2495,Jędrzejczyka 02,50.014704444,20.041995833,Weigla
2496,Pruszyńskiego 02,50.013784444,20.048627777,Potrzask
2497,Bieżanów Potrzask 02,50.00832,20.0528325,Potrzask
2498,Wieliczka Zbożowa,50.002343888,20.055287222,Wieliczka ul. Wygoda
2499,Wieliczka Wygoda Kapliczka,49.996171944,20.059926666,Wieliczka ul. Wygoda
2500,Wieliczka Orzechowa,49.993409166,20.06586,Wieliczka ul. Czarnochowska
2501,Wieliczka Czarnochowska Cmentarz,49.989392222,20.063097222,Wieliczka ul. Czarnochowska
2502,Wieliczka Centrum,49.985073888,20.056988611,Wieliczka ul. Dembowskiego
2503,Starego Wiarusa 04,50.101099166,19.910571111,Starego Wiarusa
2504,Pękowicka 03,50.100772222,19.915035277,Pękowicka
2505,Zielonki Słoneczna,50.104234166,19.91875,Zielonki ul. Lawendowa
2506,Zielonki Na Popielówkę,50.107543055,19.916375833,Zielonki ul. Na Popielówkę
2507,Zielonki Długopolska,50.111731666,19.914376111,Zielonki ul. Na Popielówkę
2508,Tonie Kąty 73,50.115984444,19.902538611,Na Zielonki
2509,Pękowice Fort,50.124942222,19.901281388,Pękowice ul. Jurajska
2510,Pękowice Ojcowska,50.128215277,19.897813611,Pękowice ul. Ojcowska
2511,Tonie Kąty 04,50.1159375,19.902397222,Na Zielonki
2512,Pękowicka 01,50.100581111,19.914526111,Starego Wiarusa
2513,Stradom 06,50.052501944,19.9419625,Dietla
2514,Przy Kuźni 02,50.004010277,19.9885525,Rżącka
2515,Hallera 01,50.003335277,19.995231666,Kosocicka
2516,Słona Woda 01,50.003629722,20.003915833,Kosocicka
2517,Kosocicka 01,50.004293611,20.010818333,Kosocicka
2518,Węzeł Wielicki 06,50.005871944,20.0155725,Kosocicka
2519,Kosocicka 02,50.004569444,20.011605833,Kosocicka
2520,Słona Woda 02,50.003460833,20.003361388,Kosocicka
2521,Hallera 03,50.003733611,19.993596111,Rżącka
2522,Przy Kuźni 01,50.003999166,19.990218611,Rżącka
2523,Bieżanowska 05,50.023535277,19.979099722,Nowosądecka
2524,Rondo Matecznego 04,50.036787777,19.941060833,Kalwaryjska
2525,Skawina Bukowska,49.961990277,19.836120555,Skawina ul. Bukowska
2526,Bratysławska 05,50.084493333,19.933443333,Ździebły-Danowskiego
2527,Białoprądnicka 04,50.094904444,19.935273611,Pachońskiego
2528,Górnickiego 04,50.096238888,19.941876944,Pachońskiego
2529,Bociana 03,50.095138611,19.954412777,Bociana
2530,Bociana 04,50.095266944,19.953883055,Bociana
2531,Siewna Wiadukt 03,50.096396388,19.946481944,Pachońskiego
2532,Górnickiego 03,50.096103055,19.941341944,Pachońskiego
2533,Białoprądnicka 03,50.094964166,19.935322222,Pachońskiego
2534,Kuklińskiego 08,50.044764722,19.974412777,Płaszowska
2535,Płaszowska 02,50.044978611,19.978217222,Płaszowska
2536,Węglarska 02,50.039625555,19.996678055,Węglarska
2537,Motyla 02,50.037420555,19.997061944,Grochowa
2538,Bagry 01,50.034096111,19.995266111,Kozia
2539,Motyla 04,50.037023611,19.9963625,Motyla
2540,Płaszów Szkoła 02,50.037215277,19.991839722,Goszczyńskiego
2542,Saska 05,50.045313333,19.982824444,Płaszowska
2543,Płaszowska 01,50.045321388,19.979008055,Płaszowska
2544,Strycharska 01,50.043328055,19.976586944,Sarmacka
2545,Zakliki SKA 02,50.08064,19.8484,Zakliki z Mydlnik
2546,Pylna 02,50.07569,19.84892,Podłużna
2547,Sielanka 03,50.06496,19.87584,28 lipca 1943
2548,Stara Wola 01,50.06218,19.8711,28 lipca 1943
2549,Poniedziałkowy Dół 01,50.05782,19.87114,Starowolska
2550,Żywiczna 01,50.05104,19.871,Jodłowa
2551,Przegorzały 03,50.04773,19.87138,Jodłowa
2552,Przegorzały 04,50.04711,19.87177,Jodłowa
2553,Żywiczna 02,50.05117,19.8715,Jodłowa
2554,Poniedziałkowy Dół 02,50.05803,19.87113,Starowolska
2555,Stara Wola 02,50.0616,19.87092,28 lipca 1943
2556,Sielanka 04,50.0646,19.8757,28 lipca 1943
2557,Chełm 06,50.06803,19.84725,Chełmska
2558,Pylna 01,50.07535,19.84894,Podłużna
2559,Zakliki SKA 01,50.08067,19.8485,Zakliki z Mydlnik
2560,Os. Zielone 02,50.079382222,20.045972777,Wojciechowskiego
2561,Os. Górali 02,50.081229166,20.040511666,Mościckiego
2562,Os. Górali 01,50.081062777,20.041254722,Mościckiego
2563,Os. Zielone 01,50.079108055,20.045386388,Wojciechowskiego
2564,Cmentarz Prądnik Czerwony 03,50.10232,19.98456,Powstańców
2565,Reduta 02,50.099092222,19.974328611,Reduta
2566,Węgrzce Sudół,50.107312222,19.985320833,Węgrzce ul. B1
2567,Węgrzce B1,50.109268055,19.989983888,Węgrzce ul. B1
2568,Dziekanowice Batowice SKA,50.107806111,19.996717222,Dziekanowice ul. Szmaragdowa
2569,Reduta 01,50.098129722,19.974814722,Reduta
2570,Krzyszkowice Kasztanowa II,49.990267222,20.0240725,Wieliczka ul. Kasztanowa
2571,Krzyszkowice Kasztanowa I,49.986282777,20.024733888,Wieliczka ul. Sadowa
2572,Wieliczka Krzyszkowice Kościół,49.98797,20.033681111,Wieliczka ul. Sadowa
2573,Bolechowice Zielona Mała,50.132049722,19.791534722,Bolechowice ul. Zielona
2574,Więckowice Lipka,50.133647222,19.778984444,Więckowice ul. Kasztanowa
2575,Więckowice Ogrodowa,50.137860277,19.769753611,Więckowice ul. Kasztanowa
2576,Kobylany Kwiatowa,50.146491388,19.762904166,Kobylany ul. Jana Pawła II
2577,Kobylany Remiza,50.1486275,19.75823,Kobylany ul. św. Floriana
2578,Kobylany Dworska,50.148174444,19.753010555,Kobylany ul. św. Floriana
2579,Brzezinka Zarzecze,50.138185833,19.748066388,Kobylany
2580,Brzezinka Kościół,50.137895,19.738636111,Brzezinka ul. Krakowska
2581,Brzezinka Skrzyżowanie,50.135246111,19.739686944,Brzezinka ul. Krakowska
2582,Rudawa Granica,50.131578611,19.734831388,Rudawa ul. Dunajewskiego
2583,Rudawa Osiedle,50.127272222,19.720848888,Rudawa ul. Dunajewskiego
2584,Rudawa 21 Lipca,50.141056944,19.707373055,Rudawa ul. 21 Lipca
2585,Radwanowice Pętla,50.1482525,19.709406944,Radwanowice ul. 21 Lipca
2586,Radwanowice Krzeszowicka,50.144957777,19.708325277,Radwanowice ul. 21 Lipca
2587,Pisary Dąbrówki,50.144113055,19.693543888,Pisary ul. Kasztanowa
2588,Pisary Kasztanowa,50.141500277,19.693401944,Pisary ul. Kasztanowa
2589,Pisary Spacerowa,50.135173611,19.692998333,Pisary ul. Kasztanowa
2590,Pisary Dwór,50.129687777,19.690769444,Pisary ul. Pisarskiego
